STATE,LOCALITY,CINEMA TYPE,LATITUDE,LONGITUDE,STREET ADDRESS,POSTCODE,SUBURB/TOWN,THEATRE NAME,EXHIBITOR NAME,CAPACITY,1,2,3,4,5,6,7,8,9,10,11,12,13,14,15,16,17,18,19,20,21,22,WEBLINKS, 
SA,Central Business District,Cinema ,-34.92506,138.599927,104 King William Street,5000,Adelaide,Majestic,Fullers Theatres Pty. Ltd.,1003,1948 - 1949,,,,,,,,,,,,,,,,,,,,,,,
SA,Central Business District,Cinema ,-34.92506,138.599927,104 King William Street,5000,Adelaide,Majestic,Fullers Theatres Pty. Ltd.,1021,,1949 - 1950,,,,,,,,,,,,,,,,,,,,,,
SA,Central Business District,Cinema ,-34.92506,138.599927,104 King William Street,5000,Adelaide,Majestic,Celebrity Theatres Pty. Ltd.,1013,,,,,,1953 - 1954,1954 - 1955,1955 - 1956,,,,,,,,,,,,,,,,
SA,Central Business District,Cinema ,-34.92506,138.599927,104 King William Street,5000,Adelaide,Majestic,Celebrity Theatres Pty. Ltd.,1083,,,,,,,,,1956 - 1957,1957 - 1958,1958 - 1959,,,,,,,,,,,,,
SA,Central Business District,Cinema ,-34.92506,138.599927,104 King William Street,5000,Adelaide,Majestic,Celebrity Theatres Pty. Ltd.,1003,,,,,,,,,,,,1959 - 1960,1960 - 1961,1961 - 1962,1962 - 1963,1963 - 1964,1964 - 1965,1965 - 1966,,,,,,
SA,Central Business District,Cinema ,-34.92506,138.599927,104 King William Street,5000,Adelaide,Her Majesty's,Hoyts Theatres Ltd.,…,,,,,,,,,,,,,,,,,,,,1968 - 1969,,,,
SA,Central Business District,Cinema ,-34.92506,138.599927,104 King William Street,5000,Adelaide,Warner,Hindley St. Parking Centre,728,,,,,,,,,,,,,,,,,,,,,1969 - 1970,1971,,
SA,Central Business District,Cinema ,-34.928954,138.596819,61 Grote Street,5000,Adelaide,Empire,W. Moffat,767,1948 - 1949,1949 - 1950,1950 - 1951,,,,,,,,,,,,,,,,,,,,,
SA,Central Business District,Cinema ,-34.928954,138.596819,61 Grote Street,5000,Adelaide,Empire,Mrs. L. O. A . Martin,767,,,,1951 - 1952,1952 - 1953,,,,,,,,,,,,,,,,,,,
SA,Central Business District,Cinema ,-34.928420,138.597163,58 Grote Street,5000,Adelaide,Tivoli,Ozone Theatres (S.A.) Ltd.,1763,,1949 - 1950,1950 - 1951,,,,,,,,,,,,,,,,,,,,,
SA,Central Business District,Cinema ,-34.928420,138.597163,58 Grote Street,5000,Adelaide,Tivoli,Ozone Theatres (Aust.) Ltd.,1763,,,,1951 - 1952,1952 - 1953,1953 - 1954,,,,,,,,,,,,,,,,,,
SA,Central Business District,Cinema ,-34.928252,138.603264,70 Wakefield Street,5000,Adelaide,Star,Clifford Theatre Circuit,1540,1948 - 1949,1949 - 1950,1950 - 1951,1951 - 1952,1952 - 1953,1953 - 1954,1954 - 1955,1955 - 1956,1956 - 1957,1957 - 1958,1958 - 1959,1959 - 1960,,,,,,,,,,,,
SA,Central Business District,Cinema ,-34.928252,138.603264,70 Wakefield Street,5000,Adelaide,Pantheon,Cosmopolitan Pictures,1540,,,,,,,,,,,,,,,1962 - 1963,1963 - 1964,1964 - 1965,1965 - 1966,1966 - 1967,,,,,
SA,Central Business District,Cinema ,-34.928252,138.603264,70 Wakefield Street,5000,Adelaide,Pantheon,Wakefield,1416,,,,,,,,,,,,,,,,,,,,,,1971,,
SA,Central Business District,Cinema ,-34.923670,138.603617,Regent Lane (off Grenfell Street),5000,Adelaide,Plaza,Plaza Thrs. Ltd.,800,,,,,,,,1955 - 1956,,,,,,,,,,,,,,,,
SA,Central Business District,Cinema ,-34.923670,138.603617,Regent Lane (off Grenfell Street),5000,Adelaide,Plaza,Plaza Thrs. Ltd.,735,,,,,,,,,1956 - 1957,1957 - 1958,,,,,,,,,,,,,,
SA,Central Business District,Cinema ,-34.923670,138.603617,Regent Lane (off Grenfell Street),5000,Adelaide,Plaza,Adelaide Plaza Thrs. Ltd.,730,,,,,,,,,,,1958 - 1959,1959 - 1960,1960 - 1961,1961 - 1962,,,,,,,,,,
SA,Central Business District,Cinema ,-34.923670,138.603617,Regent Lane (off Grenfell Street),5000,Adelaide,Plaza,Hoyts Theatres Ltd.,730,,,,,,,,,,,,,,,1962 - 1963,1963 - 1964,,,,,,,,
SA,Central Business District,Cinema ,-34.923670,138.603617,Regent Lane (off Grenfell Street),5000,Adelaide,Plaza,Hoyts Theatres Ltd.,584,,,,,,,,,,,,,,,,,1964 - 1965,1965 - 1966,1966 - 1967,,,,,
SA,Central Business District,Cinema ,-34.923670,138.603617,Regent Lane (off Grenfell Street),5000,Adelaide,Paris,Hoyts Theatres Ltd.,782,,,,,,,,,,,,,,,,,,,,1968 - 1969,1969 - 1970,1971,,
SA,Central Business District,Cinema ,-34.923081,138.596147,91 Hindley Street,5000,Adelaide,Wests,Greater Union Thrs. Pty. Ltd.,1448,1948 - 1949,1949 - 1950,1950 - 1951,1951 - 1952,1952 - 1953,1953 - 1954,1954 - 1955,1955 - 1956,1956 - 1957,1957 - 1958,1958 - 1959,1959 - 1960,1960 - 1961,1961 - 1962,1962 - 1963,,,,,,,,,
SA,Central Business District,Cinema ,-34.923081,138.596147,91 Hindley Street,5000,Adelaide,Wests,Greater Union Thrs. Pty. Ltd.,690,,,,,,,,,,,,,,,,1963 - 1964,1964 - 1965,1965 - 1966,1966 - 1967,1968 - 1969,1969 - 1970,1971,,
SA,Central Business District,Cinema ,-34.923056,138.596235,88-90 Hindley Street,5000,Adelaide,Metro,Metro-Goldwyn-Mayer Thrs.,1300,1948 - 1949,,,,,,,,,,,,,,,,,,,,,,,
SA,Central Business District,Cinema ,-34.923056,138.596235,88-90 Hindley Street,5000,Adelaide,Metro,Metro-Goldwyn-Mayer Thrs.,1286,,1949 - 1950,1950 - 1951,1951 - 1952,1952 - 1953,1953 - 1954,,,,,,,,,,,,,,,,,,
SA,Central Business District,Cinema ,-34.923056,138.596235,88-90 Hindley Street,5000,Adelaide,Metro,Metro-Goldwyn-Mayer Thrs.,1294,,,,,,,1954 - 1955,1955 - 1956,1956 - 1957,1957 - 1958,1958 - 1959,1959 - 1960,1960 - 1961,1961 - 1962,1962 - 1963,1963 - 1964,1964 - 1965,1965 - 1966,1966 - 1967,1968 - 1969,1969 - 1970,,,
SA,Central Business District,Cinema ,-34.923056,138.596235,88-90 Hindley Street,5000,Adelaide,Metro,Gt. Union Org.,1294,,,,,,,,,,,,,,,,,,,,,,1971,,
SA,Central Business District,Open Air,-34.923000,138.594792,128 Hindley Street,5000,Adelaide,Drive-Up and Park,Hindley St. Parking Centre,851,,,,,,,,,,,,,,,,,,1965 - 1966,,,,,,
SA,Central Business District,Cinema ,-34.923000,138.594792,128 Hindley Street,5000,Adelaide,My Fair Lady,Hindley St. Parking Centre,851,,,,,,,,,,,,,,,,,,,1966 - 1967,,,,,
SA,Central Business District,Cinema ,-34.923000,138.594792,128 Hindley Street,5000,Adelaide,Fair Lady,Hindley St. Parking Centre,851,,,,,,,,,,,,,,,,,,,,1968 - 1969,1969 - 1970,1971,,
SA,Central Business District,Cinema ,-34.922963,138.603418,101-109 Rundle Street,5000,Adelaide,Regent,Hoyts Theatres Ltd.,2262,1948 - 1949,1949 - 1950,1950 - 1951,1951 - 1952,1952 - 1953,1953 - 1954,1954 - 1955,1955 - 1956,1956 - 1957,1957 - 1958,1958 - 1959,1959 - 1960,1960 - 1961,1961 - 1962,1962 - 1963,,,,,,,,,
SA,Central Business District,Cinema ,-34.922963,138.603418,101-109 Rundle Street,5000,Adelaide,Regent,Hoyts Theatres Ltd.,1995,,,,,,,,,,,,,,,,1963 - 1964,,,,,,,,
SA,Central Business District,Cinema ,-34.922963,138.603418,101-109 Rundle Street,5000,Adelaide,Regent,Hoyts Theatres Ltd.,1985,,,,,,,,,,,,,,,,,1964 - 1965,1965 - 1966,,,,,,
SA,Central Business District,Cinema ,-34.922963,138.603418,101-109 Rundle Street,5000,Adelaide,Regent,Hoyts Theatres Ltd.,894,,,,,,,,,,,,,,,,,,,,1968 - 1969,1969 - 1970,1971,,
SA,Central Business District,Cinema ,-34.922926,138.598352,28 Hindley Street,5000,Adelaide,Royal,J. C. Williamson Ltd. & J. J. Boyle,1474,1948 - 1949,1949 - 1950,1950 - 1951,1951 - 1952,1952 - 1953,1953 - 1954,1954 - 1955,1955 - 1956,1956 - 1957,1957 - 1958,1958 - 1959,1959 - 1960,1960 - 1961,1961 - 1962,,,,,,,,,,
SA,Central Business District,Cinema ,-34.922904,138.598144,27 Hindley Street,5000,Adelaide,Civic,Greater Union Thrs. Pty. Ltd.,1441,1948 - 1949,,,,,,,,,,,,,,,,,,,,,,,
SA,Central Business District,Cinema ,-34.922904,138.598144,27 Hindley Street,5000,Adelaide,Civic,Greater Union Thrs. Pty. Ltd.,1541,,1949 - 1950,1950 - 1951,1951 - 1952,1952 - 1953,1953 - 1954,1954 - 1955,1955 - 1956,,,,,,,,,,,,,,,,
SA,Central Business District,Cinema ,-34.922904,138.598144,27 Hindley Street,5000,Adelaide,Civic,Greater Union Thrs. Pty. Ltd.,1505,,,,,,,,,1956 - 1957,1957 - 1958,,,,,,,,,,,,,,
SA,Central Business District,Cinema ,-34.922904,138.598144,27 Hindley Street,5000,Adelaide,State,Greater Union Thrs. Pty. Ltd.,1458,,,,,,,,,,,1958 - 1959,1959 - 1960,1960 - 1961,1961 - 1962,1962 - 1963,,,,,,,,,
SA,Central Business District,Cinema ,-34.922904,138.598144,27 Hindley Street,5000,Adelaide,Civic,Greater Union Thrs. Pty. Ltd.,1505,,,,,,,,,,,1958 - 1959,,,,,,,,,,,,,
SA,Central Business District,Cinema ,-34.922904,138.598144,27 Hindley Street,5000,Adelaide,State,Greater Union Thrs. Pty. Ltd.,1206,,,,,,,,,,,,,,,,1963 - 1964,1964 - 1965,1965 - 1966,1966 - 1967,1968 - 1969,1969 - 1970,1971,,
SA,Central Business District,Cinema ,-34.922882,138.601133,23 Rundle Street,5000,Adelaide,Mayfair,Greater Union Thrs. Pty. Ltd.,933,1948 - 1949,,,,,,,,,,,,,,,,,,,,,,,
SA,Central Business District,Cinema ,-34.922882,138.601133,23 Rundle Street,5000,Adelaide,Mayfair,Greater Union Thrs. Pty. Ltd.,917,,1949 - 1950,1950 - 1951,1951 - 1952,1952 - 1953,1953 - 1954,1954 - 1955,,,,,,,,,,,,,,,,,
SA,Central Business District,Cinema ,-34.922882,138.601133,23 Rundle Street,5000,Adelaide,Sturt,Greater Union Thrs. Pty. Ltd.,700,,,,,,,,1955 - 1956,1956 - 1957,1957 - 1958,,,,,,,,,,,,,,
SA,Central Business District,Cinema ,-34.922882,138.601133,23 Rundle Street,5000,Adelaide,Sturt,Greater Union Thrs. Pty. Ltd.,698,,,,,,,,,,,1958 - 1959,1959 - 1960,1960 - 1961,1961 - 1962,1962 - 1963,1963 - 1964,1964 - 1965,1965 - 1966,1966 - 1967,1968 - 1969,1969 - 1970,1971,,
SA,Central Business District,Cinema ,-34.922859,138.601790,62 Rundle Street,5000,Adelaide,York,Ozone Theatres (S.A.) Ltd.,1722,1948 - 1949,1949 - 1950,1950 - 1951,,,,,,,,,,,,,,,,,,,,,
SA,Central Business District,Cinema ,-34.922859,138.601790,62 Rundle Street,5000,Adelaide,York,Ozone Theatres (Aust.) Ltd.,1722,,,,1951 - 1952,1952 - 1953,1953 - 1954,1954 - 1955,1955 - 1956,1956 - 1957,,,,,,,,,,,,,,,
SA,Central Business District,Cinema ,-34.922859,138.601790,62 Rundle Street,5000,Adelaide,York,Ozone Theatres (S.A.) Ltd.,1722,,,,,,,,,,1957 - 1958,1958 - 1959,1959 - 1960,,,,,,,,,,,,
SA,Central Business District,Cinema ,-34.922853,138.601024,43 Rundle Street,5000,Adelaide,Savoy Newsluxe,General Theatres Corp.,397,1948 - 1949,1949 - 1950,1950 - 1951,1951 - 1952,1952 - 1953,1953 - 1954,1954 - 1955,1955 - 1956,1956 - 1957,1957 - 1958,,,,,,,,,,,,,,
SA,Central Business District,Cinema ,-34.922853,138.601024,43 Rundle Street,5000,Adelaide,Savoy Newsluxe,General Theatres Corp.,398,,,,,,,,,,,1958 - 1959,1959 - 1960,1960 - 1961,,,,,,,,,,,
SA,Central Business District,Cinema ,-34.922852,138.604177,119 Rundle Street,5000,Adelaide,Rex,Hoyts Theatres Ltd.,1157,1948 - 1949,,,,,,,,,,,,,,,,,,,,,,,
SA,Central Business District,Cinema ,-34.922852,138.604177,119 Rundle Street,5000,Adelaide,Rex,Hoyts Theatres Ltd.,1148,,1949 - 1950,1950 - 1951,,,,,,,,,,,,,,,,,,,,,
SA,Central Business District,Cinema ,-34.922852,138.604177,119 Rundle Street,5000,Adelaide,Rex,Hoyts Theatres Ltd.,1125,,,,1951 - 1952,1952 - 1953,1953 - 1954,1954 - 1955,1955 - 1956,1956 - 1957,1957 - 1958,,,,,,,,,,,,,,
SA,Central Business District,Cinema ,-34.922852,138.604177,119 Rundle Street,5000,Adelaide,Rex,Hoyts Theatres Ltd.,1145,,,,,,,,,,,1958 - 1959,1959 - 1960,1960 - 1961,,,,,,,,,,,
SA,Central Business District,Cinema ,-34.922753,138.604190,124 Rundle Street,5000,Adelaide,Liberty,Fullers Theatres Pty. Ltd.,385,1948 - 1949,1949 - 1950,1950 - 1951,1951 - 1952,,,,,,,,,,,,,,,,,,,,
SA,Central Business District,Cinema ,-34.922753,138.604190,124 Rundle Street,5000,Adelaide,Curzon,Robot Enterprises Ltd.,385,,,,,1952 - 1953,1953 - 1954,1954 - 1955,,,,,,,,,,,,,,,,,
SA,Central Business District,Cinema ,-34.922753,138.604190,124 Rundle Street,5000,Adelaide,Curzon,R. Kapferer & A. Regan,385,,,,,,,,1955 - 1956,,,,,,,,,,,,,,,,
SA,Central Business District,Cinema ,-34.922672,138.6058381,43 Rundle Street,5000,Adelaide,Globe Theatrette,Globe Theatres Ltd.,398,,,,,,,,,,,,,,1961 - 1962,1962 - 1963,,,,,,,,,
SA,Central Business District,Cinema ,-34.922672,138.6058381,43 Rundle Street,5000,Adelaide,Globe Theatrette,Globe Theatres Ltd.,375,,,,,,,,,,,,,,,,1963 - 1964,1964 - 1965,,,,,,,
SA,Suburban,Cinema ,-34.858982,138.519687,33a Fussell Place,5014,Alberton,Ozone Alberton,Ozone Theatres Ltd.,1345,1948 - 1949,,,,,,,,,,,,,,,,,,,,,,,
SA,Suburban,Cinema ,-34.858982,138.519687,33a Fussell Place,5014,Alberton,Ozone Alberton,Ozone Theatres Ltd.,1354,,1949 - 1950,1950 - 1951,,,,,,,,,,,,,,,,,,,,,
SA,Suburban,Cinema ,-34.858982,138.519687,33a Fussell Place,5014,Alberton,Ozone Alberton,Hoyts-Ozone Theatres,1354,,,,1951 - 1952,1952 - 1953,1953 - 1954,1954 - 1955,1955 - 1956,,,,,,,,,,,,,,,,
SA,Suburban,Cinema ,-34.858982,138.519687,33a Fussell Place,5014,Alberton,Ozone Alberton,Hoyts-Ozone Theatres,1234,,,,,,,,,1956 - 1957,1957 - 1958,1958 - 1959,1959 - 1960,1960 - 1961,,,,,,,,,,,
SA,Country/Rural,Cinema ,-35.267436,138.48256,,5173,Aldinga,Institute,Hoyts-Ozone Theatres,160,,,,,,,,,,,1958 - 1959,,,,,,,,,,,,,
SA,Country/Rural,Cinema ,-35.267436,138.48256,,5173,Aldinga,Institute,D. J. Caffrey ,160,,,,,,,,,,,,1959 - 1960,,,,,,,,,,,,
SA,Country/Rural,Drive-in,-30.450273,137.162526,,5722,Andamooka,Open Air,…,150,,,,,,,,,,,,,,,,,,,,,,1971,,
SA,Country/Rural,Cinema ,-30.449865,137.163547,,5722,Andamooka,Hard Top,Andomooka Open Air Pictures,…,,,,,,,,,,,,,,,,,,1965 - 1966,1966 - 1967,1968 - 1969,1969 - 1970,,,
SA,Country/Rural,Open Air,-30.449865,137.163547,,5722,Andamooka,Open Air,Andomooka Open Air Pictures,…,,,,,,,,,,,,,,,,,,1965 - 1966,1966 - 1967,1968 - 1969,1969 - 1970,,,
SA,Country/Rural,Open Air,-30.449865,137.163547,,5722,Andamooka,Progress Hall,Andomooka Open Air Pictures,200,,,,,,,,,,,,,,,,,,,,,,1971,,
SA,Country/Rural,Cinema ,-34.5011446,139.0480842,,5353,Angaston,Institute,"O. Trescowthick, Sec.",420,1948 - 1949,1949 - 1950,,,,,,,,,,,,,,,,,,,,,,
SA,Country/Rural,Cinema ,-34.5011446,139.0480842,,5353,Angaston,Institute,Secretary,420,,,1950 - 1951,1951 - 1952,1952 - 1953,1953 - 1954,1954 - 1955,1955 - 1956,1956 - 1957,1957 - 1958,,,,,,,,,,,,,,
SA,Country/Rural,Cinema ,-34.5011446,139.0480842,,5353,Angaston,Institute,"C. Trescowthinck, Secretary",450,,,,,,,,,,,1958 - 1959,1959 - 1960,1960 - 1961,1961 - 1962,1962 - 1963,1963 - 1964,1964 - 1965,1965 - 1966,1966 - 1967,,,,,
SA,Country/Rural,Cinema ,-33.049153,138.428123,,5480,Appila,Institute,L. G. Murphy,150,,1949 - 1950,1950 - 1951,1951 - 1952,,,,,,,,,,,,,,,,,,,,
SA,Country/Rural,Cinema ,-34.42307,137.917428,,5571,Ardrossan,Institute,Mrs. C. T. Baird,400,1948 - 1949,1949 - 1950,1950 - 1951,1951 - 1952,1952 - 1953,1953 - 1954,1954 - 1955,1955 - 1956,1956 - 1957,1957 - 1958,,,,,,,,,,,,,,
SA,Country/Rural,Cinema ,-34.42307,137.917428,,5571,Ardrossan,Institute,Mrs. C. T. Baird,300,,,,,,,,,,,1958 - 1959,,,,,,,,,,,,,
SA,Country/Rural,Cinema ,-34.42307,137.917428,,5571,Ardrossan,Memorial Hall,Mrs. C. T. Baird,300,,,,,,,,,,,,1959 - 1960,,,,,,,,,,,,
SA,Country/Rural,Cinema ,-34.42307,137.917428,,5571,Ardrossan,Memorial Hall,J. Harvey,300,,,,,,,,,,,,,1960 - 1961,1961 - 1962,,,,,,,,,,
SA,Country/Rural,Cinema ,-34.42307,137.917428,,5571,Ardrossan,Orana,Orana Theatre,300,,,,,,,,,,,,,,,1962 - 1963,,,,,,,,,
SA,Suburban,Cinema ,-34.986877,138.556372,Corner of Wallala Street and Marion Road,5043,Ascot Park,Rechabite Hall,H.L. Carlson,250,,1949 - 1950,1950 - 1951,1951 - 1952,1952 - 1953,,,,,,,,,,,,,,,,,,,
SA,Suburban,Cinema ,-34.986877,138.556372,Corner of Wallala Street and Marion Road,5043,Ascot Park,Rechabite Hall,H. L. Carlson,234,,,,,,1953 - 1954,1954 - 1955,1955 - 1956,,,,,,,,,,,,,,,,
SA,Suburban,Cinema ,-34.986877,138.556372,Corner of Wallala Street and Marion Road,5043,Ascot Park,Astra,H. L. Carlson,270,,,,,,,,,1956 - 1957,1957 - 1958,,,,,,,,,,,,,,
SA,Suburban,Cinema ,-34.986877,138.556372,Corner of Wallala Street and Marion Road,5043,Ascot Park,Astra,H. L. Carlson,246,,,,,,,,,,,1958 - 1959,1959 - 1960,,,,,,,,,,,,
SA,Suburban,Cinema ,-34.986877,138.556372,Corner of Wallala Street and Marion Road,5043,Ascot Park,Astra,Astra Theatres,246,,,,,,,,,,,,,1960 - 1961,1961 - 1962,,,,,,,,,,
SA,Country/Rural,Cinema ,-34.025342,138.685888,,5451,Auburn,Institute,C. Donellan & H. Rossini,224,,,,,,,,,,,1958 - 1959,1959 - 1960,,,,,,,,,,,,
SA,Country/Rural,Cinema ,-34.025342,138.685888,,5451,Auburn,Institute,Secretary,224,,,,,,,,,,,,,1960 - 1961,1961 - 1962,,,,,,,,,,
SA,Country/Rural,Touring Circuit,-34.025288,138.685582,,5451,Auburn,L. N. Mullens,L. N. Mullens,350,,1949 - 1950,1950 - 1951,1951 - 1952,1952 - 1953,1953 - 1954,1954 - 1955,1955 - 1956,1956 - 1957,1957 - 1958,,,,,,,,,,,,,,
SA,Country/Rural,Cinema ,-34.1461701,138.4151853,,5461,Balaklava,Institute,"J. H. Browne, Sec.",450,1948 - 1949,,,,,,,,,,,,,,,,,,,,,,,
SA,Country/Rural,Cinema ,-34.1461701,138.4151853,,5461,Balaklava,Institute,Secretary,450,,1949 - 1950,1950 - 1951,1951 - 1952,1952 - 1953,1953 - 1954,1954 - 1955,1955 - 1956,1956 - 1957,1957 - 1958,,,,,,,,,,,,,,
SA,Country/Rural,Cinema ,-34.1461701,138.4151853,,5461,Balaklava,Institute,Institute Committee,479,,,,,,,,,,,1958 - 1959,1959 - 1960,1960 - 1961,1961 - 1962,1962 - 1963,1963 - 1964,1964 - 1965,,,,,,,
SA,Country/Rural,Cinema ,-34.1461701,138.4151853,,5461,Balaklava,Institute,Balaklava Institute Incorporated,…,,,,,,,,,,,,,,,,,,,,1968 - 1969,1969 - 1970,,,
SA,Country/Rural,Cinema ,-34.252083,140.465479,,5345,Barmera,Bonney,Ozone Theatres Ltd.,800,1948 - 1949,,,,,,,,,,,,,,,,,,,,,,,
SA,Country/Rural,Cinema ,-34.252083,140.465479,,5345,Barmera,Ozone,Ozone Theatres Ltd.,800,,1949 - 1950,1950 - 1951,,,,,,,,,,,,,,,,,,,,,
SA,Country/Rural,Cinema ,-34.252083,140.465479,,5345,Barmera,Ozone,Hoyts-Ozone Theatres,800,,,,1951 - 1952,1952 - 1953,1953 - 1954,1954 - 1955,1955 - 1956,,,,,,,,,,,,,,,,
SA,Country/Rural,Cinema ,-34.252083,140.465479,,5345,Barmera,Bonney,Hoyts-Ozone Theatres,815,,,,,,,,,1956 - 1957,1957 - 1958,,,,,,,,,,,,,,
SA,Country/Rural,Cinema ,-34.252083,140.465479,,5345,Barmera,Bonney,Village Theatres,750,,,,,,,,,,,1958 - 1959,,,,,,,,,,,,,
SA,Country/Rural,Cinema ,-34.252083,140.465479,,5345,Barmera,Bonney,Bamera Theatres Ltd.,750,,,,,,,,,,,,1959 - 1960,,,,,,,,,,,,
SA,Country/Rural,Cinema ,-34.252083,140.465479,,5345,Barmera,Bonney,River Districts Investments Ltd.,750,,,,,,,,,,,,,1960 - 1961,1961 - 1962,1962 - 1963,1963 - 1964,1964 - 1965,,,,,,,
SA,Country/Rural,Drive-in,-34.249671,140.436893,Sturt Highway ,5345,Barmera,Bonney Line,Bonney Line Drive-In Thrs. ,200,,,,,,,,,,,,,,,1962 - 1963,1963 - 1964,1964 - 1965,1965 - 1966,1966 - 1967,1968 - 1969,1969 - 1970,,http://www.drive-insdownunder.com.au/australian/sa1.htm,
SA,Country/Rural,Drive-in,-34.249671,140.436893,Sturt Highway ,5345,Barmera,Bonney Line,Bonney Line Drive-In Thrs. ,155,,,,,,,,,,,,,,,,,,,,,,1971,http://www.drive-insdownunder.com.au/australian/sa1.htm,
SA,Country/Rural,Cinema ,-37.480593,140.012501,,5280,Beachport,Institute,F. P. Squire,-,1948 - 1949,,,,,,,,,,,,,,,,,,,,,,,
SA,Country/Rural,Cinema ,-37.480593,140.012501,,5280,Beachport,Institute,"Chevron Cinemas, Robe",200,,1949 - 1950,1950 - 1951,1951 - 1952,,,,,,,,,,,,,,,,,,,,
SA,Country/Rural,Cinema ,-34.285962,140.600344,,5343,Berri,Rivoli,Ozone Theatres Ltd.,694,1948 - 1949,1949 - 1950,,,,,,,,,,,,,,,,,,,,,,
SA,Country/Rural,Cinema ,-34.285962,140.600344,,5343,Berri,Ozone,Ozone Theatres Ltd.,694,,,1950 - 1951,,,,,,,,,,,,,,,,,,,,,
SA,Country/Rural,Cinema ,-34.285962,140.600344,,5343,Berri,Ozone,Hoyts-Ozone Theatres,694,,,,1951 - 1952,1952 - 1953,1953 - 1954,1954 - 1955,1955 - 1956,,,,,,,,,,,,,,,,
SA,Country/Rural,Cinema ,-34.285962,140.600344,,5343,Berri,Rivoli,Hoyts-Ozone Theatres,685,,,,,,,,,1956 - 1957,1957 - 1958,,,,,,,,,,,,,,
SA,Country/Rural,Cinema ,-34.285962,140.600344,,5343,Berri,Rivoli,Village Theatres,500,,,,,,,,,,,1958 - 1959,,,,,,,,,,,,,
SA,Country/Rural,Cinema ,-34.285962,140.600344,,5343,Berri,Rivoli,Berri Theatres Ltd.,500,,,,,,,,,,,,1959 - 1960,,,,,,,,,,,,
SA,Country/Rural,Cinema ,-34.285962,140.600344,,5343,Berri,Rivoli,River Districts Investments Ltd.,500,,,,,,,,,,,,,1960 - 1961,1961 - 1962,1962 - 1963,1963 - 1964,1964 - 1965,,,,,,,
SA,Country/Rural,Drive-in,-34.285321,140.605568,,5343,Berri,Murrayville,Highway Drive-In Theatres Ltd.,350,,,,,,,,,,,,1959 - 1960,1960 - 1961,1961 - 1962,1962 - 1963,1963 - 1964,1964 - 1965,1965 - 1966,,,,,,
SA,Country/Rural,Drive-in,-34.285321,140.605568,,5343,Berri,Murrayville,Highway Drive-In Theatres Ltd.,400,,,,,,,,,,,,,,,,,,,1966 - 1967,1968 - 1969,1969 - 1970,,,
SA,Country/Rural,Drive-in,-34.285321,140.605568,,5343,Berri,Murrayville,Highway Drive-In Theatres Ltd.,390,,,,,,,,,,,,,,,,,,,,,,1971,,
SA,Country/Rural,Touring Circuit,-34.820426,138.95474,,5234,Birdwood,"Benbow Amusements Ltd., 221 Pirie Street, Adelaide",Benbow Amusements Ltd.,195,,1949 - 1950,,1951 - 1952,1952 - 1953,1953 - 1954,1954 - 1955,1955 - 1956,1956 - 1957,1957 - 1958,1958 - 1959,1959 - 1960,,,,,,,,,,,,
SA,Suburban,Cinema ,-35.02286,138.618421,21 Coromandel Parade,5051,Blackwood,Boys Club Hall,H. N. and N. G. Eustis,250,1948 - 1949,1949 - 1950,,,,,,,,,,,,,,,,,,,,,,
SA,Suburban,Cinema ,-35.02286,138.618421,21 Coromandel Parade,5051,Blackwood,Boys Club Hall,Grimm & Hapwood,250,,,1950 - 1951,,,,,,,,,,,,,,,,,,,,,
SA,Suburban,Cinema ,-35.02286,138.618421,21 Coromandel Parade,5051,Blackwood,Boys Club Hall,W. & M. Gliddon,250,,,,1951 - 1952,1952 - 1953,1953 - 1954,1954 - 1955,,,,1958 - 1959,,,,,,,,,,,,,
SA,Suburban,Cinema ,-35.02286,138.618421,21 Coromandel Parade,5051,Blackwood,Delta,L. & M. Gliddon,250,,,,,,,,1955 - 1956,1956 - 1957,1957 - 1958,,,,,,,,,,,,,,
SA,Suburban,Cinema ,-35.02286,138.618421,21 Coromandel Parade,5051,Blackwood,Delta,W. & Y. Giddon & R. F. Charlick,200,,,,,,,,,,,,1959 - 1960,,,,,,,,,,,,
SA,Suburban,Cinema ,-35.02286,138.618421,21 Coromandel Parade,5051,Blackwood,Delta,R. F. Charlick,200,,,,,,,,,,,,,1960 - 1961,,,,,,,,,,,
SA,Suburban,Cinema ,-35.021427,138.616126,,5051,Blackwood,Astra,H. L. Carson,…,,,,,,,,,,,,,,,,,,,,1968 - 1969,1969 - 1970,,,
SA,Suburban,Cinema ,-35.021427,138.616126,,5051,Blackwood,Astra,H. L. Carson,300,,,,,,,,,,,,,,,,,,,,,,1971,,
SA,Country/Rural,Cinema ,-33.8464179,138.488739,,5462,Blyth,Institute,Benbow Amusements Ltd.,200,,1949 - 1950,1950 - 1951,1951 - 1952,1952 - 1953,1953 - 1954,,,,,,,,,,,,,,,,,,
SA,Country/Rural,Cinema ,-33.8464179,138.488739,,5462,Blyth,Institute,Benbow Amusements Ltd.,300,,,,,,,,,,,1958 - 1959,,,,,,,,,,,,,
SA,Country/Rural,Cinema ,-33.8464179,138.488739,,5462,Blyth,Institute,C. Donnellan & C. Rossini,227,,,,,,,,,,,1958 - 1959,,,,,,,,,,,,,
SA,Country/Rural,Cinema ,-33.8464179,138.488739,,5462,Blyth,Institute,Mid Northern Pictures,300,,,,,,,,,,,,1959 - 1960,,,,,,,,,,,,
SA,Country/Rural,Cinema ,-33.8464179,138.488739,,5462,Blyth,Institute,C. Donnellan & C. Rossini,227,,,,,,,,,,,,1959 - 1960,,,,,,,,,,,,
SA,Country/Rural,Cinema ,-33.563146,138.761483,,5417,Booborowie,Institute,Secretary,300,,,,,,,,,,,,,,,1962 - 1963,1963 - 1964,1964 - 1965,,,,,,,
SA,Country/Rural,Touring Circuit,-33.56273,138.76365,,5417,Booborowie,"Benbow Amusements Ltd., 221 Pirie Street, Adelaide",Benbow Amusements Ltd.,,,,,,,,,,,,1958 - 1959,1959 - 1960,1961 - 1962,,,,,,,,,,,
SA,Country/Rural,Cinema ,-32.881106,138.349585,,5482,Booleroo Centre,Institute,L. G. Murphy,340,,1949 - 1950,,,,,,,,,,,,,,,,,,,,,,
SA,Country/Rural,Cinema ,-32.881106,138.349585,,5482,Booleroo Centre,Institute,Secretary,250,,,,,,,,,,,,,,1961 - 1962,1962 - 1963,1963 - 1964,1964 - 1965,,,,,,,
SA,Country/Rural,Touring Circuit,-32.882812,138.351447,,5482,Booloeroo Centre,"Benbow Amusements Ltd., 221 Pirie Street, Adelaide",Benbow Amusements Ltd.,200,,,,,1952 - 1953,,1954 - 1955,1955 - 1956,1956 - 1957,1957 - 1958,1958 - 1959,1959 - 1960,,,,,,,,,,,,
SA,Country/Rural,Drive-in,-36.313448,140.773005,,5268,Bordertown,Galaxie,C. Kirkham & A. Welse,…,,,,,,,,,,,,,,,,,1964 - 1965,,,,,,,
SA,Country/Rural,Drive-in,-36.313448,140.773005,,5268,Bordertown,Galaxie,C. Kirkham & A. Welse,330,,,,,,,,,,,,,,,,,,1965 - 1966,1966 - 1967,,,,,
SA,Country/Rural,Drive-in,-36.313448,140.773005,,5268,Bordertown,Galaxie,C. Kirkham & A. Welse,300,,,,,,,,,,,,,,,,,,,,1968 - 1969,1969 - 1970,1971,,
SA,Country/Rural,Cinema ,-36.3111665,140.7733804,,5268,Bordertown,Plaza,A. W. Murray,300,1948 - 1949,1949 - 1950,1950 - 1951,1951 - 1952,1952 - 1953,1953 - 1954,1954 - 1955,1955 - 1956,1956 - 1957,1957 - 1958,,,,,,,,,,,,,,
SA,Country/Rural,Cinema ,-36.3111665,140.7733804,,5268,Bordertown,Plaza,Bordertown Institute Committee,415,,,,,,,,,,,1958 - 1959,1959 - 1960,1960 - 1961,1961 - 1962,1962 - 1963,1963 - 1964,1964 - 1965,1965 - 1966,1966 - 1967,,,,,
SA,Suburban,Cinema ,-34.903228,138.579711,Corner of Eighth Street and Gibson Street,5007,Bowden,Druid's Hall,Gregory and Casson,250,1948 - 1949,1949 - 1950,1950 - 1951,,,,,,,,,,,,,,,,,,,,,
SA,Suburban,Cinema ,-34.903228,138.579711,Corner of Eighth Street and Gibson Street,5007,Bowden,Druid's Hall,A. T. Curtis,250,,,,1951 - 1952,1952 - 1953,1953 - 1954,1954 - 1955,,,,,,,,,,,,,,,,,
SA,Suburban,Cinema ,-34.903228,138.579711,Corner of Eighth Street and Gibson Street,5007,Bowden,Cameo,A. T. Curtis,250,,,,,,,,1955 - 1956,1956 - 1957,1957 - 1958,,,,,,,,,,,,,,
SA,Suburban,Cinema ,-34.903228,138.579711,Corner of Eighth Street and Gibson Street,5007,Bowden,Druid's Hall,A. T. Curtis,250,,,,,,,,,,,1958 - 1959,,,,,,,,,,,,,
SA,Suburban,Cinema ,-34.903228,138.579711,Corner of Eighth Street and Gibson Street,5007,Bowden,Druid's Hall,H. Collins,250,,,,,,,,,,,,1959 - 1960,1960 - 1961,,,,,,,,,,,
SA,Suburban,Cinema ,-34.903228,138.579711,Corner of Eighth Street and Gibson Street,5007,Bowden,Cameo,A. Hodgert,250,,,,,,,,,,,,,,1961 - 1962,,,,,,,,,,
SA,Country/Rural,Cinema ,-35.009634,138.759986,,5155,Bridgewater,Institute,J. Miller,250,,1949 - 1950,1950 - 1951,1951 - 1952,1952 - 1953,,,,,,,,,,,,,,,,,,,
SA,Country/Rural,Cinema ,-35.009634,138.759986,,5155,Bridgewater,Institute,L. J. Hale,250,,,,,,1953 - 1954,1954 - 1955,,,,,,,,,,,,,,,,,
SA,Country/Rural,Cinema ,-35.009634,138.759986,,5155,Bridgewater,Victory,L. J. Hale,250,,,,,,,,1955 - 1956,,,,,,,,,,,,,,,,
SA,Country/Rural,Cinema ,-35.009634,138.759986,,5155,Bridgewater,Victory,L. J. Hale,200,,,,,,,,,1956 - 1957,1957 - 1958,1958 - 1959,1959 - 1960,1960 - 1961,,,,,,,,,,,
SA,Suburban,Cinema ,-35.018444,138.519382,1 Commercial Road,5048,Brighton,Windsor,B. E. Cunnew & Sons,504,1948 - 1949,,,,,,,,,,,,,,,,,,,,,,,
SA,Suburban,Cinema ,-35.018444,138.519382,1 Commercial Road,5048,Brighton,Windsor,B. E. Cunnew & Sons,492,,1949 - 1950,1950 - 1951,1951 - 1952,1952 - 1953,1953 - 1954,1954 - 1955,1955 - 1956,,,,,,,,,,,,,,,,
SA,Suburban,Cinema ,-35.018444,138.519382,1 Commercial Road,5048,Brighton,Windsor,B. E. Cunnew & Sons,504,,,,,,,,,1956 - 1957,1957 - 1958,1958 - 1959,,,,,,,,,,,,,
SA,Suburban,Cinema ,-35.018444,138.519382,1 Commercial Road,5048,Brighton,Windsor,B. E. Cunnew & Sons,495,,,,,,,,,,,,1959 - 1960,1960 - 1961,1961 - 1962,1962 - 1963,1963 - 1964,1964 - 1965,1965 - 1966,1966 - 1967,,,,,
SA,Suburban,Cinema ,-35.018444,138.519382,1 Commercial Road,5048,Brighton,Windsor,A. Shepherd,495,,,,,,,,,,,,,,,,,,,,1968 - 1969,1969 - 1970,1971,,
SA,Country/Rural,Cinema ,-33.69459,138.403385,,5464,Brinkworth,Institute,C. Donnellan & H. Rossini,175,,,,,,,,,,,1958 - 1959,,,,,,,,,,,,,
SA,Country/Rural,Cinema ,-33.69459,138.403385,,5464,Brinkworth,Institute,Mid Northern Pictures,175,,,,,,,,,,,,1959 - 1960,1960 - 1961,,,,,,,,,,,
SA,Country/Rural,Cinema ,-33.682718,138.93796,,5417,Burra,Institute,G. Dane,470,1948 - 1949,,,,,,,,,,,,,,,,,,,,,,,
SA,Country/Rural,Cinema ,-33.682718,138.93796,,5417,Burra,Institute,A. Dane,470,,1949 - 1950,1950 - 1951,,,,,,,,,,,,,,,,,,,,,
SA,Country/Rural,Cinema ,-33.682718,138.93796,,5417,Burra,Institute,Secretary,470,,,,1951 - 1952,1952 - 1953,1953 - 1954,1954 - 1955,,,,,,,,,,,,,,,,,
SA,Country/Rural,Cinema ,-33.682718,138.93796,,5417,Burra,Town Hall,Secretary,470,,,,,,,,1955 - 1956,1956 - 1957,1957 - 1958,,,,,,,,,,,,,,
SA,Country/Rural,Cinema ,-33.682718,138.93796,,5417,Burra,Town Hall,Secretary,485,,,,,,,,,,,1958 - 1959,,,,,,,,,,,,,
SA,Country/Rural,Cinema ,-33.682718,138.93796,,5417,Burra,Town Hall,Burra Town Hall Pic. C'tee,485,,,,,,,,,,,,1959 - 1960,1960 - 1961,1961 - 1962,1962 - 1963,1963 - 1964,1964 - 1965,1965 - 1966,1966 - 1967,1968 - 1969,1969 - 1970,1971,,
SA,Country/Rural,Cinema ,-33.865113,138.007923,,5560,Bute,Institute,W. V. Benbow,300,1948 - 1949,1949 - 1950,1950 - 1951,1951 - 1952,1952 - 1953,,,,,,,,,,,,,,,,,,,
SA,Country/Rural,Cinema ,-33.865113,138.007923,,5560,Bute,Institute,Benbow Amusements Ltd.,300,,,,,,1953 - 1954,1954 - 1955,1955 - 1956,1956 - 1957,1957 - 1958,1958 - 1959,,,,,,,,,,,,,
SA,Country/Rural,Cinema ,-33.865113,138.007923,,5560,Bute,Institute,Sec. Community Pics.,200,,,,,,,,,,,,,,1961 - 1962,1962 - 1963,1963 - 1964,1964 - 1965,,,,,,,
SA,Country/Rural,Touring Circuit,-34.039386,139.766,,5321,Cadell,"Benbow Amusements Ltd., 221 Pirie Street, Adelaide",Benbow Amusements Ltd.,,,,,,,1953 - 1954,1954 - 1955,1955 - 1956,1956 - 1957,1957 - 1958,1958 - 1959,1959 - 1960,,,,,,,,,,,,
SA,Country/Rural,Touring Circuit,-33.182431,138.483084,,5490,Caltowie,"Benbow Amusements Ltd., 221 Pirie Street, Adelaide",Benbow Amusements Ltd.,150,,1949 - 1950,,1951 - 1952,1952 - 1953,,,,,,,,,,,,,,,,,,,
SA,Suburban,Cinema ,-34.876734,138.665397,Corner of Gorge Road and Lower NE Road,5074,Campbelltown,St. Martin's Hall,R. G. Wisby & W. H. Wilson,-,,,,1951 - 1952,1952 - 1953,,,,,,,,,,,,,,,,,,,
SA,Suburban,Cinema ,-34.876734,138.665397,Corner of Gorge Road and Lower NE Road,5074,Campbelltown,St. Martin's Hall,Century Pictures,300,,,,,,1953 - 1954,1954 - 1955,1955 - 1956,,,,,,,,,,,,,,,,
SA,Suburban,Cinema ,-34.876734,138.665397,Corner of Gorge Road and Lower NE Road,5074,Campbelltown,St. Martin's Hall,R. Wisbey & W. Williamson,350,,,,,,,,,1956 - 1957,1957 - 1958,,,,,,,,,,,,,,
SA,Suburban,Cinema ,-34.876734,138.665397,Corner of Gorge Road and Lower NE Road,5074,Campbelltown,St. Martin's Hall,R. Wisbey & W. Williamson,240,,,,,,,,,,,1958 - 1959,,,,,,,,,,,,,
SA,Country/Rural,Cinema ,-32.126734,133.673778,,5690,Ceduna,Institute,P. S. Morrison,350,1948 - 1949,1949 - 1950,1950 - 1951,1951 - 1952,1952 - 1953,1953 - 1954,1954 - 1955,1955 - 1956,,,,,,,,,,,,,,,,
SA,Country/Rural,Cinema ,-32.126734,133.673778,,5690,Ceduna,Institute,P. S. Morrison,500,,,,,,,,,1956 - 1957,1957 - 1958,,,,,,,,,,,,,,
SA,Country/Rural,Cinema ,-32.126734,133.673778,,5690,Ceduna,Institute,P. S. Morrison,271,,,,,,,,,,,1958 - 1959,1959 - 1960,1960 - 1961,1961 - 1962,1962 - 1963,1963 - 1964,1964 - 1965,1965 - 1966,1966 - 1967,1968 - 1969,,,,
SA,Country/Rural,Cinema ,-32.126734,133.673778,,5690,Ceduna,Institute,L. G. Rodgers,271,,,,,,,,,,,,,,,,,,,,,1969 - 1970,,,
SA,Country/Rural,Cinema ,-32.126734,133.673778,,5690,Ceduna,Institute,L. G. Rodgers,300,,,,,,,,,,,,,,,,,,,,,,1971,,
SA,Suburban,Drive-in,-35.136743,138.486692,Dyson Road,5165,Christie's Beach,Oceanline,Oceanline Drive-In Theatres Ltd.,220,,,,,,,,,,,,,1960 - 1961,1961 - 1962,1962 - 1963,1963 - 1964,1964 - 1965,1965 - 1966,,,,,http://www.samemory.sa.gov.au/site/page.cfm?u=1292,
SA,Suburban,Drive-in,-35.136743,138.486692,Dyson Road,5165,Christie's Beach,Oceanline,Oceanline Drive-In Theatres Ltd.,300,,,,,,,,,,,,,,,,,,,1966 - 1967,1968 - 1969,1969 - 1970,,http://www.samemory.sa.gov.au/site/page.cfm?u=1292,
SA,Suburban,Drive-in,-35.136743,138.486692,Dyson Road,5165,Christie's Beach,Oceanline,Oceanline Drive-In Theatres Ltd.,250,,,,,,,,,,,,,,,,,,,,,,1971,http://www.samemory.sa.gov.au/site/page.cfm?u=1292,
SA,Country/Rural,Drive-in,-33.837927,138.614511,,5453,Clare,North Line,North Line Drive-In Thrs. Ltd.,202,,,,,,,,,,,,,,,1962 - 1963,1963 - 1964,1964 - 1965,1965 - 1966,,,,,,
SA,Country/Rural,Drive-in,-33.837927,138.614511,,5453,Clare,North Line,North Line Drive-In Thrs. Ltd.,215,,,,,,,,,,,,,,,,,,,1966 - 1967,1968 - 1969,1969 - 1970,,,
SA,Country/Rural,Drive-in,-33.837927,138.614511,,5453,Clare,North Line,North Line Drive-In Thrs. Ltd.,256,,,,,,,,,,,,,,,,,,,,,,1971,,
SA,Country/Rural,Cinema ,-33.8224912,138.6017812,,5453,Clare,Town Hall,S. T. McLean,500,1948 - 1949,1949 - 1950,1950 - 1951,1951 - 1952,,,,,,,,,,,,,,,,,,,,
SA,Country/Rural,Cinema ,-33.8224912,138.6017812,,5453,Clare,Town Hall,C. J. Donellan,500,,,,,1952 - 1953,1953 - 1954,1954 - 1955,1955 - 1956,1956 - 1957,1957 - 1958,,,,,,,,,,,,,,
SA,Country/Rural,Cinema ,-33.8224912,138.6017812,,5453,Clare,Town Hall,L. Murphy,498,,,,,,,,,,,1958 - 1959,1959 - 1960,1960 - 1961,,,,,,,,,,,
SA,Country/Rural,Cinema ,-33.8224912,138.6017812,,5453,Clare,Town Hall,R. F. Charlick,498,,,,,,,,,,,,,,1961 - 1962,1962 - 1963,,,,,,,,,
SA,Country/Rural,Touring Circuit,-35.109252,138.628846,,5157,Clarendon,"Benbow Amusements Ltd., 221 Pirie Street, Adelaide",Benbow Amusements Ltd.,160,,1949 - 1950,,1951 - 1952,1952 - 1953,1953 - 1954,1954 - 1955,1955 - 1956,1956 - 1957,1957 - 1958,,,,,,,,,,,,,,
SA,Country/Rural,Cinema ,-33.702094,136.493715,Corner of Fourth Street and Birdseye Highway,5640,Cleve,Institute,Committee,-,1948 - 1949,,,,,,,,,,,,,,,,,,,,,,,
SA,Country/Rural,Cinema ,-33.702094,136.493715,Corner of Fourth Street and Birdseye Highway,5640,Cleve,Institute,L. R. Silver,380,,1949 - 1950,1950 - 1951,1951 - 1952,1952 - 1953,,,,,,,,,,,,,,,,,,,
SA,Country/Rural,Cinema ,-33.702094,136.493715,Corner of Fourth Street and Birdseye Highway,5640,Cleve,Institute,Secretary,336,,,,,,1953 - 1954,1954 - 1955,1955 - 1956,,,,,,,,,,,,,,,,
SA,Country/Rural,Cinema ,-33.702094,136.493715,Corner of Fourth Street and Birdseye Highway,5640,Cleve,Institute,Secretary,370,,,,,,,,,1956 - 1957,1957 - 1958,,,,,,,,,,,,,,
SA,Country/Rural,Cinema ,-33.702094,136.493715,Corner of Fourth Street and Birdseye Highway,5640,Cleve,Institute,Cleve Intit. Pics,336,,,,,,,,,,,1958 - 1959,1959 - 1960,1960 - 1961,1961 - 1962,,,,,,,,,,
SA,Country/Rural,Cinema ,-33.702094,136.493715,Corner of Fourth Street and Birdseye Highway,5640,Cleve,Institute,Cleve Institute Pictures,…,,,,,,,,,,,,,,,,,,1965 - 1966,1966 - 1967,1968 - 1969,1969 - 1970,1971,,
SA,Suburban,Cinema ,-34.981153,138.592008,191 Goodwood Road,5041,Colonel Light Gardens,Odeon,Clifford Theatre Circuit,1689,,,,,,,,,,,1958 - 1959,,,,,,,,,,,,,
SA,Suburban,Cinema ,-34.981153,138.592008,191 Goodwood Road,5041,Colonel Light Gardens,Odeon,Clifford Theatre Circuit,1689,,,,,,,,,,,,1959 - 1960,1960 - 1961,1961 - 1962,,,,,,,,,,
SA,Suburban,Cinema ,-34.9513741,138.5896557,Goodwood Road,5041,Colonel Light Gardens,Ozone,Ozone Theatres Ltd.,1756,1948 - 1949,1949 - 1950,1950 - 1951,,,,,,,,,,,,,,,,,,,,,
SA,Suburban,Cinema ,-34.9513741,138.5896557,Goodwood Road,5041,Colonel Light Gardens,Ozone,Hoyts-Ozone Theatres,1756,,,,1951 - 1952,1952 - 1953,1953 - 1954,1954 - 1955,1955 - 1956,1956 - 1957,1957 - 1958,,,,,,,,,,,,,,
SA,Country/Rural,Open Air,-29.013244,134.754482,,5723,Coober Pedy,Open Air,Cooper Pedy Progress Assn.,…,,,,,,,,,,,,,,,,,,,,1968 - 1969,1969 - 1970,,,
SA,Country/Rural,Open Air,-29.013244,134.754482,,5723,Coober Pedy,Open Air,Cooper Pedy Progress Assn.,150,,,,,,,,,,,,,,,,,,,,,,1971,,
SA,Country/Rural,Cinema ,-35.696337,139.857212,,5265,Coonalpyn,Institute,Benbow Amusements Ltd.,300,,,,,,,,,,,1958 - 1959,1959 - 1960,1960 - 1961,1961 - 1962,1962 - 1963,,,,,,,,,
SA,Country/Rural,Cinema ,-33.683618,136.924908,,5602,Cowell,Institute,Committee,400,1948 - 1949,1949 - 1950,1950 - 1951,1951 - 1952,1952 - 1953,1953 - 1954,1954 - 1955,1955 - 1956,1956 - 1957,1957 - 1958,,,,,,,,,,,,,,
SA,Country/Rural,Cinema ,-33.683618,136.924908,,5602,Cowell,Institute,Sec. Institute Committee,300,,,,,,,,,,,1958 - 1959,1959 - 1960,1960 - 1961,1961 - 1962,1962 - 1963,1963 - 1964,1964 - 1965,1965 - 1966,1966 - 1967,,,,,
SA,Country/Rural,Cinema ,-33.683618,136.924908,,5602,Cowell,Institute,Franklin Harbour Inst.,300,,,,,,,,,,,,,,,,,,,,1968 - 1969,1969 - 1970,1971,,
SA,Country/Rural,Cinema ,-33.353144,138.206076,,5523,Crystal Brook,Institute,L. Lester,350,1948 - 1949,,,,,,,,,,,,,,,,,,,,,,,
SA,Country/Rural,Cinema ,-33.353144,138.206076,,5523,Crystal Brook,Institute,H. Lester,350,,1949 - 1950,1950 - 1951,1951 - 1952,,,,,,,,,,,,,,,,,,,,
SA,Country/Rural,Cinema ,-33.353144,138.206076,,5523,Crystal Brook,Institute,Benbow Amusements Ltd.,350,,,,,1952 - 1953,1953 - 1954,1954 - 1955,1955 - 1956,1956 - 1957,1957 - 1958,1958 - 1959,1959 - 1960,1960 - 1961,1961 - 1962,,,,,,,,,,
SA,Country/Rural,Cinema ,-34.2641785,135.7275957,,5631,Cummins,Institute,L. A. Rosenberg,200,1948 - 1949,,,,,,,,,,,,,,,,,,,,,,,
SA,Country/Rural,Cinema ,-34.2641785,135.7275957,,5631,Cummins,Institute,Secretary,200,,1949 - 1950,1950 - 1951,1951 - 1952,1952 - 1953,1953 - 1954,1954 - 1955,1955 - 1956,1956 - 1957,1957 - 1958,,,,,,,,,,,,,,
SA,Country/Rural,Cinema ,-34.2641785,135.7275957,,5631,Cummins,Institute,Cummins Instit. Committee,265,,,,,,,,,,,1958 - 1959,1959 - 1960,1960 - 1961,1961 - 1962,1962 - 1963,1963 - 1964,1964 - 1965,1965 - 1966,1966 - 1967,1968 - 1969,1969 - 1970,,,
SA,Country/Rural,Cinema ,-34.699016,137.710084,,5580,Curramulka,Institute,Benbow Amusements Ltd.,200,,,,,,,,,,,1958 - 1959,1959 - 1960,1960 - 1961,1961 - 1962,,,,,,,,,,
SA,Country/Rural,Touring Circuit,-34.697448,137.709448,,5580,Curramulka,"Benbow Amusements Ltd., 221 Pirie Street, Adelaide",Benbow Amusements Ltd.,225,,1949 - 1950,1950 - 1951,1951 - 1952, , ,,,,,,,,,,,,,,,,,,
SA,Suburban,Cinema ,-34.925873,138.624896,20 Stuart Road,5065,Dulwich,Melba,R. and J. White,504,1948 - 1949,1949 - 1950,,,,,,,,,,,,,,,,,,,,,,
SA,Suburban,Cinema ,-34.925873,138.624896,20 Stuart Road,5065,Dulwich,Melba,A. Rainey,504,,,1950 - 1951,1951 - 1952,1952 - 1953,1953 - 1954,1954 - 1955,1955 - 1956,1956 - 1957,1957 - 1958,,,,,,,,,,,,,,
SA,Suburban,Cinema ,-34.925873,138.624896,20 Stuart Road,5065,Dulwich,Melba,A. Rainey,480,,,,,,,,,,,1958 - 1959,1959 - 1960,,,,,,,,,,,,
SA,Country/Rural,Touring Circuit,-35.10061,138.79375,,5153,Echunga,A. H. Thomas,A. H. Thomas,200,,1949 - 1950,1950 - 1951,1951 - 1952,1952 - 1953,1953 - 1954,1954 - 1955,1955 - 1956,1956 - 1957,1957 - 1958,,,,,,,,,,,,,,
SA,Country/Rural,Touring Circuit,-35.10061,138.79375,,5153,Echunga,"Benbow Amusements Ltd., 221 Pirie Street, Adelaide",Benbow Amusements Ltd.,200,,,,,,,,,,,1958 - 1959,1959 - 1960,1961 - 1962,,,,,,,,,,,
SA,Country/Rural,Cinema ,-35.084683,137.745704,,5583,Edithburgh,Institute,W. V. Benbow,320,1948 - 1949,1949 - 1950,1950 - 1951,1951 - 1952,1952 - 1953,,,,,,,,,,,,,,,,,,,
SA,Country/Rural,Cinema ,-35.084683,137.745704,,5583,Edithburgh,Institute,Benbow Amusements Ltd.,320,,,,,,1953 - 1954,1954 - 1955,1955 - 1956,,,,,,,,,,,,,,,,
SA,Country/Rural,Cinema ,-35.084683,137.745704,,5583,Edithburgh,Institute,Benbow Amusements Ltd.,215,,,,,,,,,1956 - 1957,1957 - 1958,1958 - 1959,1959 - 1960,1960 - 1961,,,,,,,,,,,
SA,Suburban,Cinema ,-34.969898,138.572913,Corner of South Road and Castle Street,5039,Edwardstown,Institute,Gregory and Casson,250,1948 - 1949,1949 - 1950,1950 - 1951,1951 - 1952,1952 - 1953,1953 - 1954,1954 - 1955,1955 - 1956,1956 - 1957,1957 - 1958,1958 - 1959,1959 - 1960,,,,,,,,,,,,
SA,Country/Rural,Cinema ,-33.649001,134.889553,,5670,Elliston,Agricultural Hall,…,…,,,,,,,,,,,,,,,,,,,,,,1971,,
SA,Country/Rural,Cinema ,-34.171455,139.084599,,5374,Eudunda,Institute,Avon Theatres,300,1948 - 1949,1949 - 1950,,,,,,,,,,,,,,,,,,,,,,
SA,Country/Rural,Cinema ,-34.171455,139.084599,,5374,Eudunda,Institute,Secretary,300,,,1950 - 1951,1951 - 1952,1952 - 1953,1953 - 1954,1954 - 1955,1955 - 1956,1956 - 1957,1957 - 1958,,,,,,,,,,,,,,
SA,Country/Rural,Cinema ,-34.171455,139.084599,,5374,Eudunda,Institute,Eudunda Com. Pic. Comm.,300,,,,,,,,,,,1958 - 1959,1959 - 1960,1960 - 1961,1961 - 1962,1962 - 1963,,,,,,,,,
SA,Country/Rural,Cinema ,-34.171455,139.084599,,5374,Eudunda,Institute,Community Pictures,300,,,,,,,,,,,,,,,,1963 - 1964,,,,,,,,
SA,Country/Rural,Cinema ,-34.171455,139.084599,,5374,Eudunda,Institute,Eudunda Youth Club,300,,,,,,,,,,,,,,,,,1964 - 1965,,,,,,,
SA,Suburban,Cinema ,-34.952772,138.572846,96 Anzac Highway,5035,Everard Park,Roxy,Roxy Theatres Ltd.,995,1948 - 1949,,,,,,,,,,,,,,,,,,,,,,,
SA,Suburban,Cinema ,-34.952772,138.572846,96 Anzac Highway,5035,Everard Park,Roxy,Roxy Theatres Ltd.,975,,1949 - 1950,1950 - 1951,1951 - 1952,,,,,,,,,,,,,,,,,,,,
SA,Suburban,Cinema ,-34.952772,138.572846,96 Anzac Highway,5035,Everard Park,Roxy,Clifford Theatre Circuit,975,,,,,1952 - 1953,,,,,,,,,,,,,,,,,,,
SA,Suburban,Cinema ,-34.952772,138.572846,96 Anzac Highway,5035,Everard Park,Roxy,Roxy Odeon Theatre,975,,,,,,1953 - 1954,,,,,,,,,,,,,,,,,,
SA,Suburban,Cinema ,-34.952772,138.572846,96 Anzac Highway,5035,Everard Park,Roxy Odeon,Roxy Odeon Theatre,975,,,,,,,1954 - 1955,1955 - 1956,1956 - 1957,1957 - 1958,,,,,,,,,,,,,,
SA,Suburban,Cinema ,-34.952772,138.572846,96 Anzac Highway,5035,Everard Park,Roxy Odeon,Clifford Theatre Circuit,975,,,,,,,,,,,1958 - 1959,1959 - 1960,1960 - 1961,,,,,,,,,,,
SA,Suburban,Cinema ,-34.952772,138.572846,96 Anzac Highway,5035,Everard Park,Roxy Odeon,Roxy Odeon Theatres,975,,,,,,,,,,,,,,1961 - 1962,,,,,,,,,,
SA,Suburban,Cinema ,-34.898714,138.537181,Corner of Crittenden Road and Hammond Road,5023,Findon,Flinders Park,W. H. Goode,458,1948 - 1949,1949 - 1950,1950 - 1951,1951 - 1952,1952 - 1953,1953 - 1954,1954 - 1955,1955 - 1956,1956 - 1957,1957 - 1958,1958 - 1959,1959 - 1960,,,,,,,,,,,,
SA,Suburban,Cinema ,-34.898714,138.537181,Corner of Crittenden Road and Hammond Road,5023,Findon,Circle,L. Knuckey,458,,,,,,,,,,,,,1960 - 1961,,,,,,,,,,,
SA,Suburban,Cinema ,-34.907789,138.547188,Corner of Drake Avenue and Franklin Avenue,5025,Flinders Park,Church Hall,Church of Christ,300,,,,,,,,,,,,,,,,1963 - 1964,1964 - 1965,,,,,,,
SA,Suburban,Cinema ,-34.907789,138.547188,Corner of Drake Avenue and Franklin Avenue,5025,Flinders Park,Church of Christ Hall,…,…,,,,,,,,,,,,,,,,,,,,,,1971,,
SA,Country/Rural,Touring Circuit,-34.454464,138.809953,,5372,Freeling,L. N. Mullens,L. N. Mullens,250,,1949 - 1950,1950 - 1951,1951 - 1952,,,,,,,,,,,,,,,,,,,,
SA,Country/Rural,Cinema ,-34.454464,138.809953,,5372,Freeling,Institute,A. Gregory,-,,,,1951 - 1952,,,,,,,,,,,,,,,,,,,,
SA,Country/Rural,Cinema ,-34.454464,138.809953,,5372,Freeling,Institute,K. Gregory,-,,,,,1952 - 1953,1953 - 1954,1954 - 1955,1955 - 1956,,,,,,,,,,,,,,,,
SA,Country/Rural,Cinema ,-34.454464,138.809953,,5372,Freeling,Institute,K. Gregory,200,,,,,,,,,1956 - 1957,1957 - 1958,1958 - 1959,1959 - 1960,,,,,,,,,,,,
SA,Suburban,Cinema ,-34.953403,138.634975,Corner of Milton Avenue and Wattle Street,5063,Fullarton,Milton Hall,R. C. Williams,250,1948 - 1949,,,,,,,,,,,,,,,,,,,,,,,
SA,Suburban,Cinema ,-34.953403,138.634975,Corner of Milton Avenue and Wattle Street,5063,Fullarton,Milton Hall,Avon Theatres Ltd.,256,,1949 - 1950,1950 - 1951,,,,,,,,,,,,,,,,,,,,,
SA,Suburban,Cinema ,-34.953403,138.634975,Corner of Milton Avenue and Wattle Street,5063,Fullarton,Milton Hall,Avon Thrs. Ltd.,256,,,,1951 - 1952,1952 - 1953,1953 - 1954,1954 - 1955,1955 - 1956,,,,,,,,,,,,,,,,
SA,Suburban,Cinema ,-34.953403,138.634975,Corner of Milton Avenue and Wattle Street,5063,Fullarton,Milton Hall,Avon Thrs. Ltd.,250,,,,,,,,,1956 - 1957,1957 - 1958,1958 - 1959,,,,,,,,,,,,,
SA,Suburban,Cinema ,-34.953403,138.634975,Corner of Milton Avenue and Wattle Street,5063,Fullarton,Milton Hall,Avon Thrs. Ltd.,256,,,,,,,,,,,,1959 - 1960,,,,,,,,,,,,
SA,Country/Rural,Cinema ,-34.59954,138.7491411,,5118,Gawler,Regal,Times Theatres Ltd.,958,1948 - 1949,,,,,,,,,,,,,,,,,,,,,,,
SA,Country/Rural,Cinema ,-34.59954,138.7491411,,5118,Gawler,Ozone,Ozone Theatres Ltd.,958,,1949 - 1950,1950 - 1951,,,,,,,,,,,,,,,,,,,,,
SA,Country/Rural,Cinema ,-34.59954,138.7491411,,5118,Gawler,Ozone,Hoyts-Ozone Theatres,958,,,,1951 - 1952,1952 - 1953,1953 - 1954,1954 - 1955,1955 - 1956,,,,,,,,,,,,,,,,
SA,Country/Rural,Cinema ,-34.59954,138.7491411,,5118,Gawler,Regal,Hoyts-Ozone Theatres,958,,,,,,,,,1956 - 1957,1957 - 1958,,,,,,,,,,,,,,
SA,Country/Rural,Cinema ,-34.59954,138.7491411,,5118,Gawler,Regal,Hoyts-Ozone Theatres,940,,,,,,,,,,,1958 - 1959,1959 - 1960,,,,,,,,,,,,
SA,Country/Rural,Cinema ,-34.59954,138.7491411,,5118,Gawler,Ozone,Hoyts-Ozone Theatres,940,,,,,,,,,,,,,1960 - 1961,1961 - 1962,1962 - 1963,1963 - 1964,1964 - 1965,1965 - 1966,1966 - 1967,,,,,
SA,Country/Rural,Cinema ,-33.359547,138.392611,,5472,Georgetown,Institute,Secretary,280,,1949 - 1950,1950 - 1951,1951 - 1952,1952 - 1953,,,,,,,,,,,,,,,,,,,
SA,Country/Rural,Cinema ,-33.359547,138.392611,,5472,Georgetown,Institute,Secretary,220,,,,,,1953 - 1954,1954 - 1955,1955 - 1956,,,,,,,,,,,,,,,,
SA,Country/Rural,Cinema ,-33.359547,138.392611,,5472,Georgetown,Institute,Secretary,280,,,,,,,,,1956 - 1957,1957 - 1958,,,,,,,,,,,,,,
SA,Country/Rural,Cinema ,-33.359547,138.392611,,5472,Georgetown,Institute,Institute Committee,220,,,,,,,,,,,1958 - 1959,1959 - 1960,1960 - 1961,1961 - 1962,,,,,,,,,,
SA,Country/Rural,Cinema ,-33.359547,138.392611,,5472,Georgetown,Institute,Georgetown Talkies,220,,,,,,,,,,,,,,,1962 - 1963,,,,,,,,,
SA,Suburban,Drive-in,-34.844493,138.60214,588 Main North Road,5094,Gepps Cross,Mainline,Mainlne Drive-In Theatres Ltd.,600,,,,,,,,,,1957 - 1958,1958 - 1959,1959 - 1960,1960 - 1961,1961 - 1962,1962 - 1963,1963 - 1964,1964 - 1965,1965 - 1966,,,,,http://www.samemory.sa.gov.au/site/page.cfm?u=1292,
SA,Suburban,Drive-in,-34.844493,138.60214,588 Main North Road,5094,Gepps Cross,Mainline,Mainline Drive-In Theatres Ltd.,752,,,,,,,,,,,,,,,,,,,1966 - 1967,,,,http://www.samemory.sa.gov.au/site/page.cfm?u=1292,
SA,Suburban,Drive-in,-34.844493,138.60214,588 Main North Road,5094,Gepps Cross,Mainline,Mainline Drive-In Theatres Ltd.,667,,,,,,,,,,,,,,,,,,,,1968 - 1969,1969 - 1970,,http://www.samemory.sa.gov.au/site/page.cfm?u=1292,
SA,Suburban,Drive-in,-34.844493,138.60214,588 Main North Road,5094,Gepps Cross,Mainline,Mainline Drive-In Theatres Ltd.,807,,,,,,,,,,,,,,,,,,,,,,1971,http://www.samemory.sa.gov.au/site/page.cfm?u=1292,
SA,Suburban,Drive-in,-34.854651,138.653974,Blacks Road,5086,Gilles Plains,Starline,Starline Theatres Pty. Ltd.,630,,,,,,,,,,,,,,,,,1964 - 1965,1965 - 1966,1966 - 1967,1968 - 1969,1969 - 1970,1971,http://www.samemory.sa.gov.au/site/page.cfm?u=1292,
SA,Country/Rural,Drive-in,-33.273422,138.357392,,5473,Gladstone,Cloudland,The Cloudline Drive-In Theatres Ltd.,250,,,,,,,,,,,,,1960 - 1961,1961 - 1962,1962 - 1963,1963 - 1964,1964 - 1965,1965 - 1966,1966 - 1967,,,,,
SA,Country/Rural,Drive-in,-33.273422,138.357392,,5473,Gladstone,Cloudland,The Cloudline Drive-In Theatres Ltd.,260,,,,,,,,,,,,,,,,,,,,1968 - 1969,1969 - 1970,,,
SA,Country/Rural,Drive-in,-33.273422,138.357392,,5473,Gladstone,Cloudland,The Cloudline Drive-In Theatres Ltd.,280,,,,,,,,,,,,,,,,,,,,,,1971,,
SA,Country/Rural,Cinema ,-33.2692819,138.3567443,,5473,Gladstone,Institute,W. V. Benbow,350,1948 - 1949,1949 - 1950,1950 - 1951,1951 - 1952,1952 - 1953,,,,,,,,,,,,,,,,,,,
SA,Country/Rural,Cinema ,-33.2692819,138.3567443,,5473,Gladstone,Institute,Benbow Amusements Ltd.,350,,,,,,1953 - 1954,1954 - 1955,1955 - 1956,1956 - 1957,1957 - 1958,1958 - 1959,1959 - 1960,1960 - 1961,1961 - 1962,1962 - 1963,1963 - 1964,,,,,,,,
SA,Country/Rural,Cinema ,-37.687654,140.611398,,5291,Glencoe,Institute,Secretary,270,,1949 - 1950,1950 - 1951,1951 - 1952,,,,,,,,,,,,,,,,,,,,
SA,Country/Rural,Cinema ,-37.687654,140.611398,,5291,Glencoe,Institute,"Chevron Cinemas, Robe",270,,,,,1952 - 1953,1953 - 1954,1954 - 1955,1955 - 1956,1956 - 1957,1957 - 1958,,,,,,,,,,,,,,
SA,Country/Rural,Cinema ,-37.687654,140.611398,,5291,Glencoe,Institute,F. P. Squire,270,,,,,,,,,,,1958 - 1959,1959 - 1960,,,,,,,,,,,,
SA,Suburban,Cinema ,-34.980290,138.516537,112 Jetty Road,5045,Glenelg,Strand,Glenelg Theatres Ltd.,1178,1948 - 1949,1949 - 1950,1950 - 1951,1951 - 1952,1952 - 1953,1953 - 1954,1954 - 1955,1955 - 1956,1956 - 1957,1957 - 1958,,,,,,,,,,,,,,
SA,Suburban,Cinema ,-34.980290,138.516537,112 Jetty Road,5045,Glenelg,Odeon,Glenelg Theatres Ltd.,1100,,,,,,,,,,,1958 - 1959,1959 - 1960,1960 - 1961,1961 - 1962,1962 - 1963,1963 - 1964,1964 - 1965,1965 - 1966,,,,,,
SA,Suburban,Cinema ,-34.980290,138.516537,112 Jetty Road,5045,Glenelg,Village,Glenelg Theatres Ltd.,856,,,,,,,,,,,,,,,,,,,1966 - 1967,,,,,
SA,Suburban,Cinema ,-34.980290,138.516537,112 Jetty Road,5045,Glenelg,Village,Glenelg Theatres Ltd.,1100,,,,,,,,,,,,,,,,,,,,1968 - 1969,1969 - 1970,,,
SA,Suburban,Cinema ,-34.980290,138.516537,112 Jetty Road,5045,Glenelg,Village,Glenelg Theatres Ltd.,866,,,,,,,,,,,,,,,,,,,,,,1971,,
SA,Suburban,Cinema ,-34.980011,138.519185,119 Jetty Road,5045,Glenelg,Ozone Glenelg,Ozone Theatres Ltd.,1920,1948 - 1949,1949 - 1950,1950 - 1951,,,,,,,,,,,,,,,,,,,,,
SA,Suburban,Cinema ,-34.980011,138.519185,119 Jetty Road,5045,Glenelg,Ozone Glenelg,Hoyts-Ozone Theatres,1920,,,,1951 - 1952,1952 - 1953,1953 - 1954,1954 - 1955,1955 - 1956,,,,,,,,,,,,,,,,
SA,Suburban,Cinema ,-34.980011,138.519185,119 Jetty Road,5045,Glenelg,Ozone Glenelg,Hoyts-Ozone Theatres,1821,,,,,,,,,1956 - 1957,1957 - 1958,,,,,,,,,,,,,,
SA,Suburban,Cinema ,-34.980011,138.519185,119 Jetty Road,5045,Glenelg,Ozone Glenelg,Hoyts-Ozone Theatres,1793,,,,,,,,,,,1958 - 1959,1959 - 1960,1960 - 1961,1961 - 1962,1962 - 1963,1963 - 1964,1964 - 1965,1965 - 1966,1966 - 1967,,,,,
SA,Suburban,Cinema ,-34.980011,138.519185,119 Jetty Road,5045,Glenelg,Ozone Glenelg,Hoyts-Ozone Theatres,1758,,,,,,,,,,,,,,,,,,,,1968 - 1969,1969 - 1970,1971,,
SA,Suburban,Cinema ,-34.978598,138.512272,17 Colley Terrace,5045,Glenelg,Seaview,Glenelg Theatres Ltd.,914,1948 - 1949,1949 - 1950,1950 - 1951,1951 - 1952,1952 - 1953,1953 - 1954,1954 - 1955,1955 - 1956,1956 - 1957,1957 - 1958,1958 - 1959,1959 - 1960,,,,,,,,,,,,
SA,Suburban,Cinema ,-34.953245,138.589825,145a Goodwood Road,5034,Goodwood,Ozone,Ozone Theatres Ltd.,1278,1948 - 1949,1949 - 1950,1950 - 1951,,,,,,,,,,,,,,,,,,,,,
SA,Suburban,Cinema ,-34.953245,138.589825,145a Goodwood Road,5034,Goodwood,Ozone,Hoyts-Ozone Theatres,1278,,,,1951 - 1952,1952 - 1953,1953 - 1954,1954 - 1955,1955 - 1956,1956 - 1957,1957 - 1958,,,,,,,,,,,,,,
SA,Suburban,Cinema ,-34.952562,138.589932,141 Goodwood Road,5034,Goodwood,Star,Clifford Theatre Circuit,1472,1948 - 1949,1949 - 1950,1950 - 1951,1951 - 1952,1952 - 1953,1953 - 1954,1954 - 1955,1955 - 1956,,,,,,,,,,,,,,,,
SA,Suburban,Cinema ,-34.952562,138.589932,141 Goodwood Road,5034,Goodwood,Curzon,R. Kapferer & A. Regan,1160,,,,,,,,,1956 - 1957,1957 - 1958,,,,,,,,,,,,,,
SA,Suburban,Cinema ,-34.952562,138.589932,141 Goodwood Road,5034,Goodwood,Curzon,R. Kapferer & A. Regan,1230,,,,,,,,,,,1958 - 1959,1959 - 1960,,,,,,,,,,,,
SA,Suburban,Cinema ,-34.952562,138.589932,141 Goodwood Road,5034,Goodwood,Star,Hoyts-Ozone Theatres,1414,,,,,,,,,,,1958 - 1959,1959 - 1960,,,,,,,,,,,,
SA,Suburban,Cinema ,-34.952562,138.589932,141 Goodwood Road,5034,Goodwood,Curzon,Greater Union Theatres Pty. Ltd.,1230,,,,,,,,,,,,,1960 - 1961,1961 - 1962,1962 - 1963,1963 - 1964,1964 - 1965,1965 - 1966,,,,,,
SA,Suburban,Cinema ,-34.952562,138.589932,141 Goodwood Road,5034,Goodwood,Star,Clifford Theatre Circuit,1414,,,,,,,,,,,,,1960 - 1961,1961 - 1962,1962 - 1963,1963 - 1964,1964 - 1965,,,,,,,
SA,Suburban,Cinema ,-34.952562,138.589932,141 Goodwood Road,5034,Goodwood,Capri,Greater Union Theatres Pty. Ltd.,851,,,,,,,,,,,,,,,,,,,1966 - 1967,,,,,
SA,Suburban,Cinema ,-34.952562,138.589932,141 Goodwood Road,5034,Goodwood,Capri,Greater Union Theatres Pty. Ltd.,1468,,,,,,,,,,,,,,,,,,,,1968 - 1969,,,,
SA,Suburban,Cinema ,-34.952562,138.589932,141 Goodwood Road,5034,Goodwood,Capri,Greater Union Theatres Pty. Ltd.,850,,,,,,,,,,,,,,,,,,,,,1969 - 1970,1971,,
SA,Country/Rural,Cinema ,-35.501983,138.7831,,5214,Goolwa,Centenary,Mrs. A. J. George,360,1948 - 1949,1949 - 1950,1950 - 1951,,,,,,,,,,,,,,,,,,,,,
SA,Country/Rural,Cinema ,-35.501983,138.7831,,5214,Goolwa,Centenary,A. H. Thomas,360,,,,1951 - 1952,1952 - 1953,1953 - 1954,1954 - 1955,,,,,,,,,,,,,,,,,
SA,Country/Rural,Cinema ,-35.501983,138.7831,,5214,Goolwa,Centenary,H. Cuthbert,360,,,,,,,,1955 - 1956,,,,,,,,,,,,,,,,
SA,Country/Rural,Cinema ,-35.501983,138.7831,,5214,Goolwa,Centenary,H. Cuthbert,250,,,,,,,,,1956 - 1957,1957 - 1958,,,,,,,,,,,,,,
SA,Country/Rural,Cinema ,-35.501983,138.7831,,5214,Goolwa,Centenary,Clark & Cuthbert,250,,,,,,,,,,,1958 - 1959,1959 - 1960,1960 - 1961,1961 - 1962,,,,,,,,,,
SA,Country/Rural,Cinema ,-34.82512,138.883278,,5233,Gumeracha,Institute,Benbow Amusements,259,,1949 - 1950,1950 - 1951,1951 - 1952,1952 - 1953,1953 - 1954,1954 - 1955,1955 - 1956,,,,,,,,,,,,,,,,
SA,Country/Rural,Cinema ,-34.82512,138.883278,,5233,Gumeracha,Institute,Benbow Amusements Ltd.,350,,,,,,,,,1956 - 1957,1957 - 1958,1958 - 1959,,,,,,,,,,,,,
SA,Country/Rural,Touring Circuit,-34.824787,138.883562,,5233,Gumeracha,"Benbow Amusements Ltd., 221 Pirie Street, Adelaide",Benbow Amusements Ltd.,350,,,,,,,,,,,1958 - 1959,1959 - 1960,,,,,,,,,,,,
SA,Suburban,Cinema ,-34.917707,138.614833,23 Hackney Road,5069,Hackney,Star,B. E. Cunnew & Sons,366,1948 - 1949,,,,,,,,,,,,,,,,,,,,,,,
SA,Country/Rural,Cinema ,-35.02882,138.809365,,5245,Hahndorf,Institute,V. M. Russell,150,1948 - 1949,,,,,,,,,,,,,,,,,,,,,,,
SA,Country/Rural,Cinema ,-35.02882,138.809365,,5245,Hahndorf,Institute,L. Whisson,350,,1949 - 1950,,,,,,,,,,,,,,,,,,,,,,
SA,Country/Rural,Cinema ,-35.02882,138.809365,,5245,Hahndorf,Institute,L. J. Hale,350,,,1950 - 1951,1951 - 1952,1952 - 1953,,,,,,,,,,,,,,,,,,,
SA,Country/Rural,Cinema ,-35.02882,138.809365,,5245,Hahndorf,Institute,L. J. Hale,150,,,,,,1953 - 1954,,,,,,,,,,,,,,,,,,
SA,Country/Rural,Cinema ,-33.411716,138.892776,,5419,Hallett,Institute Hall,L. G. Murphy,…,,,,,,,,1955 - 1956,1956 - 1957,1957 - 1958,,,,,,,,,,,,,,
SA,Country/Rural,Touring Circuit,-33.411716,138.892776,,5419,Hallett,"Benbow Amusements Ltd., 221 Pirie Street, Adelaide",Benbow Amusements Ltd.,,,,,,,,,,,,1958 - 1959,1959 - 1960,,,,,,,,,,,,
SA,Country/Rural,Touring Circuit,-34.356089,138.680883,,5401,Hamley Bridge,L. N. Mullens,L. N. Mullens,380,,1949 - 1950,1950 - 1951,1951 - 1952, ,,,,,,,,,,,,,,,,,,,
SA,Country/Rural,Cinema ,-34.356089,138.680883,,5401,Hamley Bridge,Institute,Secretary,320,,,,,1952 - 1953,1953 - 1954,1954 - 1955,1955 - 1956,,,,,,,,,,,,,,,,
SA,Country/Rural,Cinema ,-34.356089,138.680883,,5401,Hamley Bridge,Institute,Secretary,380,,,,,,,,,1956 - 1957,1957 - 1958,,,,,,,,,,,,,,
SA,Country/Rural,Cinema ,-34.356089,138.680883,,5401,Hamley Bridge,Institute,Ham. Brid. Instit. C'tee.,380,,,,,,,,,,,1958 - 1959,,,,,,,,,,,,,
SA,Country/Rural,Cinema ,-34.356089,138.680883,,5401,Hamley Bridge,Institute,Ham. Brid. Instit. C'tee.,220,,,,,,,,,,,,1959 - 1960,1960 - 1961,1961 - 1962,1962 - 1963,,,,,,,,,
SA,Suburban,Cinema ,-35.07553,138.562833,,5159,Happy Valley,District Hall,J. Miller,200,,,,,,,,,,,1958 - 1959,1959 - 1960,,,,,,,,,,,,
SA,Suburban,Drive-in,-34.893707,138.656885,54 Glynburn Road,5073,Hectorville,Starline,Starline Drive-In Theatres Ltd. ,400,,,,,,,,,,1957 - 1958,1958 - 1959,1959 - 1960,1960 - 1961,1961 - 1962,1962 - 1963,1963 - 1964,1964 - 1965,1965 - 1966,1966 - 1967,,,,http://www.samemory.sa.gov.au/site/page.cfm?u=1292,
SA,Suburban,Drive-in,-34.893707,138.656885,54 Glynburn Road,5073,Hectorville,Starline,Starline Drive-In Theatres Ltd. ,450,,,,,,,,,,,,,,,,,,,,1968 - 1969,1969 - 1970,,http://www.samemory.sa.gov.au/site/page.cfm?u=1292,
SA,Suburban,Drive-in,-34.893707,138.656885,54 Glynburn Road,5073,Hectorville,Starline,Starline Drive-In Theatres Ltd. ,579,,,,,,,,,,,,,,,,,,,,,,1971,,
SA,Suburban,Cinema ,-34.933961,138.498957,Ozone Street,5022,Henley Beach,"Ozone, Hillside",Ozone Theatres Ltd.,-,1948 - 1949,,,,,,,,,,,,,,,,,,,,,,,
SA,Suburban,Cinema ,-34.933961,138.498957,Ozone Street,5022,Henley Beach,Ozone,Hoyts-Ozone Theatres,460,,,,,,,,1955 - 1956,,,,,,,,,,,,,,,,
SA,Suburban,Cinema ,-34.933961,138.498957,Ozone Street,5022,Henley Beach,Ozone,Hoyts-Ozone Theatres,499,,,,,,,,,1956 - 1957,1957 - 1958,,,,,,,,,,,,,,
SA,Suburban,Cinema ,-34.916748,138.493807,Corner of Seaview Road and North Street,5022,Henley Beach,Town Hill,Times Theatres Ltd.,482,1948 - 1949,,,,,,,,,,,,,,,,,,,,,,,
SA,Suburban,Cinema ,-34.916748,138.493807,Corner of Seaview Road and North Street,5022,Henley Beach,Town Hill,Ozone Theatres Ltd.,460,,1949 - 1950,1950 - 1951,,,,,,,,,,,,,,,,,,,,,
SA,Suburban,Cinema ,-34.916748,138.493807,Corner of Seaview Road and North Street,5022,Henley Beach,Town Hill,Hoyts-Ozone Theatres,460,,,,1951 - 1952,1952 - 1953,1953 - 1954,1954 - 1955,,,,,,,,,,,,,,,,,
SA,Suburban,Cinema ,-34.916748,138.493807,Corner of Seaview Road and North Street,5022,Henley Beach,Town Hall,Clifford Theatre Circuit,499,,,,,,,,,,,1958 - 1959,1959 - 1960,1960 - 1961,1961 - 1962,,,,,,,,,,
SA,Suburban,Drive-in,-34.740452,138.677029,Main North Road,5112,Hillbank,Shandon,Shandon Drive-In Pty. Ltd.,600,,,,,,,,,,,,1959 - 1960,1960 - 1961,1961 - 1962,1962 - 1963,1963 - 1964,1964 - 1965,,,,,,http://www.samemory.sa.gov.au/site/page.cfm?u=1292,
SA,Suburban,Drive-in,-34.740452,138.677029,Main North Road,5112,Hillbank,Starline,Starline Drive-In Pty. Ltd. ,600,,,,,,,,,,,,,,,,,,1965 - 1966,1966 - 1967,,,,http://www.samemory.sa.gov.au/site/page.cfm?u=1292,
SA,Suburban,Drive-in,-34.740452,138.677029,Main North Road,5112,Hillbank,Starline,Starline Drive-In Pty. Ltd. ,579,,,,,,,,,,,,,,,,,,,,1968 - 1969,1969 - 1970,,http://www.samemory.sa.gov.au/site/page.cfm?u=1292,
SA,Suburban,Drive-in,-34.740452,138.677029,Main North Road,5112,Hillbank,Starline,Elizabeth Drive-In Pty. Ltd.,694,,,,,,,,,,,,,,,,,,,,,,1971,http://www.samemory.sa.gov.au/site/page.cfm?u=1292,
SA,Suburban,Cinema ,-34.932245,138.563818,147 Sir Donald Bradman Drive (Formerly 62 Rowland Street),5033,Hilton,Soldiers' Mem.,J. Dundas,550,1948 - 1949,,,,,,,,,,,,,,,,,,,,,,,
SA,Suburban,Cinema ,-34.932245,138.563818,147 Sir Donald Bradman Drive (Formerly 62 Rowland Street),5033,Hilton,Windsor,B. E. Cunnew & Sons,460,,1949 - 1950,1950 - 1951,1951 - 1952,1952 - 1953,1953 - 1954,1954 - 1955,1955 - 1956,,,,,,,,,,,,,,,,
SA,Suburban,Cinema ,-34.932245,138.563818,147 Sir Donald Bradman Drive (Formerly 62 Rowland Street),5033,Hilton,Windsor,B. E. Cunnew & Sons,495,,,,,,,,,1956 - 1957,1957 - 1958,1958 - 1959,1959 - 1960,1960 - 1961,1961 - 1962,,,,,,,,,,
SA,Suburban,Cinema ,-34.905532,138.570900,2-6 Milner Street,5007,Hindmarsh,Town Hall,Clifford Theatre Circuit,1983,1948 - 1949,1949 - 1950,1950 - 1951,1951 - 1952,1952 - 1953,1953 - 1954,1954 - 1955,,,,,,,,,,,,,,,,,
SA,Suburban,Cinema ,-34.905532,138.570900,2-6 Milner Street,5007,Hindmarsh,Odeon,Clifford Theatre Circuit,1983,,,,,,,,1955 - 1956,,,,,,,,,,,,,,,http://cinematreasures.org/theaters/35465,
SA,Suburban,Cinema ,-34.905532,138.570900,2-6 Milner Street,5007,Hindmarsh,Odeon,Clifford Theatre Circuit,1963,,,,,,,,,1956 - 1957,1957 - 1958,,,,,,,,,,,,,http://cinematreasures.org/theaters/35465,
SA,Suburban,Cinema ,-34.905532,138.570900,2-6 Milner Street,5007,Hindmarsh,Town Hall,Clifford Theatre Circuit,1963,,,,,,,,,,,1958 - 1959,1959 - 1960,1960 - 1961,1961 - 1962,1962 - 1963,1963 - 1964,1964 - 1965,1965 - 1966,1966 - 1967,,,,,
SA,Suburban,Cinema ,-34.905532,138.570900,2-6 Milner Street,5007,Hindmarsh,Flicker Arts,Cine-Arts Ent. P/L,1700,,,,,,,,,,,,,,,,,,,,,1969 - 1970,,,
SA,Suburban,Cinema ,-34.905532,138.570900,2-6 Milner Street,5007,Hindmarsh,Flicker Arts,Cine-Arts Ent. P/L,1939,,,,,,,,,,,,,,,,,,,,,,1971,,
SA,Country/Rural,Cinema ,-32.730812,137.15015,,5601,Iron Knob,Institute,Iron Knob Picture Inst.,250,1948 - 1949,1949 - 1950,1950 - 1951,1951 - 1952,1952 - 1953,1953 - 1954,1954 - 1955,1955 - 1956,1956 - 1957,1957 - 1958,1958 - 1959,1959 - 1960,1960 - 1961,1961 - 1962,1962 - 1963,1963 - 1964,1964 - 1965,1965 - 1966,1966 - 1967,1968 - 1969,1969 - 1970,,,
SA,Country/Rural,Cinema ,-33.205025,138.605041,,5491,Jamestown,Institute,L. Lester,560,1948 - 1949,,,,,,,,,,,,,,,,,,,,,,,
SA,Country/Rural,Cinema ,-33.205025,138.605041,,5491,Jamestown,Institute,H. Lester,560,,1949 - 1950,1950 - 1951,1951 - 1952,,,,,,,,,,,,,,,,,,,,
SA,Country/Rural,Cinema ,-33.205025,138.605041, ,5491,Jamestown,Town Hall,L. G. Murphy,560,,,,,1952 - 1953,1953 - 1954,1954 - 1955,1955 - 1956,1956 - 1957,1957 - 1958,,,,,,,,,,,,,,
SA,Country/Rural,Cinema ,-33.205025,138.605041,,5491,Jamestown,Institute,L. G. Murphy,414,,,,,,,,,,,1958 - 1959,1959 - 1960,1960 - 1961,1961 - 1962,,,,,,,,,,
SA,Country/Rural,Cinema ,-33.205025,138.605041,,5491,Jamestown,Institute,Sec. Progress Assn.,414,,,,,,,,,,,,,,,1962 - 1963,1963 - 1964,1964 - 1965,1965 - 1966,1966 - 1967,1968 - 1969,1969 - 1970,,,
SA,Country/Rural,Cinema ,-33.205025,138.605041,,5491,Jamestown,Institute,Jamestown and Distr. Progress Assn.,375,,,,,,,,,,,,,,,,,,,,,,1971,,
SA,Country/Rural,Drive-in,-33.966103,137.698643,Newland Road,5554,Kadina,Sunset,Kadina Drive-In Theatres Pty. Ltd.,500,,,,,,,,,,,,1959 - 1960,1960 - 1961,1961 - 1962,,,,,,,,,,
SA,Country/Rural,Drive-in,-33.966103,137.698643,Newland Road,5554,Kadina,Sunset,Shandon Drive-In Pty. Ltd.,500,,,,,,,,,,,,,,,1962 - 1963,1963 - 1964,,,,,,,,
SA,Country/Rural,Drive-in,-33.966103,137.698643,Newland Road,5554,Kadina,Shandon,Shandon Drive-In Pty. Ltd.,500,,,,,,,,,,,,,,,,,1964 - 1965,1965 - 1966,1966 - 1967,,,,,
SA,Country/Rural,Drive-in,-33.966103,137.698643,Newland Road,5554,Kadina,Shandon,Shandon Drive-In Pty. Ltd.,400,,,,,,,,,,,,,,,,,,,,1968 - 1969,1969 - 1970,1971,,
SA,Country/Rural,Cinema ,-33.961893,137.720247,,5554,Kadina,Ideal,Clifford Theatre Circuit,1047,1948 - 1949,1949 - 1950,1950 - 1951,1951 - 1952,1952 - 1953,1953 - 1954,1954 - 1955,1955 - 1956,,,,,,,,,,,,,,,,
SA,Country/Rural,Cinema ,-33.961893,137.720247,,5554,Kadina,Ideal,Clifford Theatre Circuit,1020,,,,,,,,,1956 - 1957,1957 - 1958,1958 - 1959,1959 - 1960,1960 - 1961,1961 - 1962,1962 - 1963,1963 - 1964,1964 - 1965,,,,,,,
SA,Country/Rural,Cinema ,-33.961893,137.720247,,5554,Kadina,Ascot,John Harvey,…,,,,,,,,,,,,,,,,,,,,1968 - 1969,1969 - 1970,,,
SA,Country/Rural,Cinema ,-33.961893,137.720247,,5554,Kadina,Ascot,John Harvey,410,,,,,,,,,,,,,,,,,,,,,,1971,,
SA,Country/Rural,Cinema ,-37.562727,140.699612,,5278,Kalangadoo,Kalangadoo,F. P. Squire,250,1948 - 1949,,,,,,,,,,,,,,,,,,,,,,,
SA,Country/Rural,Cinema ,-37.562727,140.699612,,5278,Kalangadoo,Kalangadoo,"Chevron Cinemas, Robe ",250,,1949 - 1950,1950 - 1951,1951 - 1952,1952 - 1953,1953 - 1954,1954 - 1955,1955 - 1956,1956 - 1957,1957 - 1958,,,,,,,,,,,,,,
SA,Country/Rural,Cinema ,-37.562727,140.699612,,5278,Kalangadoo,Institute,F. P. Squire,250,,,,,,,,,,,1958 - 1959,1959 - 1960,1960 - 1961,,,,,,,,,,,
SA,Country/Rural,Cinema ,-37.562727,140.699612,,5278,Kalangadoo,Institute,Chevron Cinemas,250,,,,,,,,,,,,,,1961 - 1962,1962 - 1963,1963 - 1964,1964 - 1965,,,,,,,
SA,Country/Rural,Touring Circuit,-35.148573,138.658426,,5157,Kangarilla,A. H. Thomas,A. H. Thomas,,,, ,,,,1954 - 1955,1955 - 1956,1956 - 1957,1957 - 1958,,,,,,,,,,,,,,
SA,Country/Rural,Cinema ,-34.3410932,138.9151993,,5373,Kapunda,Institute,Williams & Harrison Pty. Ltd.,300,1948 - 1949,,,,,,,,,,,,,,,,,,,,,,,
SA,Country/Rural,Cinema ,-34.3410932,138.9151993,,5373,Kapunda,Institute,Avon Theatres Ltd.,300,,1949 - 1950,1950 - 1951,,,,,,,,,,,,,,,,,,,,,
SA,Country/Rural,Cinema ,-34.3410932,138.9151993,,5373,Kapunda,Institute,Avon Thrs. Ltd.,300,,,,1951 - 1952,,,,,,,,,,,,,,,,,,,,
SA,Country/Rural,Cinema ,-34.3410932,138.9151993,,5373,Kapunda,Institute,Secretary,300,,,,,1952 - 1953,1953 - 1954,1954 - 1955,1955 - 1956,1956 - 1957,1957 - 1958,,,,,,,,,,,,,,
SA,Country/Rural,Cinema ,-34.3410932,138.9151993,,5373,Kapunda,Institute,Kapunda Instit. Pic. C'tee,300,,,,,,,,,,,1958 - 1959,1959 - 1960,1960 - 1961,,,,,,,,,,,
SA,Country/Rural,Cinema ,-34.3410932,138.9151993,,5373,Kapunda,Institute,Institute Pictures,300,,,,,,,,,,,,,,1961 - 1962,,1963 - 1964,1964 - 1965,,,,,,,
SA,Country/Rural,Cinema ,-34.3410932,138.9151993,,5373,Kapunda,Institute,…,250,,,,,,,,,,,,,,,,,,,,,,1971,,
SA,Country/Rural,Cinema ,-35.096092,139.89172,,5307,Karoonda,Institute,W. V. Benbow,200,1948 - 1949,,,,,,,,,,,,,,,,,,,,,,,
SA,Country/Rural,Cinema ,-35.096092,139.89172,,5307,Karoonda,Institute,W. V. Benbow,220,,1949 - 1950,1950 - 1951,1951 - 1952,1952 - 1953,,,,,,,,,,,,,,,,,,,
SA,Country/Rural,Cinema ,-35.096092,139.89172,,5307,Karoonda,Institute,Benbow Amusements Ltd.,220,,,,,,1953 - 1954,1954 - 1955,1955 - 1956,,,,,,,,,,,,,,,,
SA,Country/Rural,Cinema ,-35.096092,139.89172,,5307,Karoonda,Institute,Benbow Amusements Ltd.,200,,,,,,,,,1956 - 1957,1957 - 1958,1958 - 1959,1959 - 1960,1960 - 1961,1961 - 1962,,,,,,,,,,
SA,Country/Rural,Cinema ,-35.096092,139.89172,,5307,Karoonda,Institute,…,…,,,,,,,,,,,,,,,,,,1965 - 1966,1966 - 1967,1968 - 1969,1969 - 1970,,,
SA,Country/Rural,Cinema ,-35.096092,139.89172,,5307,Karoonda,Institute,…,200,,,,,,,,,,,,,,,,,,,,,,1971,,
SA,Country/Rural,Cinema ,-36.098124,140.353614,,5267,Keith,Institute,A. W. Murray,200,1948 - 1949,,,,,,,,,,,,,,,,,,,,,,,
SA,Country/Rural,Cinema ,-36.098124,140.353614,,5267,Keith,Institute,V. Head,200,,1949 - 1950,1950 - 1951,1951 - 1952,1952 - 1953,1953 - 1954,1954 - 1955,1955 - 1956,1956 - 1957,1957 - 1958,,,,,,,,,,,,,,
SA,Country/Rural,Cinema ,-36.098124,140.353614,,5267,Keith,Institute,V. Head,240,,,,,,,,,,,1958 - 1959,1959 - 1960,1960 - 1961,,,,,,,,,,,
SA,Country/Rural,Cinema ,-36.098124,140.353614,,5267,Keith,Institute,Keith Institute Inc.,240,,,,,,,,,,,,,,1961 - 1962,1962 - 1963,1963 - 1964,1964 - 1965,1965 - 1966,1966 - 1967,1968 - 1969,1969 - 1970,1971,,
SA,Suburban,Cinema ,-34.862044,138.588552,49 le Hunte Street,5084,Kilburn,Progressive Hall,Gregory and Casson,300,1948 - 1949,1949 - 1950,1950 - 1951,1951 - 1952,1952 - 1953,1953 - 1954,1954 - 1955,1955 - 1956,1956 - 1957,1957 - 1958,,,,,,,,,,,,,,
SA,Suburban,Cinema ,-34.862044,138.588552,49 le Hunte Street,5084,Kilburn,Progressive Hall,Gregory and Casson,311,,,,,,,,,,,1958 - 1959,1959 - 1960,,,,,,,,,,,,
SA,Suburban,Cinema ,-34.862044,138.588552,49 le Hunte Street,5084,Kilburn,Progress Hall,K. Gregory,311,,,,,,,,,,,,,1960 - 1961,,,,,,,,,,,
SA,Suburban,Cinema ,-34.862044,138.588552,49 le Hunte Street,5084,Kilburn,Cameo,K. Gregory,311,,,,,,,,,,,,,,1961 - 1962,1962 - 1963,1963 - 1964,1964 - 1965,1965 - 1966,1966 - 1967,,,,,
SA,Suburban,Cinema ,-34.882775,138.549647,58 David Terrace,5009,Kilkenny,Odeon,Clifford Theatre Circuit,1043,1948 - 1949,1949 - 1950,1950 - 1951,1951 - 1952,1952 - 1953,1953 - 1954,1954 - 1955,1955 - 1956,,,,,,,,,,,,,,,,
SA,Suburban,Cinema ,-34.882775,138.549647,58 David Terrace,5009,Kilkenny,Odeon,Clifford Theatre Circuit,1020,,,,,,,,,1956 - 1957,1957 - 1958,,,,,,,,,,,,,,
SA,Suburban,Cinema ,-34.882775,138.549647,58 David Terrace,5009,Kilkenny,Odeon-Star,Clifford Theatre Circuit,1020,,,,,,,,,,,1958 - 1959,1959 - 1960,1960 - 1961,1961 - 1962,1962 - 1963,,,,,,,,,
SA,Country/Rural,Cinema ,-33.138335,136.420655,,5641,Kimba,Institute,Secretary,375,,,1950 - 1951,1951 - 1952,1952 - 1953,1953 - 1954,1954 - 1955,1955 - 1956,1956 - 1957,1957 - 1958,,,,,,,,,,,,,,
SA,Country/Rural,Cinema ,-33.138335,136.420655,,5641,Kimba,Institute,Soldiers' Memorial Instit. Pics.,345,,,,,,,,,,,1958 - 1959,,,,,,,,,,,,,
SA,Country/Rural,Cinema ,-33.138335,136.420655,,5641,Kimba,Institute,Soldiers' Memorial Instit. Pics.,347,,,,,,,,,,,,1959 - 1960,,,,,,,,,,,,
SA,Country/Rural,Cinema ,-33.138335,136.420655,,5641,Kimba,Institute,Soldiers' Memorial Instit. Pics.,347,,,,,,,,,,,,,1960 - 1961,1961 - 1962,1962 - 1963,1963 - 1964,1964 - 1965,1965 - 1966,1966 - 1967,1968 - 1969,1969 - 1970,,,
SA,Country/Rural,Cinema ,-33.138335,136.420655,,5641,Kimba,Institute,Soldiers' Memorial Instit. Pics.,416,,,,,,,,,,,,,,,,,,,,,,1971,,
SA,Country/Rural,Cinema ,-35.656624,137.638356,,5223,Kingscote,Institute,Roxy Theatres Ltd.,277,1948 - 1949,1949 - 1950,1950 - 1951,1951 - 1952,,,,,,,,,,,,,,,,,,,,
SA,Country/Rural,Cinema ,-35.656624,137.638356,,5223,Kingscote,Institute,S. D. & D. T. Harris,277,,,,,1952 - 1953,1953 - 1954,1954 - 1955,1955 - 1956,1956 - 1957,1957 - 1958,,,,,,,,,,,,,,
SA,Country/Rural,Cinema ,-35.656624,137.638356,,5223,Kingscote,Institute,S. D. & D. T. Harris,267,,,,,,,,,,,1958 - 1959,1959 - 1960,1960 - 1961,,,,,,,,,,,
SA,Country/Rural,Cinema ,-35.656624,137.638356,,5223,Kingscote,Roxy,S. D. & D. T. Harris,267,,,,,,,,,,,,,,1961 - 1962,1962 - 1963,1963 - 1964,1964 - 1965,1965 - 1966,1966 - 1967,,,,,
SA,Country/Rural,Cinema ,-35.656624,137.638356,,5223,Kingscote,Institute,S. D. & D. T. Harris,267,,,,,,,,,,,,,,,,,,,,1968 - 1969,1969 - 1970,,,
SA,Country/Rural,Cinema ,-35.656624,137.638356,,5223,Kingscote,Institute,S. D. & D. T. Harris,300,,,,,,,,,,,,,,,,,,,,,,1971,,
SA,Country/Rural,Cinema ,-36.829915,139.85278,,5275,Kingston,Institute,A. W. Backler,400,1948 - 1949,1949 - 1950,1950 - 1951,1951 - 1952,1952 - 1953,1953 - 1954,1954 - 1955,1955 - 1956,1956 - 1957,1957 - 1958,,,,,,,,,,,,,,
SA,Country/Rural,Cinema ,-36.829915,139.85278,,5275,Kingston,Institute,A. W. Backler,286,,,,,,,,,,,1958 - 1959,1959 - 1960,1960 - 1961,,,,,,,,,,,
SA,Country/Rural,Cinema ,-36.829915,139.85278,,5275,Kingston,Renown,Lesco Ltd.,286,,,,,,,,,,,,,,1961 - 1962,1962 - 1963,1963 - 1964,1964 - 1965,1965 - 1966,1966 - 1967,,,,,
SA,Suburban,Cinema ,-34.967631,138.608863,25 Belair Road,5062,Kingswood,Vogue,Clifford Theatre Circuit,1454,1948 - 1949,1949 - 1950,1950 - 1951,1951 - 1952,1952 - 1953,1953 - 1954,1954 - 1955,1955 - 1956,,,,,,,,,,,,,,,,
SA,Suburban,Cinema ,-34.967631,138.608863,25 Belair Road,5062,Kingswood,Vogue,Clifford Theatre Circuit,1486,,,,,,,,,1956 - 1957,1957 - 1958,1958 - 1959,1959 - 1960,1960 - 1961,1961 - 1962,1962 - 1963,1963 - 1964,1964 - 1965,1965 - 1966,1966 - 1967,,,,,
SA,Suburban,Cinema ,-34.967631,138.608863,25 Belair Road,5062,Kingswood,Vogue,Clifford Theatre Circuit,1443,,,,,,,,,,,,,,,,,,,,1968 - 1969,,,,
SA,Suburban,Cinema ,-34.967631,138.608863,25 Belair Road,5062,Kingswood,New Vogue,Clifford Theatre Circuit,667,,,,,,,,,,,,,,,,,,,,,1969 - 1970,1971,,
SA,Suburban,Cinema ,-34.875279,138.633070,Corner of OG Road and Main NE Road,5087,Klemzig,…,R. L. Hawkes & R. G. Wibey,200,,,,,,,,,,,1958 - 1959,1959 - 1960,1960 - 1961,,,,,,,,,,,
SA,Suburban,Cinema ,-34.875279,138.633070,Corner of OG Road and Main NE Road,5087,Klemzig,Institute,M. Matthews,…,,,,,,,,,,,,,,,,,,1965 - 1966,1966 - 1967,1968 - 1969,1969 - 1970,,,
SA,Suburban,Cinema ,-34.875279,138.633070,Corner of OG Road and Main NE Road,5087,Klemzig,Institute,M. Matthews,200,,,,,,,,,,,,,,,,,,,,,,1971,,
SA,Country/Rural,Cinema ,-35.330012,140.514972,63 Railway Terrace North,5302,Lameroo,Institute,W. V. Benbow,350,1948 - 1949,,,,,,,,,,,,,,,,,,,,,,,
SA,Country/Rural,Cinema ,-35.330012,140.514972,63 Railway Terrace North,5302,Lameroo,Institute,W. V. Benbow,310,,1949 - 1950,1950 - 1951,1951 - 1952,1952 - 1953,,,,,,,,,,,,,,,,,,,
SA,Country/Rural,Cinema ,-35.330012,140.514972,63 Railway Terrace North,5302,Lameroo,Institute,Benbow Amusements Ltd.,310,,,,,,1953 - 1954,1954 - 1955,1955 - 1956,,,,,,,,,,,,,,,,
SA,Country/Rural,Cinema ,-35.330012,140.514972,63 Railway Terrace North,5302,Lameroo,Institute,Benbow Amusements Ltd.,350,,,,,,,,,1956 - 1957,1957 - 1958,1958 - 1959,1959 - 1960,1960 - 1961,1961 - 1962,1962 - 1963,,,,,,,,,
SA,Country/Rural,Cinema ,-35.330012,140.514972,63 Railway Terrace North,5302,Lameroo,Hall,Benbow Amusements Ltd.,350,,,,,,,,,,,,,,,,1963 - 1964,1964 - 1965,1965 - 1966,1966 - 1967,,,,,
SA,Country/Rural,Cinema ,-35.330012,140.514972,63 Railway Terrace North,5302,Lameroo,Institute,…,498,,,,,,,,,,,,,,,,,,,,,,1971,,
SA,Country/Rural,Touring Circuit,-35.29625,139.037006,,5255,Langhorne Creek,A. H. Thomas,A. H. Thomas,200,,1949 - 1950,1950 - 1951,1951 - 1952, , , , , , ,,,,,,,,,,,,,,
SA,Country/Rural,Cinema ,-33.184982,138.300733,,5480,Laura,Institute,L. Lester,250,1948 - 1949,,,,,,,,,,,,,,,,,,,,,,,
SA,Country/Rural,Cinema ,-33.184982,138.300733,,5480,Laura,Institute,H. Lester,250,,1949 - 1950,1950 - 1951,1951 - 1952,1952 - 1953,,,,,,,,,,,,,,,,,,,
SA,Country/Rural,Cinema ,-33.184982,138.300733,,5480,Laura,Institute,Benbow Amusements Ltd.,250,,,,,,1953 - 1954,1954 - 1955,1955 - 1956,1956 - 1957,1957 - 1958,1958 - 1959,1959 - 1960,,,,,,,,,,,,
SA,Country/Rural,Cinema ,-30.596308,138.404454,,5731,Leigh Creek,Hall,S.A. Electricity Trust,250,,,1950 - 1951,1951 - 1952,1952 - 1953,1953 - 1954,1954 - 1955,1955 - 1956,1956 - 1957,1957 - 1958,,,,,,,,,,,,,,
SA,Country/Rural,Cinema ,-30.596308,138.404454,,5731,Leigh Creek,Hall,S.A. Electricity Trust,280,,,,,,,,,,,1958 - 1959,1959 - 1960,,,,,,,,,,,,
SA,Country/Rural,Cinema ,-30.596308,138.404454,,5731,Leigh Creek,Hall,Lee Creek Coal Fund,280,,,,,,,,,,,,,1960 - 1961,1961 - 1962,1962 - 1963,1963 - 1964,,,,,,,,
SA,Country/Rural,Cinema ,-30.596308,138.404454,,5731,Leigh Creek,Institute,Leigh Creek Coal Fund,280,,,,,,,,,,,,,,,,,1964 - 1965,1965 - 1966,1966 - 1967,,,,,
SA,Country/Rural,Cinema ,-30.596308,138.404454,,5731,Leigh Creek,Institute,Electricity Trust of SA,280,,,,,,,,,,,,,,,,,,,,1968 - 1969,1969 - 1970,1971,,
SA,Country/Rural,Touring Circuit,-35.048992,138.863223,,5250,Littlehampton,Town Hall Pics (A. H. Thomas),A. H. Thomas,200,,,1950 - 1951,1951 - 1952,1952 - 1953,1953 - 1954,1954 - 1955,1955 - 1956,1956 - 1957,1957 - 1958,1958 - 1959,,,,,,,,,,,,,
SA,Country/Rural,Cinema ,-34.90485,138.874319,,5241,Lobethal,Institute,W. V. Benbow,330,1948 - 1949,,,,,,,,,,,,,,,,,,,,,,,
SA,Country/Rural,Cinema ,-34.90485,138.874319,,5241,Lobethal,Institute,W. V. Benbow,440,,1949 - 1950,1950 - 1951,1951 - 1952,1952 - 1953,,,,,,,,,,,,,,,,,,,
SA,Country/Rural,Cinema ,-34.90485,138.874319,,5241,Lobethal,Institute,Benbow Amusements Ltd.,440,,,,,,1953 - 1954,1954 - 1955,1955 - 1956,,,,,,,,,,,,,,,,
SA,Country/Rural,Cinema ,-34.90485,138.874319,,5241,Lobethal,Institute,Benbow Amusements Ltd.,445,,,,,,,,,1956 - 1957,1957 - 1958,1958 - 1959,1959 - 1960,1960 - 1961,1961 - 1962,1962 - 1963,1963 - 1964,1964 - 1965,1965 - 1966,1966 - 1967,1968 - 1969,1969 - 1970,1971,,
SA,Country/Rural,Cinema ,-33.568193,135.757296,,5633,Lock,Institute,Secretary,…,,,,,,,1954 - 1955,1955 - 1956,,,,,,,,,,,,,,,,
SA,Country/Rural,Cinema ,-33.568193,135.757296,,5633,Lock,Institute,Secretary,185,,,,,,,,,1956 - 1957,1957 - 1958,1958 - 1959,1959 - 1960,1960 - 1961,1961 - 1962,1962 - 1963,1963 - 1964,1964 - 1965,1965 - 1966,1966 - 1967,,,,,
SA,Country/Rural,Cinema ,-33.568193,135.757296,,5633,Lock,Institute,Institute Pictures,185,,,,,,,,,,,,,,,,,,,,1968 - 1969,1969 - 1970,1971,,
SA,Suburban,Cinema ,-34.926563,138.539545,362 Henley Beach Road,5032,Lockleys,Soldiers' M. Hall,J. Dundas,350,1948 - 1949,,,,,,,,,,,,,,,,,,,,,,,
SA,Suburban,Cinema ,-34.926563,138.539545,362 Henley Beach Road,5032,Lockleys,Windsor,B. E. Cunnew & Sons,360,,1949 - 1950,1950 - 1951,1951 - 1952,1952 - 1953,1953 - 1954,1954 - 1955,1955 - 1956,,,,,,,,,,,,,,,,
SA,Suburban,Cinema ,-34.926563,138.539545,362 Henley Beach Road,5032,Lockleys,Windsor,B. E. Cunnew & Sons,350,,,,,,,,,1956 - 1957,1957 - 1958,,,,,,,,,,,,,,
SA,Suburban,Cinema ,-34.926563,138.539545,362 Henley Beach Road,5032,Lockleys,Windsor,B. E. Cunnew & Sons,450,,,,,,,,,,,1958 - 1959,,,,,,,,,,,,,
SA,Suburban,Cinema ,-34.926563,138.539545,362 Henley Beach Road,5032,Lockleys,Windsor,B. E. Cunnew & Sons,495,,,,,,,,,,,,1959 - 1960,1960 - 1961,1961 - 1962,1962 - 1963,,,,,,,,,
SA,Suburban,Cinema ,-34.926013,138.52957,,5032,Lockleys,Apollo,…,495,,,,,,,,,,,,,,,,,,,,,,1971,,
SA,Country/Rural,Drive-in,-34.459907,140.558754,Adelaide Road,5333,Loxton,Riverline,McKenzie Investments Ltd.,230,,,,,,,,,,,,,1960 - 1961,1961 - 1962,1962 - 1963,1963 - 1964,1964 - 1965,1965 - 1966,,,,,http://www.drive-insdownunder.com.au/australian/sa1.htm,
SA,Country/Rural,Drive-in,-34.459907,140.558754,Adelaide Road,5333,Loxton,Riverline,McKenzie Investments Ltd.,284,,,,,,,,,,,,,,,,,,,1966 - 1967,,,,http://www.drive-insdownunder.com.au/australian/sa1.htm,
SA,Country/Rural,Drive-in,-34.459907,140.558754,Adelaide Road,5333,Loxton,Riverline,McKenzie Investments Ltd.,285,,,,,,,,,,,,,,,,,,,,1968 - 1969,,,http://www.drive-insdownunder.com.au/australian/sa1.htm,
SA,Country/Rural,Drive-in,-34.459907,140.558754,Adelaide Road,5333,Loxton,Riverline,Riverline Drive-Ins,285,,,,,,,,,,,,,,,,,,,,,1969 - 1970,1971,http://www.drive-insdownunder.com.au/australian/sa1.htm,
SA,Country/Rural,Cinema ,-34.45152,140.570385,,5333,Loxton,Avon,Avon Theatres Ltd. ,380,,1949 - 1950,,,,,,,,,,,,,,,,,,,,,,
SA,Country/Rural,Cinema ,-34.45152,140.570385,,5333,Loxton,Avon,Avon Theatres Ltd. ,500,,,1950 - 1951,,,,,,,,,,,,,,,,,,,,,
SA,Country/Rural,Cinema ,-34.45152,140.570385,,5333,Loxton,Avon,Clifford Theatre Circuit,500,,,,1951 - 1952,1952 - 1953,,,,,,,,,,,,,,,,,,,
SA,Country/Rural,Cinema ,-34.45152,140.570385,,5333,Loxton,Avon Star,Clifford Theatre Circuit,500,,,,,,1953 - 1954,1954 - 1955,1955 - 1956,,,,,,,,,,,,,,,,
SA,Country/Rural,Cinema ,-34.45152,140.570385,,5333,Loxton,Avon Star,Clifford Theatre Circuit,386,,,,,,,,,1956 - 1957,1957 - 1958,1958 - 1959,1959 - 1960,1960 - 1961,1961 - 1962,1962 - 1963,1963 - 1964,,,,,,,,
SA,Country/Rural,Cinema ,-34.450907,140.570434,,5333,Loxton,Vogue,Williams & Harrison Pty. Ltd.,-,1948 - 1949,,,,,,,,,,,,,,,,,,,,,,,
SA,Country/Rural,Cinema ,-34.450387,140.570274,,5333,Loxton,Corona,H. O. Guest,500,1948 - 1949,,,,,,,,,,,,,,,,,,,,,,,
SA,Country/Rural,Cinema ,-36.972354,140.370085,,5272,Lucindale,Institute,"Chevron Cinemas, Robe",189,,1949 - 1950,1950 - 1951,1951 - 1952,1952 - 1953,1953 - 1954,1954 - 1955,1955 - 1956,1956 - 1957,1957 - 1958,,,,,,,,,,,,,,
SA,Country/Rural,Cinema ,-36.972354,140.370085,,5272,Lucindale,Institute,F. P. Squire,189,,,,,,,,,,,1958 - 1959,1959 - 1960,,,,,,,,,,,,
SA,Country/Rural,Cinema ,-36.972354,140.370085,,5272,Lucindale,Institute,Secretary,189,,,,,,,,,,,,,1960 - 1961,1961 - 1962,1962 - 1963,,,,,,,,,
SA,Country/Rural,Cinema ,-36.972354,140.370085,,5272,Lucindale,…,Secretary,189,,,,,,,,,,,,,,,,1963 - 1964,1964 - 1965,,,,,,,
SA,Country/Rural,Cinema ,-34.601155,138.890817,,5351,Lyndoch,Institute,J. A. Morcom,250,,1949 - 1950,1950 - 1951,1951 - 1952,1952 - 1953,1953 - 1954,1954 - 1955,1955 - 1956,1956 - 1957,1957 - 1958,,,,,,,,,,,,,,
SA,Country/Rural,Cinema ,-34.601155,138.890817,,5351,Lyndoch,Institute,J. A. Morcom,230,,,,,,,,,,,1958 - 1959,1959 - 1960,1960 - 1961,,,,,,,,,,,
SA,Country/Rural,Cinema ,-35.172701,138.836364,,5153,Macclesfield,Institute,Avon Theatres Ltd.,250,,1949 - 1950,1950 - 1951,1951 - 1952,1952 - 1953,1953 - 1954,1954 - 1955,1955 - 1956,1956 - 1957,1957 - 1958,,,,,,,,,,,,,,
SA,Country/Rural,Cinema ,-35.172701,138.836364,,5153,Macclesfield,Institute,Avon Theatres ,160,,,,,,,,,,,1958 - 1959,1959 - 1960,,,,,,,,,,,,
SA,Suburban,Cinema ,-34.912937,138.675239,609 Magill Road,5072,Magill,Institute,K. Gregory,300,1948 - 1949,1949 - 1950,1950 - 1951,1951 - 1952,1952 - 1953,1953 - 1954,1954 - 1955,1955 - 1956,,1957 - 1958,,,,,,,,,,,,,,
SA,Suburban,Cinema ,-34.912937,138.675239,609 Magill Road,5072,Magill,Institute,K. Gregory,250,,,,,,,,,,,1958 - 1959,1959 - 1960,1960 - 1961,,,,,,,,,,,
SA,Country/Rural,Cinema ,-34.374162,137.673247,,5573,Maitland,Institute,W. V. Benbow,300,1948 - 1949,,,,,,,,,,,,,,,,,,,,,,,
SA,Country/Rural,Cinema ,-34.374162,137.673247,,5573,Maitland,Institute,W. V. Benbow,234,,1949 - 1950,,,,,,,,,,,,,,,,,,,,,,
SA,Country/Rural,Cinema ,-34.374162,137.673247,,5573,Maitland,Institute,Secretary,234,,,1950 - 1951,1951 - 1952,1952 - 1953,1953 - 1954,1954 - 1955,1955 - 1956,,,,,,,,,,,,,,,,
SA,Country/Rural,Cinema ,-34.374162,137.673247,,5573,Maitland,Institute,Secretary,330,,,,,,,,,1956 - 1957,1957 - 1958,,,,,,,,,,,,,,
SA,Country/Rural,Cinema ,-34.374162,137.673247,,5573,Maitland,Institute,Maitland & District Comm. Scheme Inc.,330,,,,,,,,,,,1958 - 1959,1959 - 1960,1960 - 1961,1961 - 1962,,,,,,,,,,
SA,Country/Rural,Cinema ,-34.374162,137.673247,,5573,Maitland,Orana,Orana Theatre,330,,,,,,,,,,,,,,,1962 - 1963,1963 - 1964,1964 - 1965,1965 - 1966,1966 - 1967,,,,,
SA,Country/Rural,Cinema ,-34.374162,137.673247,,5573,Maitland,Institute,J. Harvey,…,,,,,,,,,,,,,,,,,,,,1968 - 1969,1969 - 1970,,,
SA,Country/Rural,Cinema ,-34.374162,137.673247,,5573,Maitland,Institute,J. Harvey,466,,,,,,,,,,,,,,,,,,,,,,1971,,
SA,Country/Rural,Cinema ,-34.438339,138.509869,,5502,Mallala,Institute,Avon Theatres Ltd.,250,,1949 - 1950,1950 - 1951,1951 - 1952,1952 - 1953,1953 - 1954,1954 - 1955,1955 - 1956,,,,,,,,,,,,,,,,
SA,Country/Rural,Cinema ,-34.438339,138.509869,,5502,Mallala,Institute,Avon Theatres Ltd.,300,,,,,,,,,1956 - 1957,1957 - 1958,,,,,,,,,,,,,,
SA,Country/Rural,Cinema ,-34.438339,138.509869,,5502,Mallala,Institute,Mallala Community Pics.,300,,,,,,,,,,,1958 - 1959,1959 - 1960,1960 - 1961,1961 - 1962,1962 - 1963,,,,,,,,,
SA,Country/Rural,Cinema ,-34.43719,138.509866,,5502,Mallala ,Cinema,B. Wisbey,…,,,,,,,,,,,,,,,,,,,,1968 - 1969,1969 - 1970,,,
SA,Country/Rural,Cinema ,-34.914381,139.311582,,5238,Mannum,Institute,W. V. Benbow,400,1948 - 1949,,,,,,,,,,,,,,,,,,,,,,,
SA,Country/Rural,Cinema ,-34.914381,139.311582,,5238,Mannum,Institute,W. V. Benbow,290,,1949 - 1950,,,,,,,,,,,,,,,,,,,,,,
SA,Country/Rural,Cinema ,-34.914381,139.311582,,5238,Mannum,Institute,W. V. Benbow,290,,,1950 - 1951,1951 - 1952,1952 - 1953,,,,,,,,,,,,,,,,,,,
SA,Country/Rural,Cinema ,-34.914381,139.311582,,5238,Mannum,Institute,Benbow Amusements Ltd.,290,,,,,,1953 - 1954,1954 - 1955,1955 - 1956,,,,,,,,,,,,,,,,
SA,Country/Rural,Cinema ,-34.914381,139.311582,,5238,Mannum,Institute,Benbow Amusements Ltd.,304,,,,,,,,,1956 - 1957,1957 - 1958,1958 - 1959,1959 - 1960,1960 - 1961,1961 - 1962,,,,,,,,,,
SA,Suburban,Drive-in,-34.850472,138.552085,Grand Junction Road,5012,Mansfield Park,Woodville North Starline,Field Park Investments Ltd,650 (seats 167),,,,,,,,,,,,1959 - 1960,1960 - 1961,1961 - 1962,1962 - 1963,1963 - 1964,1964 - 1965,1965 - 1966,1966 - 1967,1968 - 1969,1969 - 1970,,http://www.samemory.sa.gov.au/site/page.cfm?u=1292,
SA,Suburban,Drive-in,-34.850472,138.552085,Grand Junction Road,5012,Mansfield Park,Woodville North Starline,Woodville North Drive-In Pty. Ltd.,698,,,,,,,,,,,,,,,,,,,,,,1971,http://www.samemory.sa.gov.au/site/page.cfm?u=1292,
SA,Country/Rural,Cinema ,-30.159317,131.580884,,5710,Maralinga,Hall,British Defence Research & Supply Staff,…,,,,,,,,,,,,,,,,,,1965 - 1966,1966 - 1967,,,,,
SA,Suburban,Cinema ,-34.895230,138.641021,391 Payneham Road,5070,Marden,Masonic Hall,E. F. Rosewarne,300,1948 - 1949,1949 - 1950,1950 - 1951,,,,,,,,,,,,,,,,,,,,,
SA,Suburban,Cinema ,-35.015799,138.546264,Corner of Diagonal Road and Sturt Road,5043,Marion,Theatre Marion,Marion Shopping Centre,393,,,,,,,,,,,,,,,,,,,,1968 - 1969,1969 - 1970,1971,,
SA,Suburban,Drive-in,-34.995467,138.542209,Oaklands Road,5043,Marion,Metro,MGM Theatres Pty. Ltd.,800,,,,,,,,,,1957 - 1958,1958 - 1959,,,,,,,,,,,,http://www.samemory.sa.gov.au/site/page.cfm?u=1292,
SA,Suburban,Drive-in,-34.995467,138.542209,Oaklands Road,5043,Marion,Metro,MGM Theatres Pty. Ltd.,830,,,,,,,,,,,,1959 - 1960,1960 - 1961,1961 - 1962,1962 - 1963,1963 - 1964,1964 - 1965,1965 - 1966,1966 - 1967,1968 - 1969,1969 - 1970,,http://www.samemory.sa.gov.au/site/page.cfm?u=1292,
SA,Suburban,Cinema ,-34.995467,138.542209,Oaklands Road,5043,Marion,Metro,Goodwood Theatres Pty. Ltd.,831,,,,,,,,,,,,,,,,,,,,,,1971,http://www.samemory.sa.gov.au/site/page.cfm?u=1292,
SA,Suburban,Cinema ,-34.944390,138.571155,444 South Road,5033,Marleston,Soldiers' Mem. Hall,Lyric Theatres,300,1948 - 1949,,,,,,,,,,,,,,,,,,,,,,,
SA,Suburban,Cinema ,-34.944390,138.571155,444 South Road,5033,Marleston,Soldiers' Mem. Hall,Smith & Lane,300,,1949 - 1950,,,,,,,,,,,,,,,,,,,,,,
SA,Suburban,Cinema ,-34.944390,138.571155,444 South Road,5033,Marleston,Soldiers' Mem. Hall,Smith & Grace,300,,,1950 - 1951,1951 - 1952,1952 - 1953,,,,,,,,,,,,,,,,,,,
SA,Suburban,Cinema ,-34.944390,138.571155,444 South Road,5033,Marleston,Soldiers' Mem. Hall,H. M. Wallis,300,,,,,,1953 - 1954,1954 - 1955,1955 - 1956,1956 - 1957,1957 - 1958,,,,,,,,,,,,,,
SA,Suburban,Cinema ,-34.944390,138.571155,444 South Road,5033,Marleston,Soldiers' Mem. Hall,H. M. Wallis,350,,,,,,,,,,,1958 - 1959,,,,,,,,,,,,,
SA,Suburban,Cinema ,-34.944390,138.571155,444 South Road,5033,Marleston,Soldiers' Mem. Hall,Astra Theatres,350,,,,,,,,,,,,1959 - 1960,1960 - 1961,,,,,,,,,,,
SA,Country/Rural,Touring Circuit,-34.143606,138.877814,,5413,Marrabel,L. N. Mullens,L. N. Mullens,,,,,,,,,1955 - 1956,,,1958 - 1959,1959 - 1960, ,,,,,,,,,,,
SA,Suburban,Cinema ,-34.926229,138.651517,275 Kensington Road,5068,Marryatville,Ozone Marryatville,Ozone Theatres Ltd.,1264,1948 - 1949,1949 - 1950,1950 - 1951,,,,,,,,,,,,,,,,,,,,,
SA,Suburban,Cinema ,-34.926229,138.651517,275 Kensington Road,5068,Marryatville,Ozone Marryatville,Hoyts-Ozone Theatres,1264,,,,1951 - 1952,1952 - 1953,1953 - 1954,1954 - 1955,1955 - 1956,1956 - 1957,1957 - 1958,,,,,,,,,,,,,,
SA,Suburban,Cinema ,-34.926229,138.651517,275 Kensington Road,5068,Marryatville,Ozone Marryatville,Hoyts-Ozone Theatres,1100,,,,,,,,,,,1958 - 1959,1959 - 1960,1960 - 1961,1961 - 1962,1962 - 1963,1963 - 1964,1964 - 1965,1965 - 1966,1966 - 1967,,,,,
SA,Suburban,Cinema ,-34.926229,138.651517,275 Kensington Road,5068,Marryatville,Ozone Marryatville,Hoyts-Ozone Theatres,1116,,,,,,,,,,,,,,,,,,,,1968 - 1969,,,,
SA,Suburban,Cinema ,-34.926229,138.651517,275 Kensington Road,5068,Marryatville,Ozone Marryatville,Hoyts-Ozone Theatres,1194,,,,,,,,,,,,,,,,,,,,,1969 - 1970,,,
SA,Suburban,Cinema ,-34.926229,138.651517,275 Kensington Road,5068,Marryatville,Ozone Marryatville,Hoyts-Ozone Theatres,1486,,,,,,,,,,,,,,,,,,,,,,1971,,
SA,Country/Rural,Touring Circuit,-35.206606,138.58898,,5171,McLaren Flat,L. Hailstone,L. Hailstone,200,,1949 - 1950,1950 - 1951,1951 - 1952,1952 - 1953,1953 - 1954,1954 - 1955,1955 - 1956,1956 - 1957,1957 - 1958,1958 - 1959,1959 - 1960,1960 - 1961,,,,,,,,,,,
SA,Country/Rural,Touring Circuit,-35.21929,138.543706,,5171,McLaren Vale,L. Hailstone,L. Hailstone,200,,,,,,,,,1956 - 1957,1957 - 1958,1958 - 1959,1959 - 1960,1960 - 1961,,,,,,,,,,,
SA,Country/Rural,Cinema ,-35.217598,138.541144,,5171,McLaren Vale,Institute,F. V. Roe,250,1948 - 1949,,,,,,,,,,,,,,,,,,,,,,,
SA,Country/Rural,Cinema ,-35.217598,138.541144,,5171,McLaren Vale,Institute,Hailstone Bros.,250,,1949 - 1950,1950 - 1951,,,,,,,,,,,,,,,,,,,,,
SA,Country/Rural,Cinema ,-35.217598,138.541144,,5171,McLaren Vale,Institute,L. Hailstone,250,,,,1951 - 1952,1952 - 1953,1953 - 1954,1954 - 1955,1955 - 1956,1956 - 1957,1957 - 1958,,,,,,,,,,,,,,
SA,Country/Rural,Cinema ,-35.217598,138.541144,,5171,McLaren Vale,Institute,L. Hailstone,202,,,,,,,,,,,,,,,,1963 - 1964,1964 - 1965,,,,,,,
SA,Country/Rural,Touring Circuit,-35.180594,138.763304,,5201,Meadows,Town Hall Pics (A. H. Thomas),A. H. Thomas,300,,1949 - 1950,1950 - 1951,1951 - 1952,1952 - 1953,1953 - 1954,1954 - 1955,1955 - 1956,1956 - 1957,1957 - 1958,1958 - 1959,1959 - 1960,,,,,,,,,,,,
SA,Country/Rural,Touring Circuit,-32.827193,138.187957,,5483,Melrose,"Benbow Amusements Ltd., 221 Pirie Street, Adelaide",Benbow Amusements Ltd.,198,,1949 - 1950,,1951 - 1952,1952 - 1953,1953 - 1954,1954 - 1955,1955 - 1956,1956 - 1957,1957 - 1958,1958 - 1959,1959 - 1960,,,,,,,,,,,,
SA,Country/Rural,Cinema ,-32.825543,138.18763,,5483,Melrose,Institute,Secretary,198,,,,,,,,,,,,,1960 - 1961,1961 - 1962,,,,,,,,,,
SA,Country/Rural,Cinema ,-32.825543,138.18763,,5483,Melrose,Institute,F. C. Blieschke,198,,,,,,,,,,,,,,,1962 - 1963,,,,,,,,,
SA,Country/Rural,Touring Circuit,-35.686529,139.338683,,5264,Meningie,Town Hall Pics (A. H. Thomas),A. H. Thomas,200,,1949 - 1950,1950 - 1951,1951 - 1952,1952 - 1953,1953 - 1954,1954 - 1955,1955 - 1956,1956 - 1957,1957 - 1958,1958 - 1959,1959 - 1960,1960 - 1961,,,,,,,,,,,
SA,Country/Rural,Touring Circuit,-35.4047,138.968655,,5256,Milang,Town Hall Pics (A. H. Thomas),A. H. Thomas,200,,,1950 - 1951,1951 - 1952,1952 - 1953,1953 - 1954,1954 - 1955,1955 - 1956,1956 - 1957,1957 - 1958,1958 - 1959,,,,,,,,,,,,,
SA,Suburban,Cinema ,-34.923951,138.567413,107b Henley Beach Road,5031,Mile End,Torrensville Plaza,Clifford Theatre Circuit,1022,1948 - 1949,1949 - 1950,1950 - 1951,1951 - 1952,1952 - 1953,1953 - 1954,1954 - 1955,1955 - 1956,1956 - 1957,1957 - 1958,1958 - 1959,,,,,,,,,,,,,
SA,Country/Rural,Cinema ,-37.594943,140.353698,,5280,Millicent,Institute,C. Willshire,350,1948 - 1949,1949 - 1950,1950 - 1951,1951 - 1952,1952 - 1953,1953 - 1954,1954 - 1955,1955 - 1956,1956 - 1957,1957 - 1958,1958 - 1959,1959 - 1960,1960 - 1961,,,,,,,,,,,
SA,Country/Rural,Cinema ,-37.594943,140.353698,,5280,Millicent,Globe,C. Willshire,350,,,,,,,,,,,,,,1961 - 1962,,,,,,,,,,
SA,Country/Rural,Cinema ,-37.594943,140.353698,,5280,Millicent,Civic,C. Willshire,350,,,,,,,,,,,,,,,1962 - 1963,1963 - 1964,,,,,,,,
SA,Country/Rural,Drive-in,-37.594508,140.340517,,5280,Millicent,Glen-Vu,Glen-Vu Drive-In Theatres Ltd.,320,,,,,,,,,,,,,1960 - 1961,1961 - 1962,1962 - 1963,1963 - 1964,1964 - 1965,,,,,,,
SA,Country/Rural,Drive-in,-37.594508,140.340517,,5280,Millicent,Glen-Vu,Chevron Cinema Services,320,,,,,,,,,,,,,,,,,,1965 - 1966,1966 - 1967,1968 - 1969,1969 - 1970,1971,,
SA,Country/Rural,Cinema ,-34.772333,-34.772333,,5575,Minlaton,Parish Hall,Benbow Amusements Ltd.,260,,,,1951 - 1952,1952 - 1953,1953 - 1954,1954 - 1955,1955 - 1956,1956 - 1957,1957 - 1958,,,,,,,,,,,,,,
SA,Country/Rural,Cinema ,-34.772333,-34.772333,,5575,Minlaton,Parish Hall,Benbow Amusements Ltd.,300,,,,,,,,,,,1958 - 1959,,,,,,,,,,,,,
SA,Country/Rural,Cinema ,-34.772333,137.595888,,5575,Minlaton,Parish Hall,Benbow Amusements,260,,1949 - 1950,1950 - 1951,,,,,,,,,,,,,,,,,,,,,
SA,Country/Rural,Cinema ,-34.769977,137.595859,,5575,Minlaton,Institute,W. V. Benbow,300,1948 - 1949,,,,,,,,,,,,,,,,,,,,,,,
SA,Country/Rural,Cinema ,-34.769977,137.595859,,5575,Minlaton,Institute,Secretary,390,,1949 - 1950,1950 - 1951,1951 - 1952,1952 - 1953,1953 - 1954,1954 - 1955,1955 - 1956,,,,,,,,,,,,,,,,
SA,Country/Rural,Cinema ,-34.769977,137.595859,,5575,Minlaton,Institute,Secretary,434,,,,,,,,,1956 - 1957,1957 - 1958,,,,,,,,,,,,,,
SA,Country/Rural,Cinema ,-34.769977,137.595859,,5575,Minlaton,Town Hall,Minlaton Comm. Centre,350,,,,,,,,,,,1958 - 1959,1959 - 1960,,,,,,,,,,,,
SA,Country/Rural,Cinema ,-34.769977,137.595859,,5575,Minlaton,Town Hall,Minlaton Comm. Centre,359,,,,,,,,,,,,,1960 - 1961,1961 - 1962,1962 - 1963,1963 - 1964,1964 - 1965,1965 - 1966,1966 - 1967,1968 - 1969,1969 - 1970,,,
SA,Country/Rural,Cinema ,-34.769977,137.595859,,5575,Minlaton,Town Hall,Minlaton Comm. Centre,459,,,,,,,,,,,,,,,,,,,,,,1971,,
SA,Country/Rural,Cinema ,-32.857851,135.155567,,5654,Minnipa,Pictures,Boswell Black,-,1948 - 1949,,,,,,,,,,,,,,,,,,,,,,,
SA,Country/Rural,Cinema ,-32.857851,135.155567,,5654,Minnipa,Institute,Secretary,120,,1949 - 1950,1950 - 1951,1951 - 1952,1952 - 1953,1953 - 1954,1954 - 1955,1955 - 1956,1956 - 1957,1957 - 1958,,,,,,,,,,,,,,
SA,Country/Rural,Cinema ,-32.857851,135.155567,,5654,Minnipa,Institute,Minnipa Institute,140,,,,,,,,,,,1958 - 1959,1959 - 1960,,,,,,,,,,,,
SA,Country/Rural,Cinema ,-32.857851,135.155567,,5654,Minnipa,Institute,Minnipa Institute Victory Pics,140,,,,,,,,,,,,,1960 - 1961,1961 - 1962,1962 - 1963,1963 - 1964,1964 - 1965,1965 - 1966,1966 - 1967,1968 - 1969,1969 - 1970,1971,,
SA,Country/Rural,Touring Circuit,-33.9168,138.723918,,5415,Mintaro,L. N. Mullens,L. N. Mullens,200,, ,1950 - 1951,1951 - 1952,,,,,,,,,,,,,,,,,,,,
SA,Suburban,Cinema ,-34.977003,138.620178,103 Princes Road,5062,Mitcham,Institute,Mrs. H. Goodfellow,280,1948 - 1949,1949 - 1950,1950 - 1951,1951 - 1952,,,,,,,,,,,,,,,,,,,,
SA,Suburban,Drive-in,-35.01506,138.558895,Marion Road,5043,Mitchell Park,Parkline,Parkline Dive-In Theatre Ltd.,400,,,,,,,,,,,,,,,,,1964 - 1965,1965 - 1966,1966 - 1967,,,,http://www.samemory.sa.gov.au/site/page.cfm?u=1292,
SA,Suburban,Drive-in,-35.01506,138.558895,Marion Road,5043,Mitchell Park,Parkline,Parkline Dive-In Theatre Ltd.,504,,,,,,,,,,,,,,,,,,,,1968 - 1969,1969 - 1970,1971,http://www.samemory.sa.gov.au/site/page.cfm?u=1292,
SA,Suburban,Drive-in,-34.828257,138.706871,Tolley Road,5092,Modbury,Valleyline,Valleyline Drive-In Theatre Pty. Ltd.,…,,,,,,,,,,,,,,,,,1964 - 1965,,,,,,http://www.samemory.sa.gov.au/site/page.cfm?u=1292,
SA,Suburban,Drive-in,-34.828257,138.706871,Tolley Road,5092,Modbury,Valleyline,Valleyline Drive-In Theatre Pty. Ltd.,340,,,,,,,,,,,,,,,,,,1965 - 1966,,,,,http://www.samemory.sa.gov.au/site/page.cfm?u=1292,
SA,Suburban,Drive-in,-34.828257,138.706871,Tolley Road,5092,Modbury,Valleyline,Valleyline Drive-In Theatre Pty. Ltd.,383,,,,,,,,,,,,,,,,,,,1966 - 1967,1968 - 1969,1969 - 1970,1971,http://www.samemory.sa.gov.au/site/page.cfm?u=1292,
SA,Country/Rural,Cinema ,-34.0686198,137.5918907,,5558,Moonta,Town Hall,National Pictures,580,1948 - 1949,1949 - 1950,1950 - 1951,1951 - 1952,1952 - 1953,1953 - 1954,1954 - 1955,1955 - 1956,1956 - 1957,1957 - 1958,,,,,,,,,,,,,,
SA,Country/Rural,Cinema ,-34.0686198,137.5918907,,5558,Moonta,Town Hall,National Pictures,588,,,,,,,,,,,1958 - 1959,1959 - 1960,1960 - 1961,1961 - 1962,1962 - 1963,1963 - 1964,1964 - 1965,1965 - 1966,1966 - 1967,,,,,
SA,Country/Rural,Cinema ,-34.277821,140.347335,,5332,Moorook,Institute,L. R. Appleton Theatres,120,1948 - 1949,1949 - 1950,,,,,,,,,,,,,,,,,,,,,,
SA,Country/Rural,Cinema ,-34.033333,139.666667,,5320,Morgan,Institute,J. Lewis,200,1948 - 1949,1949 - 1950,,,,,,,,,,,,,,,,,,,,,,
SA,Country/Rural,Touring Circuit,-34.033333,139.666667,,5320,Morgan,L. N. Mullens,L. N. Mullens,,,,,,,,,,,,1958 - 1959,,1960 - 1961,1961 - 1962,,,,,,,,,,
SA,Country/Rural,Cinema ,-34.033333,139.666667,,5320,Morgan,Institute,L. Mullins,250,,,,,,,,,,,,,,,1962 - 1963,1963 - 1964,,,,,,,,
SA,Suburban,Cinema ,-35.120585,138.523625,,5162,Morphett Vale,Institute,D. Gliddon,240,,1949 - 1950,1950 - 1951,1951 - 1952,,,,,,,,,,,,,,,,,,,,
SA,Suburban,Cinema ,-35.120585,138.523625,,5162,Morphett Vale,Institute,"H.M. Wallis (136 South Road, Richmond)",150,,,,,,1953 - 1954,1954 - 1955,1955 - 1956,1956 - 1957,1957 - 1958,,,,,,,,,,,,,,
SA,Country/Rural,Cinema ,-35.0672411,138.8587342,,5251,Mount Barker,Acme,Daniel Bros.,300,1948 - 1949,1949 - 1950,,,,,,,,,,,,,,,,,,,,,,
SA,Country/Rural,Cinema ,-35.0672411,138.8587342,,5251,Mount Barker,Institute,Daniel Bros.,300,,,1950 - 1951,1951 - 1952,1952 - 1953,,,,,,,,,,,,,,,,,,,
SA,Country/Rural,Cinema ,-35.0672411,138.8587342,,5251,Mount Barker,Institute,D. & F. Daniel,300,,,,,,1953 - 1954,1954 - 1955,1955 - 1956,1956 - 1957,1957 - 1958,1958 - 1959,1959 - 1960,,,,,,,,,,,,
SA,Country/Rural,Cinema ,-35.0672411,138.8587342,,5251,Mount Barker,Institute,Secretary,300,,,,,,,,,,,,,1960 - 1961,,,,,,,,,,,
SA,Country/Rural,Cinema ,-35.0672411,138.8587342,,5251,Mount Barker,Institute,Mount Barker Community Theatre,300,,,,,,,,,,,,,,1961 - 1962,1962 - 1963,1963 - 1964,1964 - 1965,1965 - 1966,1966 - 1967,1968 - 1969,,,,
SA,Country/Rural,Cinema ,-35.0672411,138.8587342,,5251,Mount Barker,Institute,A. Shepherd,300,,,,,,,,,,,,,,,,,,,,,1969 - 1970,,,
SA,Country/Rural,Cinema ,-35.0672411,138.8587342,,5251,Mount Barker,Institute,A. Shepherd,260,,,,,,,,,,,,,,,,,,,,,,1971,,
SA,Country/Rural,Cinema ,-37.541835,140.456608,,5279,Mount Burr,Institute,C. Willshire,260,1948 - 1949,,,,,,,,,,,,,,,,,,,,,,,
SA,Country/Rural,Cinema ,-37.541835,140.456608,,5279,Mount Burr,Institute,C. Willshire,150,,1949 - 1950,1950 - 1951,1951 - 1952,1952 - 1953,1953 - 1954,1954 - 1955,1955 - 1956,1956 - 1957,1957 - 1958,,,,,,,,,,,,,,
SA,Country/Rural,Cinema ,-37.541835,140.456608,,5279,Mount Burr,Institute,C. Willshire,200,,,,,,,,,,,1958 - 1959,1959 - 1960,,,,,,,,,,,,
SA,Country/Rural,Cinema ,-37.828719,140.781004,10 Commercial Street East,5290,Mount Gambier,Ozone,Ozone Theatres Ltd.,774,1948 - 1949,1949 - 1950,1950 - 1951,,,,,,,,,,,,,,,,,,,,http://www.pictureaustralia.org/apps/pictureaustralia?action=PADisplay&mode=display&rs=resultset-2195223&no=1,
SA,Country/Rural,Cinema ,-37.828719,140.781004,10 Commercial Street East,5290,Mount Gambier,Ozone,Ozone Theatres (Aust.) Ltd.,774,,,,1951 - 1952,1952 - 1953,,,,,,,,,,,,,,,,,,http://www.pictureaustralia.org/apps/pictureaustralia?action=PADisplay&mode=display&rs=resultset-2195223&no=1,
SA,Country/Rural,Cinema ,-37.828719,140.781004,10 Commercial Street East,5290,Mount Gambier,Kings,D. Clifford Amusements (Mount Gambier) Ltd.,774,,,,,,1953 - 1954,1954 - 1955,1955 - 1956,1956 - 1957,1957 - 1958,,,,,,,,,,,,,http://www.pictureaustralia.org/apps/pictureaustralia?action=PADisplay&mode=display&rs=resultset-2195223&no=1,
SA,Country/Rural,Cinema ,-37.828719,140.781004,10 Commercial Street East,5290,Mount Gambier,Kings,South East Thrs. Ltd.,846,,,,,,,,,,,1958 - 1959,1959 - 1960,1960 - 1961,1961 - 1962,,,,,,,,,http://www.pictureaustralia.org/apps/pictureaustralia?action=PADisplay&mode=display&rs=resultset-2195223&no=1,
SA,Country/Rural,Cinema ,-37.828719,140.781004,10 Commercial Street East,5290,Mount Gambier,Kings,Brighton Investments Ltd.,846,,,,,,,,,,,,,,,1962 - 1963,1963 - 1964,1964 - 1965,,,,,,http://www.pictureaustralia.org/apps/pictureaustralia?action=PADisplay&mode=display&rs=resultset-2195223&no=1,
SA,Country/Rural,Drive-in,-37.814929,140.793586,Starline Place/Wireless Road East,5290,Mount Gambier,Starline,D. Clifford Amusements (Mount Gambier) Ltd.,350,,,,,,,,,,,,1959 - 1960,,,,,,,,,,,,
SA,Country/Rural,Drive-in,-37.814929,140.793586,Starline Place/Wireless Road East,5290,Mount Gambier,Starline,D. Clifford Amusements (Mount Gambier) Ltd.,400,,,,,,,,,,,,,1960 - 1961,1961 - 1962,1962 - 1963,1963 - 1964,1964 - 1965,1965 - 1966,1966 - 1967,,,,,
SA,Country/Rural,Drive-in,-37.814929,140.793586,Starline Place/Wireless Road East,5290,Mount Gambier,Starline,D. Clifford Amusements (Mount Gambier) Ltd.,528,,,,,,,,,,,,,,,,,,,,1968 - 1969,1969 - 1970,1971,,
SA,Country/Rural,Cinema ,-37.82728,140.776792,103 Commercial Street,5290,Mount Gambler,Capitol,D. Clifford Amusements (Mount Gambier) Ltd.,1774,1948 - 1949,1949 - 1950,1950 - 1951,1951 - 1952,1952 - 1953,1953 - 1954,1954 - 1955,,,,,,,,,,,,,,,, ,
SA,Country/Rural,Cinema ,-37.82728,140.776792,103 Commercial Street,5290,Mount Gambler,Odeon,D. Clifford Amusements (Mount Gambier) Ltd.,1774,,,,,,,,1955 - 1956,,,,,,,,,,,,,,,http://www.pictureaustralia.org/apps/pictureaustralia;jsessionid=AAF2DFDF7B21E686A722C8720CC846BF?action=PADisplay&mode=display&rs=resultset-2194766&no=2,
SA,Country/Rural,Cinema ,-37.82728,140.776792,103 Commercial Street,5290,Mount Gambler,Odeon,D. Clifford Amusements (Mount Gambier) Ltd.,1563,,,,,,,,,1956 - 1957,1957 - 1958,,,,,,,,,,,,,http://www.pictureaustralia.org/apps/pictureaustralia;jsessionid=AAF2DFDF7B21E686A722C8720CC846BF?action=PADisplay&mode=display&rs=resultset-2194766&no=2,
SA,Country/Rural,Cinema ,-37.82728,140.776792,103 Commercial Street,5290,Mount Gambler,Odeon-Star,Clifford Theatre Circuit,1563,,,,,,,,,,,1958 - 1959,1959 - 1960,1960 - 1961,1961 - 1962,1962 - 1963,,,,,,,,http://www.pictureaustralia.org/apps/pictureaustralia;jsessionid=AAF2DFDF7B21E686A722C8720CC846BF?action=PADisplay&mode=display&rs=resultset-2194766&no=2,
SA,Country/Rural,Cinema ,-37.82728,140.776792,103 Commercial Street,5290,Mount Gambler,Odeon-Star,D. Clifford Amusements Ltd.,1563,,,,,,,,,,,,,,,,1963 - 1964,1964 - 1965,1965 - 1966,1966 - 1967,,,,http://www.pictureaustralia.org/apps/pictureaustralia;jsessionid=AAF2DFDF7B21E686A722C8720CC846BF?action=PADisplay&mode=display&rs=resultset-2194766&no=2,
SA,Country/Rural,Cinema ,-37.82728,140.776792,103 Commercial Street,5290,Mount Gambler,Odeon,Clifford Theatre Circuit,1692,,,,,,,,,,,,,,,,,,,,1968 - 1969,1969 - 1970,1971,http://www.pictureaustralia.org/apps/pictureaustralia;jsessionid=AAF2DFDF7B21E686A722C8720CC846BF?action=PADisplay&mode=display&rs=resultset-2194766&no=2,
SA,Country/Rural,Cinema ,-34.774825,139.049962,,5235,Mount Pleasant,Institute,W. V. Benbow,300,1948 - 1949,,,,,,,,,,,,,,,,,,,,,,,
SA,Country/Rural,Cinema ,-34.774825,139.049962,,5235,Mount Pleasant,Institute,W. V. Benbow,380,,1949 - 1950,1950 - 1951,1951 - 1952,1952 - 1953,1953 - 1954,,,,,,,,,,,,,,,,,,
SA,Country/Rural,Cinema ,-34.774825,139.049962,,5235,Mount Pleasant,Institute,Benbow Amusements Ltd.,380,,,,,,,1954 - 1955,1955 - 1956,,,,,,,,,,,,,,,,
SA,Country/Rural,Cinema ,-34.774825,139.049962,,5235,Mount Pleasant,Institute,Benbow Amusements Ltd.,332,,,,,,,,,1956 - 1957,1957 - 1958,1958 - 1959,1959 - 1960,1960 - 1961,1961 - 1962,,,,,,,,,,
SA,Country/Rural,Drive-in,-35.149326,139.284569,Swanport Road,5253,Murray Bridge,Riverview,Murray Bridge Drive-In Theatres Ltd.,320,,,,,,,,,,,,1959 - 1960,1960 - 1961,,,,,,,,,,http://www.drive-insdownunder.com.au/australian/sa1.htm,
SA,Country/Rural,Drive-in,-35.149326,139.284569,Swanport Road,5253,Murray Bridge,Riverview,R. W. Denison,320,,,,,,,,,,,,,,1961 - 1962,1962 - 1963,1963 - 1964,1964 - 1965,1965 - 1966,1966 - 1967,1968 - 1969,1969 - 1970,1971,http://www.drive-insdownunder.com.au/australian/sa1.htm,
SA,Country/Rural,Cinema ,-35.12013,139.273952,,5253,Murray Bridge,Ozone,Ozone Theatres Ltd.,963,1948 - 1949,1949 - 1950,1950 - 1951,,,,,,,,,,,,,,,,,,,,,
SA,Country/Rural,Cinema ,-35.12013,139.273952,,5253,Murray Bridge,Ozone,Hoyts-Ozone Theatres,963,,,,1951 - 1952,1952 - 1953,1953 - 1954,1954 - 1955,1955 - 1956,,,,,,,,,,,,,,,,
SA,Country/Rural,Cinema ,-35.12013,139.273952,,5253,Murray Bridge,Ozone,Hoyts-Ozone Theatres,812,,,,,,,,,1956 - 1957,1957 - 1958,1958 - 1959,1959 - 1960,1960 - 1961,1961 - 1962,1962 - 1963,1963 - 1964,1964 - 1965,1965 - 1966,1966 - 1967,,,,,
SA,Country/Rural,Cinema ,-35.043493,138.759921,,5153,Mylor,Institute,H. & N. Eustis,190,,1949 - 1950,1950 - 1951,1951 - 1952,1952 - 1953,1953 - 1954,1954 - 1955,1955 - 1956,1956 - 1957,1957 - 1958,1958 - 1959,1959 - 1960,,,,,,,,,,,,
SA,Country/Rural,Touring Circuit,-35.393279,138.461881,,5202,Myponga,L. Hailstone,L. Hailstone,200,,1949 - 1950,1950 - 1951,1951 - 1952,1952 - 1953,1953 - 1954,1954 - 1955,1955 - 1956,1956 - 1957,1957 - 1958,1958 - 1959,1959 - 1960,1960 - 1961,,,,,,,,,,,
SA,Country/Rural,Cinema ,-35.392018,138.46302,,5202,Myponga,Institute,D. J. Caffery,200,1948 - 1949,,,,,,,,,,,,,,,,,,,,,,,
SA,Suburban,Cinema ,-34.880793,138.602565,189 Main North Road,5083,Nailsworth,Ozone Enfield,Ozone Theatres Pty. Ltd.,1810,1948 - 1949,1949 - 1950,1950 - 1951,,,,,,,,,,,,,,,,,,,,,
SA,Suburban,Cinema ,-34.880793,138.602565,189 Main North Road,5083,Nailsworth,Ozone Enfield,Hoyts-Ozone Theatres,1810,,,,1951 - 1952,1952 - 1953,1953 - 1954,1954 - 1955,1955 - 1956,,,,,,,,,,,,,,,,
SA,Suburban,Cinema ,-34.880793,138.602565,189 Main North Road,5083,Nailsworth,Ozone Enfield,Hoyts-Ozone Theatres,1628,,,,,,,,,1956 - 1957,1957 - 1958,,,,,,,,,,,,,,
SA,Suburban,Cinema ,-34.880793,138.602565,189 Main North Road,5083,Nailsworth,Ozone Enfield,Hoyts-Ozone Theatres,1604,,,,,,,,,,,1958 - 1959,1959 - 1960,1960 - 1961,1961 - 1962,1962 - 1963,1963 - 1964,1964 - 1965,1965 - 1966,1966 - 1967,,,,,
SA,Country/Rural,Cinema ,-35.037015,138.914059,,5252,Nairne,Institute,Preiss Bros.,150,1948 - 1949,1949 - 1950,,,,,,,,,,,,,,,,,,,,,,
SA,Country/Rural,Cinema ,-35.037015,138.914059,,5252,Nairne,Institute,J. Miller,150,,,1950 - 1951,1951 - 1952,1952 - 1953,1953 - 1954,1954 - 1955,1955 - 1956,1956 - 1957,1957 - 1958,,,,,,,,,,,,,,
SA,Country/Rural,Cinema ,-35.037015,138.914059,,5252,Nairne,Soldiers' Memorial Hall,J. Miller,189,,,,,,,,,,,1958 - 1959,1959 - 1960,,,,,,,,,,,,
SA,Country/Rural,Cinema ,-37.54332,140.81473,,5277,Nangwarry,Memorial Hall,"Chevron Cinemas, Robe",300,,1949 - 1950,1950 - 1951,1951 - 1952,1952 - 1953,1953 - 1954,1954 - 1955,1955 - 1956,1956 - 1957,1957 - 1958,,,,,,,,,,,,,,
SA,Country/Rural,Cinema ,-37.54332,140.81473,,5277,Nangwarry,Memorial Hall,F. P. Squire,300,,,,,,,,,,,1958 - 1959,1959 - 1960,1960 - 1961,,,,,,,,,,,
SA,Country/Rural,Cinema ,-37.54332,140.81473,,5277,Nangwarry,Institute,Chevron Cinemas,300,,,,,,,,,,,,,,1961 - 1962,1962 - 1963,1963 - 1964,1964 - 1965,,,,,,,
SA,Country/Rural,Drive-in,-36.962107,140.749405,,5271,Naracoorte,Cloudland,The Cloudline Drive-In Theatres Ltd.,220,,,,,,,,,,,,,1960 - 1961,1961 - 1962,1962 - 1963,1963 - 1964,1964 - 1965,1965 - 1966,1966 - 1967,,,,,
SA,Country/Rural,Drive-in,-36.962107,140.749405,,5271,Naracoorte,Cloudland,The Cloudline Drive-In Theatres Ltd.,384,,,,,,,,,,,,,,,,,,,,1968 - 1969,1969 - 1970,1971,,
SA,Country/Rural,Cinema ,-36.9550218,140.7430918,,5271,Naracoorte,Austral,A. G. Harrison & C. R. Baillie,980,1948 - 1949,,1950 - 1951,,,,,,,,,,,,,,,,,,,,,
SA,Country/Rural,Cinema ,-36.9550218,140.7430918,,5271,Naracoorte,Rivoli,A. G. Harrison & C. R. Baillie,980,,1949 - 1950,,,,,,,,,,,,,,,,,,,,,,
SA,Country/Rural,Cinema ,-36.9550218,140.7430918,,5271,Naracoorte,Rivoli,Rivoli Theatre Syndicate,980,,,,1951 - 1952,1952 - 1953,1953 - 1954,1954 - 1955,1955 - 1956,1956 - 1957,1957 - 1958,,,,,,,,,,,,,,
SA,Country/Rural,Cinema ,-36.9550218,140.7430918,,5271,Naracoorte,Rivoli,Rivoli Theatre Syndicate,921,,,,,,,,,,,1958 - 1959,1959 - 1960,1960 - 1961,1961 - 1962,1962 - 1963,,,,,,,,,
SA,Country/Rural,Cinema ,-36.9550218,140.7430918,,5271,Naracoorte,Rivoli,L. G. Murphy,921,,,,,,,,,,,,,,,,1963 - 1964,1964 - 1965,,,,,,,
SA,Country/Rural,Touring Circuit,-35.518365,139.174049,,5259,Narrung,A. H. Thomas,A. H. Thomas,200,,1949 - 1950,1950 - 1951, , , , , ,1956 - 1957,1957 - 1958,,,,,,,,,,,,,,
SA,Suburban,Cinema ,-34.903002,138.594632,181 O'Connell Street,5006,North Adelaide,Piccadilly,Clifford Theatre Circuit,1437,1948 - 1949,1949 - 1950,1950 - 1951,1951 - 1952,1952 - 1953,1953 - 1954,1954 - 1955,1955 - 1956,,,,,,,,,,,,,,,,
SA,Suburban,Cinema ,-34.903002,138.594632,181 O'Connell Street,5006,North Adelaide,Piccadilly,Clifford Theatre Circuit,1429,,,,,,,,,1956 - 1957,1957 - 1958,1958 - 1959,1959 - 1960,1960 - 1961,1961 - 1962,1962 - 1963,1963 - 1964,1964 - 1965,1965 - 1966,,,,,,
SA,Suburban,Cinema ,-34.903002,138.594632,181 O'Connell Street,5006,North Adelaide,Forum,Clifford Theatre Circuit,906,,,,,,,,,,,,,,,,,,,1966 - 1967,,,,,
SA,Suburban,Cinema ,-34.903002,138.594632,181 O'Connell Street,5006,North Adelaide,Forum,Clifford Theatre Circuit,1418,,,,,,,,,,,,,,,,,,,,1968 - 1969,,,,
SA,Suburban,Cinema ,-34.903002,138.594632,181 O'Connell Street,5006,North Adelaide,Forum,Clifford Theatre Circuit,914,,,,,,,,,,,,,,,,,,,,,1969 - 1970,1971,,
SA,Suburban,Cinema ,-34.921242,138.638426,Corner of Queen Street and The Parade,5067,Norwood,Star,Clifford Theatre Circuit,1655,1948 - 1949,1949 - 1950,1950 - 1951,,,,,,,,,,,,,,,,,,,,,
SA,Suburban,Cinema ,-34.921242,138.638426,Corner of Queen Street and The Parade,5067,Norwood,Star,Clifford Theatre Circuit,1667,,,,1951 - 1952,1952 - 1953,1953 - 1954,1954 - 1955,,,,,,,,,,,,,,,,,
SA,Suburban,Cinema ,-34.921242,138.638426,Corner of Queen Street and The Parade,5067,Norwood,Odeon,Clifford Theatre Circuit,1667,,,,,,,,1955 - 1956,,,,,,,,,,,,,,,,
SA,Suburban,Cinema ,-34.921242,138.638426,Corner of Queen Street and The Parade,5067,Norwood,Odeon,Clifford Theatre Circuit,1380,,,,,,,,,1956 - 1957,1957 - 1958,1958 - 1959,1959 - 1960,1960 - 1961,1961 - 1962,1962 - 1963,,,,,,,,,
SA,Suburban,Cinema ,-34.921242,138.638426,Corner of Queen Street and The Parade,5067,Norwood,Odeon-Star,Clifford Theatre Circuit,1380,,,,,,,,,,,,,,,,1963 - 1964,1964 - 1965,1965 - 1966,1966 - 1967,,,,,
SA,Suburban,Cinema ,-34.920754,138.636525,175 The Parade,5067,Norwood,Town Hall,Clifford Theatre Circuit,1201,1948 - 1949,1949 - 1950,1950 - 1951,1951 - 1952,1952 - 1953,1953 - 1954,1954 - 1955,1955 - 1956,,,,,,,,,,,,,,,,
SA,Suburban,Cinema ,-34.920754,138.636525,175 The Parade,5067,Norwood,Town Hall,Clifford Theatre Circuit,1130,,,,,,,,,1956 - 1957,1957 - 1958,1958 - 1959,1959 - 1960,,,,,,,,,,,,
SA,Country/Rural,Cinema ,-34.466667,138.983333,,5355,Nuriootpa,Institute,Williams & Harrison Pty. Ltd.,420,1948 - 1949,,,,,,,,,,,,,,,,,,,,,,,
SA,Country/Rural,Cinema ,-34.466667,138.983333,,5355,Nuriootpa,Institute,Secretary,420,,1949 - 1950,1950 - 1951,1951 - 1952,1952 - 1953,1953 - 1954,1954 - 1955,1955 - 1956,1956 - 1957,1957 - 1958,,,,,,,,,,,,,,
SA,Country/Rural,Cinema ,-34.466667,138.983333,,5355,Nuriootpa,Institute,Film Board Committee,220,,,,,,,,,,,1958 - 1959,,,,,,,,,,,,,
SA,Country/Rural,Cinema ,-34.466667,138.983333,,5355,Nuriootpa,Institute,Film Board Committee,464,,,,,,,,,,,,1959 - 1960,1960 - 1961,,,,,,,,,,,
SA,Country/Rural,Cinema ,-34.466667,138.983333,,5355,Nuriootpa,Institute,Institute Cinema Board,464,,,,,,,,,,,,,,1961 - 1962,1962 - 1963,1963 - 1964,,,,,,,,
SA,Country/Rural,Cinema ,-34.98467,138.841603,,5243,Oakbank,Institute,W. V. Benbow,220,1948 - 1949,,,,,,,,,,,,,,,,,,,,,,,
SA,Country/Rural,Cinema ,-34.98467,138.841603,,5243,Oakbank,Institute,W. V. Benbow,230,,1949 - 1950,1950 - 1951,1951 - 1952,1952 - 1953,1953 - 1954,1954 - 1955,1955 - 1956,,,,,,,,,,,,,,,,
SA,Country/Rural,Cinema ,-34.98467,138.841603,,5243,Oakbank,Institute,Benbow Amusements Ltd.,230,,,,,,,,,1956 - 1957,1957 - 1958,,,,,,,,,,,,,,
SA,Country/Rural,Cinema ,-34.98467,138.841603,,5243,Oakbank,Institute,Benbow Amusements Ltd.,220,,,,,,,,,,,1958 - 1959,1959 - 1960,1960 - 1961,1961 - 1962,,,,,,,,,,
SA,Suburban,Drive-in,-35.052344,138.554789,Majors Road,5158,O'Halloran Hill,Starline,Field Park Investments Ltd,700,,,,,,,,,,,,,,,,,,,,1968 - 1969,1969 - 1970,,http://www.samemory.sa.gov.au/site/page.cfm?u=1292,
SA,Suburban,Drive-in,-35.052344,138.554789,Majors Road,5158,O'Halloran Hill,Starline,O'Halloran Hill Drive-in Pty. Ltd.,1013,,,,,,,,,,,,,,,,,,,,,,1971,http://www.samemory.sa.gov.au/site/page.cfm?u=1292,
SA,Country/Rural,Cinema ,-32.733786,138.612069,,5431,Orroroo,Renown,J. H. MacDougall,300,1948 - 1949,,,,,,,,,,,,,,,,,,,,,,,
SA,Country/Rural,Cinema ,-32.733786,138.612069,,5431,Orroroo,Renown,Renown Pictures,300,,1949 - 1950,1950 - 1951,1951 - 1952,1952 - 1953,1953 - 1954,1954 - 1955,1955 - 1956,,,,,,,,,,,,,,,,
SA,Country/Rural,Cinema ,-32.733786,138.612069,,5431,Orroroo,Renown,Renown Pictures,378,,,,,,,,,1956 - 1957,1957 - 1958,,,,,,,,,,,,,,
SA,Country/Rural,Cinema ,-32.733786,138.612069,,5431,Orroroo,Renown,L. Haynes,370,,,,,,,,,,,1958 - 1959,1959 - 1960,1960 - 1961,1961 - 1962,1962 - 1963,1963 - 1964,1964 - 1965,1965 - 1966,1966 - 1967,1968 - 1969,,,,
SA,Suburban,Drive-in,-34.787901,138.501804,Victoria Road,5017,Osborne,Harbourline,Harbourline Drive-In Theatres Ltd.,500,,,,,,,,,,,,1959 - 1960,1960 - 1961,1961 - 1962,1962 - 1963,1963 - 1964,1964 - 1965,1965 - 1966,1966 - 1967,1968 - 1969,1969 - 1970,1971,http://www.samemory.sa.gov.au/site/page.cfm?u=1292,
SA,Country/Rural,Cinema ,-34.269743,138.545938,,5460,Owen,Institute,O. K. Harris,…,,,,,,,1954 - 1955,1955 - 1956,,,,,,,,,,,,,,,,
SA,Country/Rural,Cinema ,-34.269743,138.545938,,5460,Owen,Institute,Secretary,220,,,,,,,,,1956 - 1957,1957 - 1958,,,,,,,,,,,,,,
SA,Country/Rural,Cinema ,-34.269743,138.545938,,5460,Owen,Institute,Sec. Owen Instit. Cin. Committee,180,,,,,,,,,,,1958 - 1959,1959 - 1960,1960 - 1961,1961 - 1962,,,,,,,,,,
SA,Suburban,Drive-in,-34.998788,138.59332,655 Goodwood Road,,Panorama,Springbank Hiline,Hiline Drive-In Theatres Pty. Ltd.,600,,,,,,,,,,1957 - 1958,1958 - 1959,,,,,,,,,,,,http://www.mitchamcouncil.sa.gov.au/webdata/resources/files/Panorama_Chronology.pdf,
SA,Suburban,Drive-in,-34.998788,138.59332,655 Goodwood Road,,Panorama,Springbank Hiline,Hiline Drive-In Theatres Pty. Ltd.,450,,,,,,,,,,,,1959 - 1960,1960 - 1961,1961 - 1962,1962 - 1963,1963 - 1964,1964 - 1965,1965 - 1966,1966 - 1967,,,,http://www.mitchamcouncil.sa.gov.au/webdata/resources/files/Panorama_Chronology.pdf,
SA,Suburban,Drive-in,-34.998788,138.59332,655 Goodwood Road,5041,Panorama,Hi-Line,Hi-Line Drive-in Theatres Ltd.,807,,,,,,,,,,,,,,,,,,,,1968 - 1969,1969 - 1970,,http://www.mitchamcouncil.sa.gov.au/webdata/resources/files/Panorama_Chronology.pdf,
SA,Suburban,Drive-in,-34.998788,138.59332,655 Goodwood Road,,Panorama,Hiline,…,797,,,,,,,,,,,,,,,,,,,,,,1971,http://www.mitchamcouncil.sa.gov.au/webdata/resources/files/Panorama_Chronology.pdf,
SA,Suburban,Cinema ,-34.944308,138.621627,96 Glen Osmond Road,5063,Parkside,Windsor,Clifford Theatre Circuit,400,1948 - 1949,1949 - 1950,1950 - 1951,,,,,,,,,,,,,,,,,,,,,
SA,Suburban,Cinema ,-34.943590,138.620904,61 Glen Osmond Road,5063,Parkside,Star,Clifford Theatre Circuit,1383,1948 - 1949,1949 - 1950,1950 - 1951,1951 - 1952,1952 - 1953,,,,,,,,,,,,,,,,,,,
SA,Suburban,Cinema ,-34.943590,138.620904,61 Glen Osmond Road,5063,Parkside,New Odeon,Clifford Theatre Circuit,1383,,,,,,1953 - 1954,1954 - 1955,1955 - 1956,,,,,,,,,,,,,,,,
SA,Suburban,Cinema ,-34.943590,138.620904,61 Glen Osmond Road,5063,Parkside,New Odeon,Clifford Theatre Circuit,1100,,,,,,,,,1956 - 1957,1957 - 1958,,,,,,,,,,,,,,
SA,Suburban,Cinema ,-34.943590,138.620904,61 Glen Osmond Road,5063,Parkside,Odeon-Star,Clifford Theatre Circuit,1100,,,,,,,,,,,1958 - 1959,1959 - 1960,,,,,,,,,,,,
SA,Suburban,Cinema ,-34.857973,138.535717,19 Windsor Avenue,5013,Pennington,Migrant,Hostel Hall,300,,,,,,,,,,,,,,,,,,,,,,1971,,
SA,Country/Rural,Cinema ,-37.378987,140.840719,,5277,Penola,Palace,P. Reid,300,1948 - 1949,,,,,,,,,,,,,,,,,,,,,,,
SA,Country/Rural,Cinema ,-37.378987,140.840719,,5277,Penola,Institute,Chevron Cinemas,300,,1949 - 1950,1950 - 1951,1951 - 1952,1952 - 1953,1953 - 1954,1954 - 1955,1955 - 1956,1956 - 1957,1957 - 1958,,,,,,,,,,,,,,
SA,Country/Rural,Cinema ,-37.378987,140.840719,,5277,Penola,Institute,F. P. Squire,300,,,,,,,,,,,1958 - 1959,1959 - 1960,1960 - 1961,,,,,,,,,,,
SA,Country/Rural,Cinema ,-37.378987,140.840719,,5277,Penola,Institute,Chevron Cinemas,300,,,,,,,,,,,,,,1961 - 1962,1962 - 1963,,,,,,,,,
SA,Country/Rural,Drive-in,-37.372218,140.840507,,5277,Penola ,Chevron,Chevron Drive-In Theatre,249,,,,,,,,,,,,,,1961 - 1962,1962 - 1963,1963 - 1964,1964 - 1965,1965 - 1966,1966 - 1967,1968 - 1969,1969 - 1970,1971,,
SA,Country/Rural,Cinema ,-32.973333,138.837588,,5422,Peterborough,Capitol,T. Rees,800,1948 - 1949,,,,,,,,,,,,,,,,,,,,,,,
SA,Country/Rural,Cinema ,-32.973333,138.837588,,5422,Peterborough,Capitol,O. M. Rondahl,800,,1949 - 1950,1950 - 1951,1951 - 1952,1952 - 1953,1953 - 1954,1954 - 1955,,,,,,,,,,,,,,,,,
SA,Country/Rural,Cinema ,-32.973333,138.837588,,5422,Peterborough,Capitol,Austin Silby Theatres,800,,,,,,,,1955 - 1956,1956 - 1957,1957 - 1958,1958 - 1959,,,,,,,,,,,,,
SA,Country/Rural,Cinema ,-32.973333,138.837588,,5422,Peterborough,Capitol,O. M. Rondahl,800,,,,,,,,,,,,1959 - 1960,1960 - 1961,1961 - 1962,1962 - 1963,1963 - 1964,1964 - 1965,1965 - 1966,1966 - 1967,1968 - 1969,1969 - 1970,,,
SA,Country/Rural,Cinema ,-34.568007,137.880736,,5571,Pine Point,Orana,Orana Theatres,100,,,,,,,,,,,,,,,,1963 - 1964,1964 - 1965,,,,,,,
SA,Country/Rural,Open Air,-35.26151,140.905556,,5304,Pinnaroo,Open Air,Mrs. A. I. Edwards,400,,,,,,,,,,,1958 - 1959,1959 - 1960,,,,,,,,,,,,
SA,Country/Rural,Open Air,-35.26151,140.905556,,5304,Pinnaroo,Open Air,Regent Pictures,400,,,,,,,,,,,,,1960 - 1961,1961 - 1962,1962 - 1963,1963 - 1964,1964 - 1965,,,,,,,
SA,Country/Rural,Cinema ,-35.260404,140.908434,,5304,Pinnaroo,Institute,R. B. Edwards,400,1948 - 1949,1949 - 1950,1950 - 1951,1951 - 1952,1952 - 1953,1953 - 1954,1954 - 1955,1955 - 1956,,,,,,,,,,,,,,,,
SA,Country/Rural,Cinema ,-35.260404,140.908434,,5304,Pinnaroo,Institute,Mrs. A. I. Edwards,400,,,,,,,,,1956 - 1957,1957 - 1958,,,,,,,,,,,,,,
SA,Country/Rural,Cinema ,-35.260404,140.908434,,5304,Pinnaroo,Institute,Institute Committee,400,,,,,,,,,,,1958 - 1959,1959 - 1960,1960 - 1961,1961 - 1962,1962 - 1963,1963 - 1964,1964 - 1965,1965 - 1966,1966 - 1967,1968 - 1969,1969 - 1970,1971,,
SA,Country/Rural,Touring Circuit,-35.507013,139.133318,Junction of Long Street and Point McLeay Road,5259,Point McLeay,Town Hall Pics (A. H. Thomas),A. H. Thomas,200,,1949 - 1950,1950 - 1951,1951 - 1952,1952 - 1953,1953 - 1954,1954 - 1955,1955 - 1956,1956 - 1957,1957 - 1958,1958 - 1959,1959 - 1960,1960 - 1961,,,,,,,,,,http://www.samemory.sa.gov.au/site/page.cfm?u=1317,
SA,Country/Rural,Cinema ,-34.416307,137.502374,,5573,Point Pierce,Institute,P. Hall,200,,,1950 - 1951,,,,,,,,,,,,,,,,,,,,http://www.samemory.sa.gov.au/site/page.cfm?u=1241,
SA,Country/Rural,Cinema ,-34.416307,137.502374,,5573,Point Pierce,Institute,D. Hall,200,,,,1951 - 1952,1952 - 1953,1953 - 1954,1954 - 1955,1955 - 1956,1956 - 1957,1957 - 1958,1958 - 1959,1959 - 1960,1960 - 1961,1961 - 1962,1962 - 1963,1963 - 1964,1964 - 1965,,,,,,http://www.samemory.sa.gov.au/site/page.cfm?u=1241,
SA,Country/Rural,Cinema ,-32.720949,134.833702,,5655,Poochera,Institute,Secretary,300,,,,,,,,,,,,,,,1962 - 1963,1963 - 1964,1964 - 1965,1965 - 1966,1966 - 1967,1968 - 1969,,,,
SA,Country/Rural,Cinema ,-32.720949,134.833702,,5655,Poochera,Institute,Community Pictures,300,,,,,,,,,,,,,,,,,,,,,1969 - 1970,,,
SA,Country/Rural,Cinema ,-32.720949,134.833702,,5655,Poochera,Institute,Community Pictures,250,,,,,,,,,,,,,,,,,,,,,,1971,,
SA,Suburban,Cinema ,-34.845147,138.500924,78 St Vincents Street,5015,Port Adelaide,Star,Clifford Theatre Circuit,1563,1948 - 1949,1949 - 1950,1950 - 1951,1951 - 1952,1952 - 1953,1953 - 1954,1954 - 1955,,,,,,,,,,,,,,,,,
SA,Suburban,Cinema ,-34.845147,138.500924,78 St Vincents Street,5015,Port Adelaide,Odeon,Clifford Theatre Circuit,1563,,,,,,,,1955 - 1956,,,,,,,,,,,,,,,,
SA,Suburban,Cinema ,-34.845147,138.500924,78 St Vincents Street,5015,Port Adelaide,Odeon,Clifford Theatre Circuit,1300,,,,,,,,,1956 - 1957,1957 - 1958,,,,,,,,,,,,,,
SA,Suburban,Cinema ,-34.845147,138.500924,78 St Vincents Street,5015,Port Adelaide,Odeon-Star,Clifford Theatre Circuit,1300,,,,,,,,,,,1958 - 1959,1959 - 1960,,,,,,,,,,,,
SA,Suburban,Cinema ,-34.844468,138.504716,186 St Vincents Street,5015,Port Adelaide,Ozone Port Adelaide,Ozone Theatres Ltd.,1571,1948 - 1949,1949 - 1950,1950 - 1951,,,,,,,,,,,,,,,,,,,,,
SA,Suburban,Cinema ,-34.844468,138.504716,186 St Vincents Street,5015,Port Adelaide,Ozone Port Adelaide,Hoyts-Ozone Theatres,1571,,,,1951 - 1952,1952 - 1953,1953 - 1954,1954 - 1955,1955 - 1956,,,,,,,,,,,,,,,,
SA,Suburban,Cinema ,-34.844468,138.504716,186 St Vincents Street,5015,Port Adelaide,Ozone Port Adelaide,Hoyts-Ozone Theatres,1490,,,,,,,,,1956 - 1957,1957 - 1958,,,,,,,,,,,,,,
SA,Suburban,Cinema ,-34.844468,138.504716,186 St Vincents Street,5015,Port Adelaide,Ozone Port Adelaide,Hoyts-Ozone Theatres,1471,,,,,,,,,,,1958 - 1959,1959 - 1960,1960 - 1961,1961 - 1962,1962 - 1963,1963 - 1964,1964 - 1965,1965 - 1966,1966 - 1967,,,,,
SA,Country/Rural,Cinema ,-32.491957,137.762864,54 Commercial Road,5700,Port Augusta,Town Hall,Austin Sibly Theatres,741,1948 - 1949,1949 - 1950,1950 - 1951,1951 - 1952,1952 - 1953,1953 - 1954,1954 - 1955,1955 - 1956,1956 - 1957,1957 - 1958,,,,,,,,,,,,,,
SA,Country/Rural,Cinema ,-32.491957,137.762864,54 Commercial Road,5700,Port Augusta,Town Hall,Austin Sibly Theatres,742,,,,,,,,,,,1958 - 1959,1959 - 1960,1960 - 1961,1961 - 1962,1962 - 1963,1963 - 1964,1964 - 1965,1965 - 1966,1966 - 1967,1968 - 1969,1969 - 1970,1971,,
SA,Country/Rural,Drive-in,-32.487315,137.778386,Harold Street,5700,Port Augusta,Flinders,Flinders Drive-In Theatres Ltd.,500,,,,,,,,,,,,1959 - 1960,1960 - 1961,1961 - 1962,1962 - 1963,1963 - 1964,1964 - 1965,1965 - 1966,1966 - 1967,1968 - 1969,1969 - 1970,1971,http://www.drive-insdownunder.com.au/australian/sa1.htm,
SA,Country/Rural,Touring Circuit,-33.600502,137.933322,,5522,Port Broughton,"Benbow Amusements Ltd., 221 Pirie Street, Adelaide",Benbow Amusements Ltd.,216,,1949 - 1950,,1951 - 1952,1952 - 1953,1953 - 1954,1954 - 1955,1955 - 1956,1956 - 1957,1957 - 1958,1958 - 1959,1959 - 1960,1961 - 1962,,,,,,,,,,,
SA,Country/Rural,Cinema ,-33.600502,137.933322,,5522,Port Broughton,Institute,Secretary   ,300,,,,,,,,,,,,,1960 - 1961,1961 - 1962,1962 - 1963,1963 - 1964,1964 - 1965,,,,,,,
SA,Country/Rural,Cinema ,-33.600502,137.933322,,5522,Port Broughton,Institute,N. Burgess,…,,,,,,,,,,,,,,,,,,,,,1969 - 1970,,,
SA,Country/Rural,Drive-in,-35.53139,138.6722,Elliot Road,5212,Port Elliot,South Coast,South Coast Drive-In Theatres Ltd.,320,,,,,,,,,,,,1959 - 1960,,,,,,,,,,,http://www.drive-insdownunder.com.au/australian/sa1.htm,
SA,Country/Rural,Drive-in,-35.53139,138.6722,Elliot Road,5212,Port Elliot,South Coast,South Coast Drive-In Theatres Ltd.,320,,,,,,,,,,,,,1960 - 1961,1961 - 1962,1962 - 1963,1963 - 1964,1964 - 1965,1965 - 1966,1966 - 1967,,,,http://www.drive-insdownunder.com.au/australian/sa1.htm,
SA,Country/Rural,Drive-in,-35.53139,138.6722,Elliot Road,5212,Port Elliot,South Coast,South Coast Drive-In Theatres Ltd.,360,,,,,,,,,,,,,,,,,,,,1968 - 1969,1969 - 1970,1971,http://www.drive-insdownunder.com.au/australian/sa1.htm,
SA,Country/Rural,Cinema ,-35.530376,138.681034,,5212,Port Elliot,Institute,Port Elliott Inst. Pictures,380,1948 - 1949,1949 - 1950,1950 - 1951,1951 - 1952,1952 - 1953,1953 - 1954,1954 - 1955,1955 - 1956,1956 - 1957,1957 - 1958,,,,,,,,,,,,,,
SA,Country/Rural,Cinema ,-35.530376,138.681034,,5212,Port Elliot,Institute,Secretary Intit. Pictures,330,,,,,,,,,,,1958 - 1959,1959 - 1960,1960 - 1961,1961 - 1962,,,,,,,,,,
SA,Country/Rural,Cinema ,-35.530376,138.681034,,5212,Port Elliot,Institute,Institute Pictures Committee  ,330,,,,,,,,,,,,,,,,1963 - 1964,1964 - 1965,,,,,,,
SA,Country/Rural,Cinema ,-35.530376,138.681034,,5212,Port Elliot,Institute,…,240,,,,,,,,,,,,,,,,,,,,,,1971,,
SA,Country/Rural,Drive-in,-34.736402,135.858744,Bel-Air Drive,5606,Port Lincoln,Bel Air,H. V. King & Co.,400,,,,,,,,,,,,,1960 - 1961,,,,,,,,,,,
SA,Country/Rural,Drive-in,-34.736402,135.858744,Bel-Air Drive,5606,Port Lincoln,Bel Air,H. V. King & Co.,300,,,,,,,,,,,,,,1961 - 1962,,,,,,,,,,
SA,Country/Rural,Drive-in,-34.736402,135.858744,Bel-Air Drive,5606,Port Lincoln,Bel Air,Bay View Drive-In Theas. Ltd.,300,,,,,,,,,,,,,,,1962 - 1963,1963 - 1964,1964 - 1965,1965 - 1966,1966 - 1967,,,,,
SA,Country/Rural,Drive-in,-34.736402,135.858744,Bel-Air Drive,5606,Port Lincoln,Bel Air,Bay View Drive-In Theas. Ltd.,260,,,,,,,,,,,,,,,,,,,,1968 - 1969,1969 - 1970,1971,,
SA,Country/Rural,Cinema ,-34.721606,135.856587,3 Hallet Place,5606,Port Lincoln,Flinders,H. V. King,690,1948 - 1949,1949 - 1950,1950 - 1951,1951 - 1952,1952 - 1953,,,,,,,,,,,,,,,,,,,
SA,Country/Rural,Cinema ,-34.721606,135.856587,3 Hallet Place,5606,Port Lincoln,Flinders,Mrs. D. King,690,,,,,,1953 - 1954,1954 - 1955,1955 - 1956,1956 - 1957,1957 - 1958,,,,,,,,,,,,,,
SA,Country/Rural,Cinema ,-34.721606,135.856587,3 Hallet Place,5606,Port Lincoln,Flinders,H. V. King,700,,,,,,,,,,,1958 - 1959,1959 - 1960,1960 - 1961,1961 - 1962,,,,,,,,,,
SA,Country/Rural,Cinema ,-34.721606,135.856587,3 Hallet Place,5606,Port Lincoln,Flinders,Bay View Drive-In Theatres,700,,,,,,,,,,,,,,,1962 - 1963,1963 - 1964,1964 - 1965,,,,,,,
SA,Country/Rural,Cinema ,-34.721606,135.856587,3 Hallet Place,5606,Port Lincoln,Flinders,H. V. King,700,,,,,,,,,,,,,,,,,,1965 - 1966,1966 - 1967,1968 - 1969,1969 - 1970,1971,,
SA,Country/Rural,Cinema ,-34.718687,135.856296,64 Tasman Terrace,5606,Port Lincoln,Civic,H. V. King,978,1948 - 1949,1949 - 1950,1950 - 1951,1951 - 1952,1952 - 1953,1953 - 1954,1954 - 1955,1955 - 1956,1956 - 1957,1957 - 1958,,,,,,,,,,,,,,
SA,Country/Rural,Cinema ,-34.718687,135.856296,64 Tasman Terrace,5606,Port Lincoln,Civic,H. V. King,905,,,,,,,,,,,1958 - 1959,1959 - 1960,,,,,,,,,,,,
SA,Country/Rural,Cinema ,-38.053413,140.702423,,5291,Port MacDonnell,Institute,-,-,1948 - 1949,,,,,,,,,,,,,,,,,,,,,,,
SA,Country/Rural,Cinema ,-38.053413,140.702423,,5291,Port MacDonnell,Institute,"Chevron Cinemas, Robe",250,,1949 - 1950,1950 - 1951,1951 - 1952,1952 - 1953,1953 - 1954,1954 - 1955,1955 - 1956,1956 - 1957,1957 - 1958,,,,,,,,,,,,,,
SA,Country/Rural,Cinema ,-38.053413,140.702423,,5291,Port MacDonnell,Institute,F. P. Squire,140,,,,,,,,,,,1958 - 1959,1959 - 1960,1960 - 1961,,,,,,,,,,,
SA,Country/Rural,Cinema ,-38.053413,140.702423,,5291,Port MacDonnell,Institute,Chevron Cinemas,140,,,,,,,,,,,,,,1961 - 1962,1962 - 1963,1963 - 1964,1964 - 1965,,,,,,,
SA,Suburban,Cinema ,-35.148995,138.472321,22 Gawler Street,5167,Port Noarlunga,Institute,E. V. Roe,350,1948 - 1949,1949 - 1950,1950 - 1951,1951 - 1952,1952 - 1953,1953 - 1954,1954 - 1955,1955 - 1956,1956 - 1957,1957 - 1958,,,,,,,,,,,,,,
SA,Suburban,Cinema ,-35.148995,138.472321,22 Gawler Street,5167,Port Noarlunga,Institute,E. V. Roe,495,,,,,,,,,,,1958 - 1959,1959 - 1960,,,,,,,,,,,,
SA,Suburban,Cinema ,-35.148995,138.472321,22 Gawler Street,5167,Port Noarlunga,Institute,Port Norlunga Pictures,495,,,,,,,,,,,,,1960 - 1961,1961 - 1962,,,,,,,,,,
SA,Country/Rural,Cinema ,-35.148995,138.472321,22 Gawler Street,5167,Port Norlunga,…,Institute Committee,495,,,,,,,,,,,,,,,,1963 - 1964,1964 - 1965,,,,,,,
SA,Country/Rural,Drive-in,-33.181134,138.007774,,5540,Port Pirie,Shandon,Shandon Drive-In Pty. Ltd.,500,,,,,,,,,,,,1959 - 1960,1960 - 1961,1961 - 1962,1962 - 1963,1963 - 1964,1964 - 1965,1965 - 1966,1966 - 1967,1968 - 1969,,,,
SA,Country/Rural,Drive-in,-33.181134,138.007774,,5540,Port Pirie,Flinders,Flinders Drive-In Theatres Ltd.,500,,,,,,,,,,,,,,,,,,,,,1969 - 1970,1971,,
SA,Country/Rural,Cinema ,-33.1776613,138.0072687,Corner of Florence and Alexander Streets,5540,Port Pirie,Austral,Cinemas Ltd.,1014,1948 - 1949,1949 - 1950,1950 - 1951,1951 - 1952,1952 - 1953,1953 - 1954,1954 - 1955,1955 - 1956,,,,,,,,,,,,,,,,
SA,Country/Rural,Cinema ,-33.1776613,138.0072687,Corner of Florence and Alexander Streets,5540,Port Pirie,Austral,Cinemas Ltd.,794,,,,,,,,,1956 - 1957,1957 - 1958,,,,,,,,,,,,,,
SA,Country/Rural,Cinema ,-33.1776613,138.0072687,Corner of Florence and Alexander Streets,5540,Port Pirie,Austral,Cinemas Ltd.,971,,,,,,,,,,,1958 - 1959,1959 - 1960,1960 - 1961,1961 - 1962,1962 - 1963,1963 - 1964,1964 - 1965,,,,,,,
SA,Country/Rural,Cinema ,-33.177085,138.010057,,5540,Port Pirie,Ozone,Ozone Theatres Ltd.,1331,1948 - 1949,1949 - 1950,1950 - 1951,,,,,,,,,,,,,,,,,,,,,
SA,Country/Rural,Cinema ,-33.177085,138.010057,,5540,Port Pirie,Ozone,Hoyts-Ozone Theatres,1331,,,,1951 - 1952,1952 - 1953,1953 - 1954,1954 - 1955,1955 - 1956,,,,,,,,,,,,,,,,
SA,Country/Rural,Cinema ,-33.177085,138.010057,,5540,Port Pirie,Ozone,Hoyts-Ozone Theatres,1052,,,,,,,,,1956 - 1957,1957 - 1958,,,,,,,,,,,,,,
SA,Country/Rural,Cinema ,-33.177085,138.010057,,5540,Port Pirie,Ozone,Hoyts-Ozone Theatres,1038,,,,,,,,,,,1958 - 1959,1959 - 1960,1960 - 1961,1961 - 1962,1962 - 1963,1963 - 1964,1964 - 1965,1965 - 1966,1966 - 1967,,,,,
SA,Country/Rural,Cinema ,-33.177085,138.010057,,5540,Port Pirie,Ozone,Hoyts-Ozone Theatres,1052,,,,,,,,,,,,,,,,,,,,1968 - 1969,1969 - 1970,,,
SA,Country/Rural,Cinema ,-34.496189,137.482969,,5573,Port Victoria,Institute,P. Hall,220,1948 - 1949,1949 - 1950,1950 - 1951,,,,,,,,,,,,,,,,,,,,,
SA,Country/Rural,Cinema ,-34.496189,137.482969,,5573,Port Victoria,Institute,D. Hall,220,,,,1951 - 1952,1952 - 1953,1953 - 1954,1954 - 1955,1955 - 1956,1956 - 1957,1957 - 1958,,,,,,,,,,,,,,
SA,Country/Rural,Cinema ,-34.496189,137.482969,,5573,Port Victoria,Institute,D. Hall,200,,,,,,,,,,,1958 - 1959,1959 - 1960,1960 - 1961,1961 - 1962,1962 - 1963,1963 - 1964,1964 - 1965,,,,,,,
SA,Country/Rural,Cinema ,-34.496189,137.482969,,5573,Port Victoria,Institute,…,200,,,,,,,,,,,,,,,,,,,,,,1971,,
SA,Country/Rural,Touring Circuit,-34.777674,137.860794,,5581,Port Vincent,"Benbow Amusements Ltd., 221 Pirie Street, Adelaide",Benbow Amusements Ltd.,185,,1949 - 1950,,1951 - 1952,1952 - 1953,1953 - 1954,1954 - 1955,1955 - 1956,1956 - 1957,1957 - 1958,1958 - 1959,1959 - 1960,1961 - 1962,,,,,,,,,,,
SA,Country/Rural,Cinema ,-34.184944,138.147985,,5550,Port Wakefield,Saint Albans Hall,Cine Committee,180,1948 - 1949,1949 - 1950,1950 - 1951,1951 - 1952,1952 - 1953,1953 - 1954,1954 - 1955,1955 - 1956,,,,,,,,,,,,,,,,
SA,Country/Rural,Cinema ,-34.184944,138.147985,,5550,Port Wakefield,Soldiers' Memorial Hall,Cinema Committee,380,,,,,,,,,1956 - 1957,1957 - 1958,,,,,,,,,,,,,,
SA,Country/Rural,Cinema ,-34.184944,138.147985,,5550,Port Wakefield,Soldiers' Memorial Hall,Cinema Committee,260,,,,,,,,,,,1958 - 1959,1959 - 1960,1960 - 1961,1961 - 1962,,,,,,,,,,
SA,Country/Rural,Cinema ,-34.184944,138.147985,,5550,Port Wakefield,Soldiers' Memorial Hall,Port Wakefield & District Progress Club Inc.,260,,,,,,,,,,,,,,,1962 - 1963,1963 - 1964,1964 - 1965,,,,,,,
SA,Country/Rural,Cinema ,-34.184944,138.147985,,5550,Port Wakefield,Institute,Port Wakefield Cinema Com.,…,,,,,,,,,,,,,,,,,,,,1968 - 1969,1969 - 1970,,,
SA,Country/Rural,Cinema ,-34.184944,138.147985,,5550,Port Wakefield,Soldiers Memorial Hall,Port Wakefield Cinema Com.,260,,,,,,,,,,,,,,,,,,,,,,1971,,
SA,Country/Rural,Touring Circuit,-34.2853,137.992798,,5570,Price,"Benbow Amusements Ltd., 221 Pirie Street, Adelaide",Benbow Amusements Ltd.,,,,,,,1953 - 1954,1954 - 1955,1955 - 1956,1956 - 1957,1957 - 1958,1958 - 1959,,,,,,,,,,,,,
SA,Suburban,Cinema ,-34.887857,138.594187,85 Prospect Road,5082,Prospect,Ozone Prospect,Ozone Theatres Ltd.,1263,1948 - 1949,1949 - 1950,1950 - 1951,,,,,,,,,,,,,,,,,,,,,
SA,Suburban,Cinema ,-34.887857,138.594187,85 Prospect Road,5082,Prospect,Ozone Prospect,Hoyts-Ozone Theatres,1263,,,,1951 - 1952,1952 - 1953,1953 - 1954,1954 - 1955,1955 - 1956,,,,,,,,,,,,,,,,
SA,Suburban,Cinema ,-34.887857,138.594187,85 Prospect Road,5082,Prospect,Ozone Prospect,Hoyts-Ozone Theatres,731,,,,,,,,,1956 - 1957,1957 - 1958,,,,,,,,,,,,,,
SA,Suburban,Cinema ,-34.887857,138.594187,85 Prospect Road,5082,Prospect,Ozone Prospect,Hoyts-Ozone Theatres,931,,,,,,,,,,,1958 - 1959,1959 - 1960,1960 - 1961,1961 - 1962,,,,,,,,,,
SA,Suburban,Cinema ,-34.878121,138.593257,Corner of Prospect Road and Albert Street ,5082,Prospect,Rechabite Hall,W. L. Perry,350,1948 - 1949,1949 - 1950,1950 - 1951,1951 - 1952,,,,,,,,,,,,,,,,,,,,
SA,Suburban,Cinema ,-34.878121,138.593257,Corner of Prospect Road and Albert Street ,5082,Prospect,Rechabite Hall,S. T. McLean,350,,,,,1952 - 1953,1953 - 1954,1954 - 1955,,,,,,,,,,,,,,,,,
SA,Suburban,Cinema ,-34.878121,138.593257,Corner of Prospect Road and Albert Street ,5082,Prospect,Circle,S. T. McLean,350,,,,,,,,1955 - 1956,1956 - 1957,1957 - 1958,,,,,,,,,,,,,,
SA,Suburban,Cinema ,-34.878121,138.593257,Corner of Prospect Road and Albert Street ,5082,Prospect,Circle,L. R. Knuckey,350,,,,,,,,,,,1958 - 1959,1959 - 1960,1960 - 1961,1961 - 1962,1962 - 1963,1963 - 1964,1964 - 1965,,,,,,,
SA,Country/Rural,Cinema ,-32.345829,138.040577,,5433,Quorn,Institute,W. N. Roberts,300,1948 - 1949,,,,,,,,,,,,,,,,,,,,,,,
SA,Country/Rural,Cinema ,-32.345829,138.040577,,5433,Quorn,Town Hall,Austin Sibly Theatres,300,,1949 - 1950,1950 - 1951,1951 - 1952,1952 - 1953,,,,,,,,,,,,,,,,,,,
SA,Country/Rural,Cinema ,-32.345829,138.040577,,5433,Quorn,Town Hall,A. R. & L. H. Burden,300,,,,,,1953 - 1954,1954 - 1955,1955 - 1956,1956 - 1957,1957 - 1958,,,,,,,,,,,,,,
SA,Country/Rural,Cinema ,-32.345829,138.040577,,5433,Quorn,Town Hall,A. R. & L. H. Burden,236,,,,,,,,,,,1958 - 1959,1959 - 1960,1960 - 1961,1961 - 1962,1962 - 1963,1963 - 1964,1964 - 1965,1965 - 1966,1966 - 1967,,,,,
SA,Country/Rural,Cinema ,-32.345829,138.040577,,5433,Quorn,Town Hall,Town Hall Pictures,236,,,,,,,,,,,,,,,,,,,,1968 - 1969,1969 - 1970,,,
SA,Country/Rural,Open Air,-32.345907,140.635637,,5440,Radium Hill,Open Air,Radium Hill Social Club,400,,,,,,,,,,,1958 - 1959,1959 - 1960,1960 - 1961,1961 - 1962,,,,,,,,,http://en.wikipedia.org/wiki/Radium_Hill,
SA,Country/Rural,Cinema ,-35.525514,138.189976,,5204,Rapid Bay,Hall,D. J. Caffery,150,,1949 - 1950,1950 - 1951,1951 - 1952,1952 - 1953,1953 - 1954,1954 - 1955,1955 - 1956,1956 - 1957,1957 - 1958,,,,,,,,,,,,,,
SA,Country/Rural,Cinema ,-35.525514,138.189976,,5204,Rapid Bay,BHP Recreation Hall,D. J. Caffery,100,,,,,,,,,,,1958 - 1959,1959 - 1960,1960 - 1961,1961 - 1962,,,,,,,,,,
SA,Country/Rural,Cinema ,-33.538662,138.224566,,5521,Redhill,Institute,H. Lester,200,,,1950 - 1951,1951 - 1952,1952 - 1953,,,,,,,,,,,,,,,,,,,
SA,Country/Rural,Cinema ,-33.538662,138.224566,,5521,Redhill,Institute,L. Knuckey,200,,,,,,1953 - 1954,1954 - 1955,1955 - 1956,,,,,,,,,,,,,,,,
SA,Country/Rural,Cinema ,-33.538662,138.224566,,5521,Redhill,Institute,L. Knuckey,150,,,,,,,,,1956 - 1957,1957 - 1958,1958 - 1959,,,,,,,,,,,,,
SA,Country/Rural,Drive-in,-34.176546,140.745223,,5341,Renmark,Groveline,Groveline,290,,,,,,,,,,,,,,,,,,,,1968 - 1969,1969 - 1970,1971,,
SA,Country/Rural,Open Air,-34.174001,140.75124,,5341,Renmark,Roxy Gardens,Ozone Theatres Ltd.,780,1948 - 1949,1949 - 1950,1950 - 1951,,,,,,,,,,,,,,,,,,,,,
SA,Country/Rural,Open Air,-34.174001,140.75124,,5341,Renmark,Roxy Gardens,Hoyts-Ozone Theatres,780,,,,1951 - 1952,1952 - 1953,1953 - 1954,1954 - 1955,1955 - 1956,,,,,,,,,,,,,,,,
SA,Country/Rural,Open Air,-34.174001,140.75124,,5341,Renmark,Roxy Gardens,Hoyts-Ozone Theatres,446,,,,,,,,,1956 - 1957,1957 - 1958,,,,,,,,,,,,,,
SA,Country/Rural,Open Air,-34.174001,140.75124,,5341,Renmark,Open Air,Renmark Cinemas Ltd.,446,,,,,,,,,,,1958 - 1959,1959 - 1960,,,,,,,,,,,,
SA,Country/Rural,Open Air,-34.174001,140.75124,,5341,Renmark,Chinese Open Air Gardens,Harvy Cinemas Ltd.,780,,,,,,,,,,,,,,,,,,1965 - 1966,1966 - 1967,,,,,
SA,Country/Rural,Cinema ,-34.173776,140.750486,145 Murray Avenue,5341,Renmark,Capitol,Ozone Theatres Ltd.,400,1948 - 1949,,,,,,,,,,,,,,,,,,,,,,http://www.heritagebuildingsofsouthaustralia.com.au/ren2.htm,
SA,Country/Rural,Cinema ,-34.173776,140.750486,145 Murray Avenue,5341,Renmark,Ozone,Hoyts-Ozone Theatres,736,,,,1951 - 1952,1952 - 1953,1953 - 1954,1954 - 1955,1955 - 1956,,,,,,,,,,,,,,,http://www.heritagebuildingsofsouthaustralia.com.au/ren2.htm,
SA,Country/Rural,Cinema ,-34.173776,140.750486,145 Murray Avenue,5341,Renmark,Ozone,Hoyts-Ozone Theatres,726,,,,,,,,,1956 - 1957,1957 - 1958,,,,,,,,,,,,,http://www.heritagebuildingsofsouthaustralia.com.au/ren2.htm,
SA,Country/Rural,Cinema ,-34.173776,140.750486,145 Murray Avenue,5341,Renmark,Ozone,Renmark Cinemas Ltd.,780,,,,,,,,,,,1958 - 1959,1959 - 1960,1960 - 1961,,,,,,,,,,http://www.heritagebuildingsofsouthaustralia.com.au/ren2.htm,
SA,Country/Rural,Cinema ,-34.173776,140.750486,145 Murray Avenue,5341,Renmark,Ozone,Harvy Cinemas Ltd.,780,,,,,,,,,,,,,,1961 - 1962,1962 - 1963,1963 - 1964,1964 - 1965,,,,,,http://www.heritagebuildingsofsouthaustralia.com.au/ren2.htm,
SA,Country/Rural,Cinema ,-34.173742,140.750657,145 Murray Avenue,5341,Renmark,Ozone,Ozone Theatres Ltd.,736,1948 - 1949,1949 - 1950,1950 - 1951,,,,,,,,,,,,,,,,,,,,http://www.heritagebuildingsofsouthaustralia.com.au/ren2.htm,
SA,Suburban,Cinema ,-35.093563,138.539749,164-170 Old South Road,5161,Reynella,Institute,H. M. Wallis,200,,,,,,,,1955 - 1956,,,,,,,,,,,,,,,,
SA,Suburban,Cinema ,-35.093563,138.539749,164-170 Old South Road,5161,Reynella,Institute,H. M. Wallis,300,,,,,,,,,1956 - 1957,1957 - 1958,,,,,,,,,,,,,,
SA,Suburban,Cinema ,-35.093563,138.539749,164-170 Old South Road,5161,Reynella,Institute,H. M. Wallis,150,,,,,,,,,,,1958 - 1959,,,,,,,,,,,,,
SA,Suburban,Cinema ,-35.093563,138.539749,164-170 Old South Road,5161,Reynella,Institute,Astra Theatres,150,,,,,,,,,,,,1959 - 1960,,,,,,,,,,,,
SA,Suburban,Cinema ,-35.093563,138.539749,164-170 Old South Road,5161,Reynella,Institute,H. Wallis,150,,,,,,,,,,,,,1960 - 1961,,,,,,,,,,,
SA,Suburban,Cinema ,-35.093563,138.539749,164-170 Old South Road,5161,Reynella,Institute,Astra Theatres,150,,,,,,,,,,,,,,1961 - 1962,1962 - 1963,1963 - 1964,1964 - 1965,1965 - 1966,1966 - 1967,,,,,
SA,Suburban,Cinema ,-34.893817,138.568892,79 Government Road (now corner of South Road/Paget and Hawker),5008,Ridleyton,Croydon Odeon,Clifford Theatre Circuit,1074,1948 - 1949,,,,,,,,,,,,,,,,,,,,,,,
SA,Suburban,Cinema ,-34.893817,138.568892,79 Government Road (now corner of South Road/Paget and Hawker),5008,Ridleyton,Croydon Odeon,Clifford Theatre Circuit,1070,,1949 - 1950,1950 - 1951,1951 - 1952,1952 - 1953,1953 - 1954,1954 - 1955,1955 - 1956,,,,,,,,,,,,,,,,
SA,Suburban,Cinema ,-34.893817,138.568892,79 Government Road (now corner of South Road/Paget and Hawker),5008,Ridleyton,Croydon Odeon,Clifford Theatre Circuit,1020,,,,,,,,,1956 - 1957,1957 - 1958,,,,,,,,,,,,,,
SA,Suburban,Cinema ,-34.893817,138.568892,79 Government Road (now corner of South Road/Paget and Hawker),5008,Ridleyton,Odeon-Star,Clifford Theatre Circuit,1020,,,,,,,,,,,1958 - 1959,1959 - 1960,1960 - 1961,1961 - 1962,,,,,,,,,,
SA,Country/Rural,Touring Circuit,-34.160683,138.747178,,5412,Riverton,L. N. Mullens,L. N. Mullens,280,,1949 - 1950,1950 - 1951,1951 - 1952,1952 - 1953,1953 - 1954,1954 - 1955,,1956 - 1957,1957 - 1958,1958 - 1959,1959 - 1960, ,,,,,,,,,,,
SA,Country/Rural,Cinema ,-34.159283,138.747432,,5412,Riverton,Pictures,Williams & Harrison Pty. Ltd.,-,1948 - 1949,,,,,,,,,,,,,,,,,,,,,,,
SA,Country/Rural,Cinema ,-34.159283,138.747432,,5412,Riverton,Institute,…,200,, , , ,,,,,,,,,,,,,,,,,,1971,,
SA,Country/Rural,Cinema ,-34.159283,138.747432,,5412,Riverton,Institute,Committee,280,,,,,,,,1955 - 1956,,,,,,,,,,,,,,,,
SA,Country/Rural,Cinema ,-34.159283,138.747432,,5412,Riverton,Institute,Committee,230,,,,,,,,,1956 - 1957,1957 - 1958,,,,,,,,,,,,,,
SA,Country/Rural,Cinema ,-34.159283,138.747432,,5412,Riverton,Institute,Riverton Instit. Pics.,210,,,,,,,,,,,1958 - 1959,1959 - 1960,1960 - 1961,1961 - 1962,1962 - 1963,1963 - 1964,1964 - 1965,,,,,,,
SA,Country/Rural,Cinema ,-37.162486,139.754892,,5276,Robe,Institute,T. P. Squire,200,1948 - 1949,,,,,,,,,,,,,,,,,,,,,,,
SA,Country/Rural,Cinema ,-37.162486,139.754892,,5276,Robe,Institute,Chevron Cinemas,200,,1949 - 1950,1950 - 1951,1951 - 1952,1952 - 1953,1953 - 1954,1954 - 1955,1955 - 1956,1956 - 1957,1957 - 1958,,,,,,,,,,,,,,
SA,Country/Rural,Cinema ,-37.162486,139.754892,,5276,Robe,Institute,F. P. Squire,200,,,,,,,,,,,1958 - 1959,1959 - 1960,1960 - 1961,,,,,,,,,,,
SA,Country/Rural,Cinema ,-37.162486,139.754892,,5276,Robe,Institute,Chevron Cinemas,200,,,,,,,,,,,,,,1961 - 1962,1962 - 1963,1963 - 1964,1964 - 1965,1965 - 1966,1966 - 1967,,,,,
SA,Country/Rural,Cinema ,-37.162486,139.754892,,5276,Robe,Institute,R. M. Smyth,200,,,,,,,,,,,,,,,,,,,,1968 - 1969,1969 - 1970,,,
SA,Country/Rural,Touring Circuit,-33.989607,139.082284,,5381,Robertstown,L. N. Mullens,L. N. Mullens,,,,,1951 - 1952,1952 - 1953,1953 - 1954,1954 - 1955,1955 - 1956,1956 - 1957,1957 - 1958,1958 - 1959,1959 - 1960,1960 - 1961,1961 - 1962,,,,,,,,,,
SA,Country/Rural,Touring Circuit,-34.084605,138.781505,,5413,Saddleworth,L. N. Mullens,L. N. Mullens,250,,1949 - 1950,1950 - 1951,1951 - 1952,1952 - 1953,1953 - 1954,1954 - 1955,1955 - 1956,1956 - 1957,1957 - 1958,,,,,,,,,,,,,,
SA,Country/Rural,Cinema ,-34.08393,138.782324,,5413,Saddleworth,Institute,Instit. Pics. C'tee,180,,,,,,,,,,,1958 - 1959,1959 - 1960,1960 - 1961,1961 - 1962,1962 - 1963,,,,,,,,,
SA,Suburban,Cinema ,-34.914065,138.653264,407a Magill Road,5068,Saint Morris,Windsor,B. E. Cunnew & Sons,700,1948 - 1949,1949 - 1950,1950 - 1951,1951 - 1952,1952 - 1953,1953 - 1954,1954 - 1955,1955 - 1956,1956 - 1957,1957 - 1958,,,,,,,,,,,,,,
SA,Suburban,Cinema ,-34.914065,138.653264,407a Magill Road,5068,Saint Morris,Windsor,B. E. Cunnew & Sons,810,,,,,,,,,,,1958 - 1959,1959 - 1960,1960 - 1961,1961 - 1962,1962 - 1963,1963 - 1964,1964 - 1965,1965 - 1966,1966 - 1967,,,,,
SA,Suburban,Drive-in,-34.914065,138.653264,407a Magill Road,5068,Saint Morris,Defranco,M. Seccola,810,,,,,,,,,,,,,,,,,,,,1968 - 1969,1969 - 1970,1971,,
SA,Suburban,Cinema ,-34.912771,138.625175,32 Payneham Road,5069,Saint Peters,Capitol,Clifford Theatre Circuit,1690,1948 - 1949,1949 - 1950,1950 - 1951,1951 - 1952,1952 - 1953,1953 - 1954,1954 - 1955,1955 - 1956,,,,,,,,,,,,,,,,
SA,Suburban,Cinema ,-34.912771,138.625175,32 Payneham Road,5069,Saint Peters,Capitol,Clifford Theatre Circuit,1345,,,,,,,,,1956 - 1957,1957 - 1958,1958 - 1959,1959 - 1960,1960 - 1961,1961 - 1962,1962 - 1963,1963 - 1964,,,,,,,,
SA,Suburban,Cinema ,-34.911114,138.626657,101 Payneham Road,5069,Saint Peters,Town Hall,Clifford Theatre Circuit,520,1948 - 1949,1949 - 1950,1950 - 1951,,,,,,,,,,,,,,,,,,,,,
SA,Suburban,Cinema ,-34.762502,138.647604,17 Wiltshire Street,5108,Salisbury,Institute,W. V. Benbow,290,1948 - 1949,,,,,,,,,,,,,,,,,,,,,,http://www.salisbury.sa.gov.au/Services/Libraries/Local_and_Family_History/Historical_Sites,
SA,Suburban,Cinema ,-34.762502,138.647604,17 Wiltshire Street,5108,Salisbury,Institute,W. V. Benbow,250,,1949 - 1950,1950 - 1951,1951 - 1952,1952 - 1953,,,,,,,,,,,,,,,,,,http://www.salisbury.sa.gov.au/Services/Libraries/Local_and_Family_History/Historical_Sites,
SA,Suburban,Cinema ,-34.762502,138.647604,17 Wiltshire Street,5108,Salisbury,Institute,Benbow Amusements Ltd.,250,,,,,,1953 - 1954,1954 - 1955,1955 - 1956,,,,,,,,,,,,,,,http://www.salisbury.sa.gov.au/Services/Libraries/Local_and_Family_History/Historical_Sites,
SA,Suburban,Cinema ,-34.762502,138.647604,17 Wiltshire Street,5108,Salisbury,Institute,Benbow Amusements Ltd.,230,,,,,,,,,1956 - 1957,1957 - 1958,1958 - 1959,1959 - 1960,1960 - 1961,1961 - 1962,,,,,,,,,http://www.salisbury.sa.gov.au/Services/Libraries/Local_and_Family_History/Historical_Sites,
SA,Suburban,Cinema ,-34.762502,138.647604,17 Wiltshire Street,5108,Salisbury,Institute,Salisbury Pictures,230,,,,,,,,,,,,,,,1962 - 1963,1963 - 1964,1964 - 1965,1965 - 1966,1966 - 1967,,,,http://www.salisbury.sa.gov.au/Services/Libraries/Local_and_Family_History/Historical_Sites,
SA,Suburban,Cinema ,-34.762502,138.647604,17 Wiltshire Street,5108,Salisbury,Institute,L. R. Knuckey,…,,,,,,,,,,,,,,,,,,,,,1969 - 1970,,http://www.salisbury.sa.gov.au/Services/Libraries/Local_and_Family_History/Historical_Sites,
SA,Suburban,Cinema ,-34.762502,138.647604,17 Wiltshire Street,5108,Salisbury,Institute,L. R. Knuckey,275,,,,,,,,,,,,,,,,,,,,,,1971,http://www.salisbury.sa.gov.au/Services/Libraries/Local_and_Family_History/Historical_Sites,
SA,Suburban,Drive-in,-34.76647,138.625707,Winzor Street,5108,Salisbury Downs,Hollywood,…,1000,,,,,,,,,,,,,,,,,,,,1968 - 1969,1969 - 1970,1971,http://www.samemory.sa.gov.au/site/page.cfm?u=1292,
SA,Suburban,Cinema ,-35.031706,138.520790,35 Wheatland Street,5049,Seacliff,Windsor,B. E. Cunnew & Sons,280,1948 - 1949,1949 - 1950,1950 - 1951,1951 - 1952,,,,,,,,,,,,,,,,,,,,
SA,Suburban,Cinema ,-35.031706,138.520790,35 Wheatland Street,5049,Seacliff,Argosy,H. C. W. Goodfellow,280,,,,,1952 - 1953,1953 - 1954,1954 - 1955,1955 - 1956,1956 - 1957,1957 - 1958,,,,,,,,,,,,,,
SA,Suburban,Cinema ,-35.031706,138.520790,35 Wheatland Street,5049,Seacliff,Argosy,H. C. W. & M. Goodfellow,340,,,,,,,,,,,1958 - 1959,,,,,,,,,,,,,
SA,Suburban,Drive-in,-34.903064,138.514391,Tapleys Hill Road,5023,Seaton,Shandon,Shandon Drive-In Pty. Ltd.,825,,,,,,,,,,1957 - 1958,1958 - 1959,,,,,,,,,,,,http://www.samemory.sa.gov.au/site/page.cfm?u=1292,
SA,Suburban,Drive-in,-34.903064,138.514391,Tapleys Hill Road,5023,Seaton,Shandon,Shandon Drive-In Pty. Ltd.,1004 (seats 150),,,,,,,,,,,,1959 - 1960,1960 - 1961,1961 - 1962,1962 - 1963,1963 - 1964,1964 - 1965,1965 - 1966,,,,,http://www.samemory.sa.gov.au/site/page.cfm?u=1292,
SA,Suburban,Drive-in,-34.903064,138.514391,Tapleys Hill Road,5023,Seaton,Seaton Park,Seaton Park Drive-In Pty. Ltd.,1004 (seats 150),,,,,,,,,,,,,,,,,,,1966 - 1967,1968 - 1969,,,http://www.samemory.sa.gov.au/site/page.cfm?u=1292,
SA,Suburban,Drive-in,-34.903064,138.514391,Tapleys Hill Road,5023,Seaton,Seaton Park,Seaton Park Drive-In Pty. Ltd.,1030 (seats 150),,,,,,,,,,,,,,,,,,,,,1969 - 1970,,http://www.samemory.sa.gov.au/site/page.cfm?u=1292,
SA,Suburban,Drive-in,-34.903064,138.514391,Tapleys Hill Road,5023,Seaton,Seaton Park,Seaton Park Drive-In Pty. Ltd.,1027,,,,,,,,,,,,,,,,,,,,,,1971,http://www.samemory.sa.gov.au/site/page.cfm?u=1292,
SA,Suburban,Cinema ,-34.838925,138.484624,65 Semaphore Road,5019,Semaphore,Star,Clifford Theatre Circuit,1276,1948 - 1949,1949 - 1950,1950 - 1951,1951 - 1952,1952 - 1953,,,,,,,,,,,,,,,,,,,
SA,Suburban,Cinema ,-34.838925,138.484624,65 Semaphore Road,5019,Semaphore,Odeon,Clifford Theatre Circuit,1276,,,,,,1953 - 1954,1954 - 1955,1955 - 1956,,,,,,,,,,,,,,,,
SA,Suburban,Cinema ,-34.838925,138.484624,65 Semaphore Road,5019,Semaphore,Odeon,Clifford Theatre Circuit,1200,,,,,,,,,1956 - 1957,1957 - 1958,,,,,,,,,,,,,,
SA,Suburban,Cinema ,-34.838925,138.484624,65 Semaphore Road,5019,Semaphore,Odeon-Star,Clifford Theatre Circuit,1200,,,,,,,,,,,1958 - 1959,1959 - 1960,1960 - 1961,1961 - 1962,1962 - 1963,1963 - 1964,,,,,,,,
SA,Suburban,Cinema ,-34.838925,138.484624,65 Semaphore Road,5019,Semaphore,Odeon,Clifford Theatre Circuit,…,,,,,,,,,,,,,,,,,,1965 - 1966,1966 - 1967,,,,,
SA,Suburban,Cinema ,-34.838925,138.484624,65 Semaphore Road,5019,Semaphore,Odeon Star,Clifford Theatre Circuit,1165,,,,,,,,,,,,,,,,,,,,1968 - 1969,,,,
SA,Suburban,Cinema ,-34.838925,138.484624,65 Semaphore Road,5019,Semaphore,Odeon Star,Clifford Theatre Circuit,700,,,,,,,,,,,,,,,,,,,,,1969 - 1970,,,
SA,Suburban,Cinema ,-34.838925,138.484624,65 Semaphore Road,5019,Semaphore,Odeon ,Clifford Theatre Circuit,700,,,,,,,,,,,,,,,,,,,,,,1971,,
SA,Suburban,Cinema ,-34.838556,138.481213,2 Semaphore Road,5019,Semaphore,Ozone Semaphore,Ozone Theatres Ltd.,1193,1948 - 1949,1949 - 1950,1950 - 1951,,,,,,,,,,,,,,,,,,,,,
SA,Suburban,Cinema ,-34.838556,138.481213,2 Semaphore Road,5019,Semaphore,Ozone Semaphore,Hoyts-Ozone Theatres,1193,,,,1951 - 1952,1952 - 1953,1953 - 1954,1954 - 1955,1955 - 1956,,,,,,,,,,,,,,,,
SA,Suburban,Cinema ,-34.838556,138.481213,2 Semaphore Road,5019,Semaphore,Ozone Semaphore,Hoyts-Ozone Theatres,1095,,,,,,,,,1956 - 1957,1957 - 1958,,,,,,,,,,,,,,
SA,Suburban,Cinema ,-34.838556,138.481213,2 Semaphore Road,5019,Semaphore,Ozone Semaphore,Hoyts-Ozone Theatres,995,,,,,,,,,,,1958 - 1959,1959 - 1960,,,,,,,,,,,,
SA,Country/Rural,Cinema ,-32.376908,133.935876,,5680,Smoky Bay,Hall,P. L. Dodd,…,,,,,,,,,,,,,,,,,,,,1968 - 1969,1969 - 1970,,,
SA,Country/Rural,Cinema ,-33.783038,138.213734,,5520,Snowtown,Cinema,W. J. Richmond,…,,,,,,,,,,,,,,,,,,,,1968 - 1969,1969 - 1970,,,
SA,Country/Rural,Cinema ,-33.782139,138.214242,,5520,Snowtown,Institute,W. V. Benbow,350,1948 - 1949,,,,,,,,,,,,,,,,,,,,,,,
SA,Country/Rural,Cinema ,-33.782139,138.214242,,5520,Snowtown,Institute,Secretary,350,,1949 - 1950,1950 - 1951,1951 - 1952,1952 - 1953,1953 - 1954,1954 - 1955,1955 - 1956,,,,,,,,,,,,,,,,
SA,Country/Rural,Cinema ,-33.782139,138.214242,,5520,Snowtown,Institute,Secretary,450,,,,,,,,,1956 - 1957,1957 - 1958,,,,,,,,,,,,,,
SA,Country/Rural,Cinema ,-33.782139,138.214242,,5520,Snowtown,Institute,Sec. Committee,278,,,,,,,,,,,1958 - 1959,1959 - 1960,1960 - 1961,,,,,,,,,,,
SA,Country/Rural,Cinema ,-33.782139,138.214242,,5520,Snowtown,Institute,Institute Pictures,278,,,,,,,,,,,,,,1961 - 1962,1962 - 1963,1963 - 1964,1964 - 1965,,,,,,,
SA,Country/Rural,Touring Circuit,-33.499807,138.607846,,5454,Spalding,"Benbow Amusements Ltd., 221 Pirie Street, Adelaide",Benbow Amusements Ltd.,200,,1949 - 1950,,1951 - 1952,1952 - 1953,1953 - 1954,1954 - 1955,1955 - 1956,1956 - 1957,1957 - 1958,,,,,,,,,,,,,,
SA,Country/Rural,Cinema ,-33.499101,138.607592,,5454,Spalding,Institute,Dist. Council,170,,,,,,,,,,,1958 - 1959,1959 - 1960,1960 - 1961,1961 - 1962,1962 - 1963,1963 - 1964,1964 - 1965,1965 - 1966,1966 - 1967,,,,,
SA,Country/Rural,Cinema ,-33.499101,138.607592,,5454,Spalding,Institute,…,216,,,,,,,,,,,,,,,,,,,,,,1971,,
SA,Country/Rural,Touring Circuit,-34.910362,137.796915,,5582,Stansbury,"Benbow Amusements Ltd., 221 Pirie Street, Adelaide",Benbow Amusements Ltd.,157,,1949 - 1950,,1951 - 1952,1952 - 1953,1953 - 1954,1954 - 1955,1955 - 1956,1956 - 1957,1957 - 1958,1958 - 1959,1959 - 1960,1960 - 1961,,,,,,,,,,,
SA,Suburban,Cinema ,-34.908974,137.797169,,5582,Stansbury,Institute,Benbow Amusements,…,,,,,,,,,,,,,,,,,,,,1968 - 1969,1969 - 1970,,,
SA,Country/Rural,Cinema ,-35.004213,138.715049,Avenue Road,5152,Stirling,Institute,Mrs. M. A. Pepper,220,1948 - 1949,,,,,,,,,,,,,,,,,,,,,,http://www.sct.org.au/history.html,
SA,Suburban,Cinema ,-35.004213,138.715049,Avenue Road,5152,Stirling,Institute,Avon Theatres Ltd.,312,,1949 - 1950,,,,,,,,,,,,,,,,,,,,,http://www.sct.org.au/history.html,
SA,Suburban,Cinema ,-35.004213,138.715049,Avenue Road,5152,Stirling,Institute,Clifford Theatre Circuit,312,,,1950 - 1951,1951 - 1952,1952 - 1953,,,,,,,,,,,,,,,,,,http://www.sct.org.au/history.html,
SA,Suburban,Cinema ,-35.004213,138.715049,Avenue Road,5152,Stirling,Avon Star,Clifford Theatre Circuit,312,,,,,,1953 - 1954,1954 - 1955,1955 - 1956,,,,,,,,,,,,,,,http://www.sct.org.au/history.html,
SA,Suburban,Cinema ,-35.004213,138.715049,Avenue Road,5152,Stirling,Avon Star,Clifford Theatre Circuit,220,,,,,,,,,1956 - 1957,1957 - 1958,,,,,,,,,,,,,http://www.sct.org.au/history.html,
SA,Suburban,Cinema ,-35.004213,138.715049,Avenue Road,5152,Stirling,Institute,Clifford Theatre Circuit,220,,,,,,,,,,,1958 - 1959,,,,,,,,,,,,http://www.sct.org.au/history.html,
SA,Suburban,Cinema ,-35.004213,138.715049,Avenue Road,5152,Stirling,Summit,H. Reynolds,220,,,,,,,,,,,,1959 - 1960,1960 - 1961,1961 - 1962,1962 - 1963,1963 - 1964,1964 - 1965,1965 - 1966,1966 - 1967,1968 - 1969,,,http://www.sct.org.au/history.html,
SA,Country/Rural,Cinema ,-35.004213,138.715049,Avenue Road,5152,Stirling,…,A. H. L Hodgert,…,,,,,,,,,,,,,,,,,,,,,1969 - 1970,,http://www.sct.org.au/history.html,
SA,Suburban,Cinema ,-35.004213,138.715049,Avenue Road,5152,Stirling,Summit,L. R. Knuckey,220,,,,,,,,,,,,,,,,,,,,,1969 - 1970,,http://www.sct.org.au/history.html,
SA,Country/Rural,Cinema ,-35.004213,138.715049,Avenue Road,5152,Stirling,Summit (Institute),A. H. L Hodgert,250,,,,,,,,,,,,,,,,,,,,,,1971,http://www.sct.org.au/history.html,
SA,Country/Rural,Cinema ,-35.25929,138.892972,,5255,Strathalbyn,Strathalbyn,"Strathalbyn Theatres, Clem Williams",…,,,,,,,,,,,,,,,,,,,,1968 - 1969,1969 - 1970,,,
SA,Country/Rural,Cinema ,-35.25929,138.892972,,5255,Strathalbyn,Strathalbyn,Clem Williams,300,,,,,,,,,,,,,,,,,,,,,,1971,,
SA,Country/Rural,Cinema ,-35.259013,138.892633,,5255,Strathalbyn,Jenson,Williams & Harrison Pty. Ltd.,500,1948 - 1949,,,,,,,,,,,,,,,,,,,,,,,
SA,Country/Rural,Cinema ,-35.258875,138.890348,,5255,Strathalbyn,Avon,Avon Theatres Ltd.,490,,1949 - 1950,,,,,,,,,,,,,,,,,,,,,,
SA,Country/Rural,Cinema ,-35.258875,138.890348,,5255,Strathalbyn,Avon,Clifford Theatre Circuit,490,,,1950 - 1951,1951 - 1952,1952 - 1953,,,,,,,,,,,,,,,,,,,
SA,Country/Rural,Cinema ,-35.258875,138.890348,,5255,Strathalbyn,Avon Star,Clifford Theatre Circuit,490,,,,,,1953 - 1954,1954 - 1955,1955 - 1956,,,,,,,,,,,,,,,,
SA,Country/Rural,Cinema ,-35.258875,138.890348,,5255,Strathalbyn,Avon Star,Clifford Theatre Circuit,460,,,,,,,,,1956 - 1957,1957 - 1958,1958 - 1959,1959 - 1960,1960 - 1961,1961 - 1962,,,,,,,,,,
SA,Country/Rural,Touring Circuit,-35.254934,138.892553,11 High Street,5255,Strathalbyn,Town Hall Pics (A. H. Thomas),A. H. Thomas,,,1949 - 1950,1950 - 1951,1951 - 1952,1952 - 1953,1953 - 1954,1954 - 1955,1955 - 1956,1956 - 1957,1957 - 1958,,,,,,,,,,,,,,
SA,Country/Rural,Cinema ,-32.795778,134.211439,,5680,Streaky Bay,Institute,A. A. Abbott,300,1948 - 1949,1949 - 1950,1950 - 1951,1951 - 1952,1952 - 1953,,,,,,,,,,,,,,,,,,,
SA,Country/Rural,Cinema ,-32.795778,134.211439,,5680,Streaky Bay,Institute,Abbott Bros.,300,,,,,,1953 - 1954,1954 - 1955,1955 - 1956,,,,,,,,,,,,,,,,
SA,Country/Rural,Cinema ,-32.795778,134.211439,,5680,Streaky Bay,Institute,Committee,300,,,,,,,,,1956 - 1957,1957 - 1958,,,,,,,,,,,,,,
SA,Country/Rural,Cinema ,-32.795778,134.211439,,5680,Streaky Bay,Institute,Streaky Bay Instit. C'tee. & L. A. Worby,300,,,,,,,,,,,1958 - 1959,1959 - 1960,1960 - 1961,,,,,,,,,,,
SA,Country/Rural,Cinema ,-32.795778,134.211439,,5680,Streaky Bay,Institute,Institute Pictures,300,,,,,,,,,,,,,,1961 - 1962,1962 - 1963,,,,,,,,,
SA,Country/Rural,Cinema ,-32.795778,134.211439,,5680,Streaky Bay,Institute,L. Worby,300,,,,,,,,,,,,,,,,1963 - 1964,1964 - 1965,1965 - 1966,1966 - 1967,1968 - 1969,1969 - 1970,,,
SA,Country/Rural,Cinema ,-32.795778,134.211439,,5680,Streaky Bay,Institute,L. Worby,350,,,,,,,,,,,,,,,,,,,,,,1971,,
SA,Country/Rural,Cinema ,-35.253945,139.453882,,5260,Tailem Bend,Institute,H. Bromley,285,1948 - 1949,1949 - 1950,1950 - 1951,1951 - 1952,1952 - 1953,1953 - 1954,,,,,,,,,,,,,,,,,,
SA,Country/Rural,Cinema ,-35.253945,139.453882,,5260,Tallem Bend,Institute,H. Bromley,500,,,,,,,,,,,1958 - 1959,1959 - 1960,,,,,,,,,,,,
SA,Country/Rural,Cinema ,-35.253945,139.453882,,5260,Tallem Bend,Institute,J. R. Scriven,500,,,,,,,,,,,,,,1961 - 1962,,,,,,,,,,
SA,Country/Rural,Cinema ,-34.523535,138.961553,,5232,Tanunda,Institute,R. L. Hawkes,500,1948 - 1949,1949 - 1950,1950 - 1951,1951 - 1952,1952 - 1953,1953 - 1954,1954 - 1955,1955 - 1956,1956 - 1957,1957 - 1958,,,,,,,,,,,,,,
SA,Country/Rural,Cinema ,-34.523535,138.961553,,5232,Tanunda,Institute,R. L. Hawkes,476,,,,,,,,,,,1958 - 1959,1959 - 1960,1960 - 1961,1961 - 1962,,,,,,,,,,
SA,Country/Rural,Cinema ,-34.523535,138.961553,,5232,Tanunda,Institute,Institute Pictures,476,,,,,,,,,,,,,,,1962 - 1963,1963 - 1964,,,,,,,,
SA,Country/Rural,Cinema ,-34.523535,138.961553,,5232,Tanunda,Institute,Regal Pictures,476,,,,,,,,,,,,,,,,,1964 - 1965,,,,,,,
SA,Country/Rural,Drive-in,-34.497936,138.984816,Barossa Valley Highway,5232,Tanunda,Barossaline,Barossaline Drive-In Theatres Ltd.,300,,,,,,,,,,,,1959 - 1960,1960 - 1961,1961 - 1962,1962 - 1963,1963 - 1964,1964 - 1965,1965 - 1966,,,,,http://www.samemory.sa.gov.au/site/page.cfm?u=1292,
SA,Country/Rural,Drive-in,-34.497936,138.984816,Barossa Valley Highway,5232,Tanunda,Barossaline,Barossaline Drive-In Theatres Ltd.,308,,,,,,,,,,,,,,,,,,,1966 - 1967,,,,http://www.samemory.sa.gov.au/site/page.cfm?u=1292,
SA,Country/Rural,Drive-in,-34.497936,138.984816,Barossa Valley Highway,5232,Tanunda,Barossaline,Barossaline Drive-In Theatres Ltd.,316,,,,,,,,,,,,,,,,,,,,1968 - 1969, ,,http://www.samemory.sa.gov.au/site/page.cfm?u=1292,
SA,Country/Rural,Drive-in,-34.497936,138.984816,Barossa Valley Highway,5232,Tanunda,Barossaline,Barossaline Drive-In Theatres Ltd.,300,,,,,,,,,,,,,,,,,,,,,1969 - 1970,,http://www.samemory.sa.gov.au/site/page.cfm?u=1292,
SA,Country/Rural,Drive-in,-34.497936,138.984816,Barossa Valley Highway,5232,Tanunda,Barossaline,…,250,,,,,,,,,,,,,,,,,,,,,,1971,http://www.samemory.sa.gov.au/site/page.cfm?u=1292,
SA,Country/Rural,Cinema ,-30.709337,134.564603,,5710,Tarcoola,Pictures,Mrs. E. C. Graham,100,1948 - 1949,1949 - 1950,1950 - 1951,,,,,,,,,,,,,,,,,,,,,
SA,Country/Rural,Touring Circuit,-34.273998,138.771085,,5411,Tarlee,L. N. Mullens,L. N. Mullens,,,,,,,,1954 - 1955,,1956 - 1957,1957 - 1958,,,,1961 - 1962,,,,,,,,,,
SA,Suburban,Cinema ,-34.820757,138.727284,,5091,Tea Tree Gully,Institute,Pinchbeck & Downs,200,1948 - 1949,,,,,,,,,,,,,,,,,,,,,,,
SA,Suburban,Cinema ,-34.820757,138.727284,,5091,Tea Tree Gully,Institute,K. Gregory,200,,1949 - 1950,1950 - 1951,,,,,,,,,,,,,,,,,,,,,
SA,Country/Rural,Cinema ,-33.150367,138.919335,,5421,Terowie,Institute,L. Lester,200,1948 - 1949,,,,,,,,,,,,,,,,,,,,,,,
SA,Country/Rural,Cinema ,-33.150367,138.919335,,5421,Terowie,Institute,Secretary,200,,1949 - 1950,1950 - 1951,1951 - 1952,1952 - 1953,1953 - 1954,1954 - 1955,1955 - 1956,,,,,,,,,,,,,,,,
SA,Country/Rural,Cinema ,-33.150367,138.919335,,5421,Terowie,Institute,Secretary,270,,,,,,,,,1956 - 1957,1957 - 1958,,,,,,,,,,,,,,
SA,Country/Rural,Cinema ,-33.150367,138.919335,,5421,Terowie,Institute,Committee,279,,,,,,,,,,,1958 - 1959,1959 - 1960,1960 - 1961,1961 - 1962,1962 - 1963,1963 - 1964,1964 - 1965,1965 - 1966,1966 - 1967,,,,,
SA,Suburban,Cinema ,-34.923650,138.569030,114 Henley Beach Road,5031,Thebarton,Town Hall,Clifford Theatre Circuit,1910,1948 - 1949,1949 - 1950,1950 - 1951,1951 - 1952,1952 - 1953,1953 - 1954,1954 - 1955,,,,,,,,,,,,,,,,,
SA,Suburban,Cinema ,-34.923650,138.569030,114 Henley Beach Road,5031,Thebarton,Odeon,Clifford Theatre Circuit,1910,,,,,,,,1955 - 1956,,,,,,,,,,,,,,,,
SA,Suburban,Cinema ,-34.923650,138.569030,114 Henley Beach Road,5031,Thebarton,Odeon,Clifford Theatre Circuit,1950,,,,,,,,,1956 - 1957,1957 - 1958,1958 - 1959,1959 - 1960,1960 - 1961,1961 - 1962,1962 - 1963,1963 - 1964,1964 - 1965,,,,,,,
SA,Country/Rural,Cinema ,-34.923650,138.569030,114 Henley Beach Road,5031,Thebarton,Town Hall,…,1850,,,,,,,,,,,,,,,,,,,,,,1971,,
SA,Country/Rural,Cinema ,-32.14601,133.650032,,5690,Thevenard,Institute,P. S. Morrison,130,1948 - 1949,1949 - 1950,1950 - 1951,1951 - 1952,1952 - 1953,1953 - 1954,1954 - 1955,1955 - 1956,1956 - 1957,1957 - 1958,,,,,,,,,,,,,,
SA,Country/Rural,Cinema ,-32.14601,133.650032,,5690,Thevenard,Institute,P. S. Morrison,125,,,,,,,,,,,1958 - 1959,1959 - 1960,,,,,,,,,,,,
SA,Country/Rural,Cinema ,-32.14601,133.650032,,5690,Thevenard,Institute,E. Moschos,125,,,,,,,,,,,,,,,,1963 - 1964,1964 - 1965,1965 - 1966,1966 - 1967,,,,,
SA,Country/Rural,Cinema ,-32.14601,133.650032,,5690,Thevenard,Institute,…,130,,,,,,,,,,,,,,,,,,,,,,1971,,
SA,Country/Rural,Cinema ,-35.88282,140.05462,,5266,Tintinara,Institute,H. J. Zacker,400,,,,,,,,,,,,,,1961 - 1962,1962 - 1963,1963 - 1964,1964 - 1965,1965 - 1966,1966 - 1967,,,,,
SA,Country/Rural,Cinema ,-35.88282,140.05462,,5266,Tintinara,Institute,W. Burton,150,,,,,,,,,,,,,,,,,,,,1968 - 1969,,,,
SA,Country/Rural,Cinema ,-35.88282,140.05462,,5266,Tintinara,Institute,Institute Committee,400,,,,,,,,,,,,,,,,,,,,,1969 - 1970,1971,,
SA,Country/Rural,Cinema ,-34.37523,136.102522,,5605,Tumby Bay,Institute,Mrs. E. I. Hawkes,350,1948 - 1949,1949 - 1950,1950 - 1951,1951 - 1952,1952 - 1953,,,,,,,,,,,,,,,,,,,
SA,Country/Rural,Cinema ,-34.37523,136.102522,,5605,Tumby Bay,Soldiers' Memorial Hall,Secretary,350,,,,,,1953 - 1954,1954 - 1955,1955 - 1956,,,,,,,,,,,,,,,,
SA,Country/Rural,Cinema ,-34.37523,136.102522,,5605,Tumby Bay,Soldiers' Memorial Hall,Secretary,250,,,,,,,,,1956 - 1957,1957 - 1958,,,,,,,,,,,,,,
SA,Country/Rural,Cinema ,-34.37523,136.102522,,5605,Tumby Bay,Soldiers' Memorial Hall,Secretary,225,,,,,,,,,,,1958 - 1959,,,,,,,,,,,,,
SA,Country/Rural,Cinema ,-34.37523,136.102522,,5605,Tumby Bay,Soldiers' Memorial Hall,Soldiers' Mem. Pic. Find. Committee,225,,,,,,,,,,,,1959 - 1960,1960 - 1961,,,,,,,,,,,
SA,Country/Rural,Cinema ,-34.37523,136.102522,,5605,Tumby Bay,Institute,Soldiers' Mem. Pic. Find. Committee,225,,,,,,,,,,,,,,1961 - 1962,1962 - 1963,1963 - 1964,1964 - 1965,1965 - 1966,1966 - 1967,,,,,
SA,Country/Rural,Cinema ,-34.37523,136.102522,,5605,Tumby Bay,…,Tumby Bay Soldiers' Mem. Hall & Fund Pic. Committee,225,,,,,,,,,,,,,,,,,,,,1968 - 1969,1969 - 1970,,,
SA,Country/Rural,Cinema ,-34.37523,136.102522,,5605,Tumby Bay,Institute,H. J. Zacker,400,,,,,,,,,,,,,,,,,,,,1968 - 1969,,,,
SA,Country/Rural,Cinema ,-34.37523,136.102522,,5605,Tumby Bay,…,Tumby Bay Soldiers' Mem. Hall & Fund Pic. Committee,988,,,,,,,,,,,,,,,,,,,,,,1971,,
SA,Country/Rural,Cinema ,-34.594795,138.515834,,5501,Two Wells,Institute,R. H. Bilney,230,,1949 - 1950,1950 - 1951,1951 - 1952,1952 - 1953,1953 - 1954,1954 - 1955,1955 - 1956,1956 - 1957,1957 - 1958,,,,,,,,,,,,,,
SA,Country/Rural,Cinema ,-34.594795,138.515834,,5501,Two Wells,Institute,R. H. Bilney,235,,,,,,,,,,,1958 - 1959,1959 - 1960,,,,,,,,,,,,
SA,Country/Rural,Cinema ,-34.594795,138.515834,,5501,Two Wells,Institute,B. K. Fuss,120,,,,,,,,,,,,,,,,1963 - 1964,1964 - 1965,1965 - 1966,1966 - 1967,,,,,
SA,Suburban,Cinema ,-34.958560,138.607857,Corner of Oxford Terrace and Unley Road,5061,Unley,City Hall,Talkies Ltd.,950,1948 - 1949,,,,,,,,,,,,,,,,,,,,,,,
SA,Suburban,Cinema ,-34.951185,138.607337,222 Unley Road,5061,Unley,Star,Clifford Theatre Circuit,1997,1948 - 1949,,,,,,,,,,,,,,,,,,,,,,,
SA,Suburban,Cinema ,-34.951185,138.607337,222 Unley Road,5061,Unley,Odeon,Clifford Theatre Circuit,1997,,1949 - 1950,1950 - 1951,1951 - 1952,1952 - 1953,1953 - 1954,1954 - 1955,1955 - 1956,,,,,,,,,,,,,,,,
SA,Suburban,Cinema ,-34.951185,138.607337,222 Unley Road,5061,Unley,Odeon,Clifford Theatre Circuit,1730,,,,,,,,,1956 - 1957,1957 - 1958,,,,,,,,,,,,,,
SA,Suburban,Cinema ,-34.951185,138.607337,222 Unley Road,5061,Unley,Odeon-Star,Clifford Theatre Circuit,1730,,,,,,,,,,,1958 - 1959,1959 - 1960,1960 - 1961,1961 - 1962,1962 - 1963,1963 - 1964,,,,,,,,
SA,Suburban,Cinema ,-34.950626,138.607354,194-8 Unley Road,5061,Unley,Ozone Unley,Ozone Theatres Ltd.,991,1948 - 1949,1949 - 1950,1950 - 1951,,,,,,,,,,,,,,,,,,,,,
SA,Suburban,Cinema ,-34.950626,138.607354,194-8 Unley Road,5061,Unley,Ozone Unley,Hoyts-Ozone Theatres,991,,,,1951 - 1952,1952 - 1953,1953 - 1954,1954 - 1955,1955 - 1956,,,,,,,,,,,,,,,,
SA,Suburban,Cinema ,-34.950626,138.607354,194-8 Unley Road,5061,Unley,Ozone Unley,Hoyts-Ozone Theatres,982,,,,,,,,,1956 - 1957,1957 - 1958,,,,,,,,,,,,,,
SA,Suburban,Cinema ,-34.950626,138.607354,194-8 Unley Road,5061,Unley,Ozone Unley,Hoyts-Ozone Theatres,963,,,,,,,,,,,1958 - 1959,1959 - 1960,1960 - 1961,1961 - 1962,1962 - 1963,,,,,,,,,
SA,Country/Rural,Cinema ,-34.95612,138.744679,,5142,Uraidla,Institute,E. G. Gill,300,1948 - 1949,,,,,,,,,,,,,,,,,,,,,,,
SA,Country/Rural,Cinema ,-35.55443,138.622853,37 - 41 Ocean Street,5211,Victor Harbor,Cinema,Hoyts-Ozone,904,,,,,,,,,,,,,,,,,,,,1968 - 1969,,,,
SA,Country/Rural,Cinema ,-35.5539,138.623028,37 - 41 Ocean Street,5211,Victor Harbor,Ozone,Ozone Theatres Ltd.,910,1948 - 1949,1949 - 1950,1950 - 1951,,,,,,,,,,,,,,,,,,,,,
SA,Country/Rural,Cinema ,-35.5539,138.623028,37 - 41 Ocean Street,5211,Victor Harbor,Ozone,Hoyts-Ozone Theatres,910,,,,1951 - 1952,1952 - 1953,1953 - 1954,1954 - 1955,1955 - 1956,,,,,,,,,,,,,,,,
SA,Country/Rural,Cinema ,-35.5539,138.623028,37 - 41 Ocean Street,5211,Victor Harbor,Ozone,Hoyts-Ozone Theatres,919,,,,,,,,,1956 - 1957,1957 - 1958,,,,,,,,,,,,,,
SA,Country/Rural,Cinema ,-35.5539,138.623028,37 - 41 Ocean Street,5211,Victor Harbor,Ozone,Hoyts-Ozone Theatres,812,,,,,,,,,,,1958 - 1959,1959 - 1960,1960 - 1961,1961 - 1962,1962 - 1963,1963 - 1964,1964 - 1965,,,,,,,
SA,Country/Rural,Cinema ,-35.5539,138.623028,37 - 41 Ocean Street,5211,Victor Harbor,Cinema,Hoyts-Ozone,904,,,,,,,,,,,,,,,,,,,,,1969 - 1970,,,
SA,Country/Rural,Cinema ,-35.5539,138.623028,37 - 41 Ocean Street,5211,Victor Harbor,Victa,Hoyts-Ozone,919,,,,,,,,,,,,,,,,,,,,,,1971,,
SA,Country/Rural,Drive-in,-34.185184,139.977226,,5330,Waikerie,Bel-Air,R. Ball,290,,,,,,,,,,,,1959 - 1960,1960 - 1961,1961 - 1962,1962 - 1963,1963 - 1964,1964 - 1965,1965 - 1966,1966 - 1967,,,,,
SA,Country/Rural,Drive-in,-34.185184,139.977226,,5330,Waikerie,Bel-Air,R. Ball,280,,,,,,,,,,,,,,,,,,,,1968 - 1969,,,,
SA,Country/Rural,Drive-in,-34.185184,139.977226,,5330,Waikerie,Bel-Air,Jim Williams,280,,,,,,,,,,,,,,,,,,,,,1969 - 1970,1971,,
SA,Country/Rural,Cinema ,-34.179592,139.986276,,5330,Waikerie,Austral,J. Lewis,350,1948 - 1949,1949 - 1950,1950 - 1951,1951 - 1952,1952 - 1953,,,,,,,,,,,,,,,,,,,
SA,Country/Rural,Cinema ,-34.179592,139.986276,,5330,Waikerie,Austral,R. Ball,350,,,,,,1953 - 1954,1954 - 1955,1955 - 1956,,,,,,,,,,,,,,,,
SA,Country/Rural,Cinema ,-34.179592,139.986276,,5330,Waikerie,Austral,R. Ball,450,,,,,,,,,1956 - 1957,1957 - 1958,,,,,,,,,,,,,,
SA,Country/Rural,Drive-in,-34.179592,139.986276,,5330,Waikerie,Memorial Hall,R. Ball,453,,,,,,,,,,,1958 - 1959,1959 - 1960,,,,,,,,,,,,
SA,Suburban,Cinema ,-34.897517,138.614564,62-6 Walkerville Terrace,5081,Walkerville,Institute,W. L. Boyle,400,1948 - 1949,,,,,,,,,,,,,,,,,,,,,,,
SA,Suburban,Cinema ,-34.897517,138.614564,62-6 Walkerville Terrace,5081,Walkerville,Star,Clifford Theatre Circuit,470,,1949 - 1950,1950 - 1951,1951 - 1952,1952 - 1953,1953 - 1954,1954 - 1955,1955 - 1956,,,,,,,,,,,,,,,,
SA,Suburban,Cinema ,-34.897517,138.614564,62-6 Walkerville Terrace,5081,Walkerville,Star,Clifford Theatre Circuit,400,,,,,,,,,1956 - 1957,1957 - 1958,,,,,,,,,,,,,,
SA,Suburban,Cinema ,-34.897517,138.614564,62-6 Walkerville Terrace,5081,Walkerville,Institute,Clifford Theatre Circuit,400,,,,,,,,,,,1958 - 1959,,,,,,,,,,,,,
SA,Suburban,Cinema ,-34.897517,138.614564,62-6 Walkerville Terrace,5081,Walkerville,Institute,H. C. & M. Goodfellow,400,,,,,,,,,,,,1959 - 1960,1960 - 1961,1961 - 1962,,,,,,,,,,
SA,Suburban,Cinema ,-34.897517,138.614564,62-6 Walkerville Terrace,5081,Walkerville,Kings,H. C. & M. Goodfellow,400,,,,,,,,,,,,,,,1962 - 1963,1963 - 1964,1964 - 1965,,,,,,,
SA,Suburban,Cinema ,-34.897517,138.614564,62-6 Walkerville Terrace,5081,Walkerville,Cameo,Cameo Cinemas,…,,,,,,,,,,,,,,,,,,,,1968 - 1969,1969 - 1970,,,
SA,Suburban,Cinema ,-34.89521,138.617208,,5081,Walkerville,Town Hall (Windsor),…,420,,,,,,,,,,,,,,,,,,,,,,1971,,
SA,Country/Rural,Cinema ,-33.932988,137.627831,Irwin Street,5556,Wallaroo,Town Hall,Wallaroo Entertainment Co.,942,1948 - 1949,1949 - 1950,1950 - 1951,1951 - 1952,1952 - 1953,1953 - 1954,1954 - 1955,1955 - 1956,1956 - 1957,1957 - 1958,,,,,,,,,,,,,,
SA,Country/Rural,Cinema ,-33.932988,137.627831,Irwin Street,5556,Wallaroo,Town Hall,Wallaroo Entertainment Co.,880,,,,,,,,,,,1958 - 1959,1959 - 1960,1960 - 1961,1961 - 1962,1962 - 1963,1963 - 1964,1964 - 1965,,,,,,,
SA,Country/Rural,Cinema ,-33.932988,137.627831,Irwin Street,5556,Wallaroo,Town Hall,…,880,,,,,,,,,,,,,,,,,,,,,,1971,,
SA,Country/Rural,Touring Circuit,-34.990576,137.401028,,5577,Warooka,"Benbow Amusements Ltd., 221 Pirie Street, Adelaide",Benbow Amusements Ltd.,160,,1949 - 1950,,1951 - 1952,1952 - 1953,1953 - 1954,1954 - 1955,1955 - 1956,1956 - 1957,1957 - 1958,1958 - 1959,1959 - 1960,1961 - 1962,,1962 - 1963,,,,,,,,,
SA,Suburban,Cinema ,-35.009173,138.540447,Corner of Morphett Road and Murray Terrace,5046,Warradale,Institute,Warradale Pictures,170,,,,,,1953 - 1954,1954 - 1955,1955 - 1956,1956 - 1957,1957 - 1958,,,,,,,,,,,,,,
SA,Suburban,Cinema ,-35.009173,138.540447,Corner of Morphett Road and Murray Terrace,5046,Warradale,Institute,C. F. Johns,160,,,,,,,,,,,1958 - 1959,1959 - 1960,,,,,,,,,,,,
SA,Country/Rural,Cinema ,-33.241782,135.598207,,5650,Warramboo,District Hall,Community Cinema,150,,,,,,,,,,,1958 - 1959,1959 - 1960,1960 - 1961,,,,,,,,,,,
SA,Country/Rural,Cinema ,-33.241782,135.598207,,5650,Warramboo,District Hall,Waramboo Inst. Cinema,150,,,,,,,,,,,,,,1961 - 1962,1962 - 1963,1963 - 1964,1964 - 1965,1965 - 1966,1966 - 1967,,,,,
SA,Country/Rural,Cinema ,-33.241782,135.598207,,5650,Warramboo,District Hall,Community Cinema,150,,,,,,,,,,,,,,,,,,,,1968 - 1969,1969 - 1970,1971,,
SA,Country/Rural,Cinema ,-34.47244,138.684011,,5400,Wasleys,Institute,Wasleys Cinema,-,,,,1951 - 1952,,,,,,,,,,,,,,,,,,,,
SA,Country/Rural,Cinema ,-34.47244,138.684011,,5400,Wasleys,Institute,D. Hart,225,,,,,,1953 - 1954,,,,,,,,,,,,,,,,,,
SA,Country/Rural,Touring Circuit,-33.960289,138.645219,,5452,Watervale,L. N. Mullens,L. N. Mullens,250,,1949 - 1950,1950 - 1951,1951 - 1952,1952 - 1953,1953 - 1954,1954 - 1955,1955 - 1956,1956 - 1957,1957 - 1958,1958 - 1959,1959 - 1960, ,,,,,,,,,,,
SA,Suburban,Drive-in,-34.945648,138.504988,Corner of West Beach and Military Roads,5024,West Beach,Blueline,Blueline Drive-In Theatres Ltd.,500,,,,,,,,,,1957 - 1958,,,,,,,,,,,,,http://www.samemory.sa.gov.au/site/page.cfm?u=1292,
SA,Suburban,Drive-in,-34.945648,138.504988,Corner of West Beach and Military Roads,5024,West Beach,Blueline,Blueline Drive-In Theatres Ltd.,500,,,,,,,,,,,1958 - 1959,1959 - 1960,1960 - 1961,1961 - 1962,1962 - 1963,1963 - 1964,1964 - 1965,1965 - 1966,,,,,http://www.samemory.sa.gov.au/site/page.cfm?u=1292,
SA,Suburban,Drive-in,-34.945648,138.504988,Corner of West Beach and Military Roads,5024,West Beach,Blueline,Blueline Drive-In Theatres Ltd.,564,,,,,,,,,,,,,,,,,,,1966 - 1967,,,,http://www.samemory.sa.gov.au/site/page.cfm?u=1292,
SA,Suburban,Drive-in,-34.945648,138.504988,Corner of West Beach and Military Roads,5024,West Beach,Blueline,Blueline Drive-In Theatres Ltd.,512,,,,,,,,,,,,,,,,,,,,1968 - 1969,1969 - 1970,1971,http://www.samemory.sa.gov.au/site/page.cfm?u=1292,
SA,Country/Rural,Open Air,-33.040207,137.578574,,5600,Whyalla,Pacific Open Air,"Institute Pics., Whyalla",800,,1949 - 1950,1950 - 1951,1951 - 1952,1952 - 1953,1953 - 1954,1954 - 1955,1955 - 1956,1956 - 1957,1957 - 1958,,,,,,,,,,,,,,
SA,Country/Rural,Open Air,-33.040207,137.578574,,5600,Whyalla,Pacific ,Acct. Pac. Thr.,750,,,,,,,,,,,1958 - 1959,1959 - 1960,,,,,,,,,,,,
SA,Country/Rural,Open Air,-33.040207,137.578574,,5600,Whyalla,Pacific ,Institute Pictures,750,,,,,,,,,,,,,1960 - 1961,1961 - 1962,1962 - 1963,1963 - 1964,1964 - 1965,,,,,,,
SA,Country/Rural,Drive-in,-33.037977,137.573628,,5600,Whyalla,Shandon,Shandon Drive-In Pty. Ltd.,500,,,,,,,,,,,,1959 - 1960,1960 - 1961,1961 - 1962,1962 - 1963,1963 - 1964,1964 - 1965,1965 - 1966,1966 - 1967,1968 - 1969,1969 - 1970,1971,,
SA,Country/Rural,Cinema ,-33.034399,137.584915,,5600,Whyalla,Ozone,Ozone Theatres Ltd.,1194,1948 - 1949,1949 - 1950,1950 - 1951,,,,,,,,,,,,,,,,,,,,,
SA,Country/Rural,Cinema ,-33.034399,137.584915,,5600,Whyalla,Institute,"Institute Pics., Whyalla",500,1948 - 1949,,,,,,,,,,,,,,,,,,,,,,,
SA,Country/Rural,Cinema ,-33.034399,137.584915,,5600,Whyalla,Ozone,Hoyts-Ozone Theatres,1194,,,,1951 - 1952,1952 - 1953,1953 - 1954,1954 - 1955,1955 - 1956,1956 - 1957,1957 - 1958,,,,,,,,,,,,,,
SA,Country/Rural,Cinema ,-33.034399,137.584915,,5600,Whyalla,Ozone,Austin Silby Thrs. Ltd.,1000,,,,,,,,,,,1958 - 1959,1959 - 1960,1960 - 1961,1961 - 1962,,,,,,,,,,
SA,Country/Rural,Cinema ,-33.034399,137.584915,,5600,Whyalla,Civic,Flinders Drive-ins,1197,,,,,,,,,,,,,,,,,,,,,,1971,,
SA,Country/Rural,Cinema ,-33.031284,137.584276,,5600,Whyalla,Civic,Whyalla Theatres,1201,,,,,,,,,,,,,,,1962 - 1963,1963 - 1964,1964 - 1965,1965 - 1966,1966 - 1967,1968 - 1969,1969 - 1970,,,
SA,Country/Rural,Open Air,-36.396152,140.309316,,5267,Willalooka,Open Air,Progress Association,200,,,,,,,,,,,,,,,,1963 - 1964,1964 - 1965,1965 - 1966,1966 - 1967,1968 - 1969,1969 - 1970,1971,,
SA,Country/Rural,Cinema ,-36.396128,140.310118,,5267,Willalooka,Institute,Progress Association,200,,,,,,,,,,,,,,,1962 - 1963,,,,,,,,,
SA,Country/Rural,Cinema ,-34.671029,138.890383,,5351,Williamstown,Institute,J. A. Morcom,250,1948 - 1949,1949 - 1950,1950 - 1951,1951 - 1952,1952 - 1953,1953 - 1954,1954 - 1955,1955 - 1956,1956 - 1957,1957 - 1958,,,,,,,,,,,,,,
SA,Country/Rural,Cinema ,-34.671029,138.890383,,5351,Williamstown,Institute,J. A. Morcom,223,,,,,,,,,,,1958 - 1959,,,,,,,,,,,,,
SA,Country/Rural,Cinema ,-34.671029,138.890383,,5351,Williamstown,Institute,K. Gregory,223,,,,,,,,,,,,1959 - 1960,,,,,,,,,,,,
SA,Country/Rural,Touring Circuit,-35.270718,138.554085,,5172,Willunga,"F. L. Pudney, Box 25, Willunga (All Districts)",F. L. Pudney,,1948 - 1949,,,,,,,,,,,,,,,,,,,,,,,
SA,Country/Rural,Touring Circuit,-35.27063,138.554022,,5172,Willunga,L. Hailstone,L. Hailstone,250,,1949 - 1950,,,,,,,,,,,,,,,,,,,,,,
SA,Country/Rural,Touring Circuit,-35.27063,138.554022,,5172,Willunga,L. Hailstone,L. Hailstone,250,,,1950 - 1951,1951 - 1952,1952 - 1953,1953 - 1954,,,,,,,,,,,,,,,,,,
SA,Country/Rural,Cinema ,-35.270599,138.553843,Main Road,5172,Willunga,Institute,D. J. Caffery,350,1948 - 1949,,,,,,,,,,,,,,,,,,,,,,,
SA,Country/Rural,Cinema ,-35.270599,138.553843,Main Road,5172,Willunga,Institute,Mrs. F. P. Hynes,150,,,,,,,1954 - 1955,,,,,,,,,,,,,,,,,
SA,Country/Rural,Cinema ,-35.270599,138.553843,Main Road,5172,Willunga,Institute,Institute Committee ,250,,,,,,,,1955 - 1956,,,,,,,,,,,,,,,,
SA,Country/Rural,Cinema ,-35.270599,138.553843,Main Road,5172,Willunga,Institute,Institute Committee ,350,,,,,,,,,1956 - 1957,1957 - 1958,,,,,,,,,,,,,,
SA,Country/Rural,Cinema ,-35.270599,138.553843,Main Road,5172,Willunga,Institute,Institute Committee ,220,,,,,,,,,,,1958 - 1959,,,,,,,,,,,,,
SA,Country/Rural,Cinema ,-35.270599,138.553843,Main Road,5172,Willunga,Institute,Willunga New Hall Committee,220,,,,,,,,,,,,1959 - 1960,,,,,,,,,,,,
SA,Country/Rural,Cinema ,-32.651278,138.099005,,5485,Wilmington,Institute,Secretary,200,,1949 - 1950,1950 - 1951,1951 - 1952,1952 - 1953,1953 - 1954,1954 - 1955,1955 - 1956,,,,,,,,,,,,,,,,
SA,Country/Rural,Cinema ,-32.651278,138.099005,,5485,Wilmington,Institute,Secretary,300,,,,,,,,,1956 - 1957,1957 - 1958,,,,,,,,,,,,,,
SA,Country/Rural,Cinema ,-32.651278,138.099005,,5485,Wilmington,Memorial Hall,Wilmington Progress Ass.,300,,,,,,,,,,,1958 - 1959,1959 - 1960,1960 - 1961,1961 - 1962,1962 - 1963,1963 - 1964,1964 - 1965,1965 - 1966,1966 - 1967,1968 - 1969,,,,
SA,Country/Rural,Cinema ,-33.032499,138.268568,,5481,Wirrabara,Institute,L. Lester,200,1948 - 1949,,,,,,,,,,,,,,,,,,,,,,,
SA,Country/Rural,Cinema ,-33.032499,138.268568,,5481,Wirrabara,Institute,H. Lester,200,,1949 - 1950,,,,,,,,,,,,,,,,,,,,,,
SA,Country/Rural,Cinema ,-33.032499,138.268568,,5481,Wirrabara,Institute,Secretary,200,,,,,,,,,,,,,,,1962 - 1963,1963 - 1964,1964 - 1965,,,,,,,
SA,Country/Rural,Touring Circuit,-33.034526,138.268888,,5481,Wirrabirra,"Benbow Amusements Ltd., 221 Pirie Street, Adelaide",Benbow Amusements Ltd.,200,, ,1950 - 1951,,1952 - 1953,1953 - 1954,1954 - 1955,1955 - 1956,1956 - 1957,1957 - 1958,1958 - 1959,1959 - 1960,1961 - 1962,,,,,,,,,,,
SA,Country/Rural,Cinema ,-32.40376,134.533517,,5661,Wirrulla,Institute,P. S. Morrison,130,1948 - 1949,,,,,,,,,,,,,,,,,,,,,,,
SA,Country/Rural,Cinema ,-34.969709,138.885424,Woodside-Nairne Road,5244,Woodside,Army Camp,…,300,,,,,,,,,,,,,,,,,,,,,,1971,,
SA,Country/Rural,Cinema ,-34.952372,138.875342,,5244,Woodside,Institute,W. V. Benbow,300,1948 - 1949,,,,,,,,,,,,,,,,,,,,,,,
SA,Country/Rural,Cinema ,-34.952372,138.875342,,5244,Woodside,Institute,W. V. Benbow,207,,1949 - 1950,1950 - 1951,1951 - 1952,1952 - 1953,,,,,,,,,,,,,,,,,,,
SA,Country/Rural,Cinema ,-34.952372,138.875342,,5244,Woodside,Institute,Benbow Amusements Ltd.,207,,,,,,1953 - 1954,1954 - 1955,1955 - 1956,,,,,,,,,,,,,,,,
SA,Country/Rural,Cinema ,-34.952372,138.875342,,5244,Woodside,Institute,Benbow Amusements Ltd.,224,,,,,,,,,1956 - 1957,1957 - 1958,1958 - 1959,1959 - 1960,1960 - 1961,1961 - 1962,,,,,,,,,,
SA,Suburban,Cinema ,-34.879881,138.536314,,5011,Woodville,Star,Clifford Theatre Circuit,1424,,,,,,,,,,,,,,,,,,,1966 - 1967,,,,,
SA,Suburban,Cinema ,-34.879881,138.536314,,5011,Woodville,Star,Clifford Theatre Circuit,1359,,,,,,,,,,,,,,,,,,,,1968 - 1969,,,,
SA,Suburban,Cinema ,-34.879881,138.536314,,5011,Woodville,Star,Clifford Theatre Circuit,1000,,,,,,,,,,,,,,,,,,,,,1969 - 1970,,,
SA,Suburban,Cinema ,-34.879881,138.536314,,5011,Woodville,Odeon,Clifford Theatre Circuit,1000,,,,,,,,,,,,,,,,,,,,,,1971,,
SA,Suburban,Cinema ,-34.878284,138.537507,72 Woodville Road,5011,Woodville,Town Hall,Clifford Theatre Circuit,1350,1948 - 1949,1949 - 1950,1950 - 1951,1951 - 1952,1952 - 1953,1953 - 1954,1954 - 1955,1955 - 1956,,,,,,,,,,,,,,,,
SA,Suburban,Cinema ,-34.878284,138.537507,72 Woodville Road,5011,Woodville,Town Hall,Clifford Theatre Circuit,1420,,,,,,,,,1956 - 1957,1957 - 1958,,,,,,,,,,,,,,
SA,Suburban,Cinema ,-34.878284,138.537507,72 Woodville Road,5011,Woodville,Town Hall,Clifford Theatre Circuit,1424,,,,,,,,,,,1958 - 1959,1959 - 1960,1960 - 1961,1961 - 1962,1962 - 1963,1963 - 1964,1964 - 1965,1965 - 1966,,,,,,
SA,Suburban,Cinema ,-34.878284,138.537507,72 Woodville Road,5011,Woodville,Town Hall,…,1424,,,,,,,,,,,,,,,,,,,,,,1971,,
SA,Suburban,Cinema ,-34.866829,138.547497,Hall Court,5011,Woodville Gardens,Community Hall,H. A. Collins,260,,1949 - 1950,1950 - 1951,1951 - 1952,1952 - 1953,1953 - 1954,1954 - 1955,1955 - 1956,1956 - 1957,1957 - 1958,,,,,,,,,,,,,,
SA,Suburban,Cinema ,-34.866829,138.547497,Hall Court,5011,Woodville Gardens,Scout Hall,F. E. Cawse,170,,,,,,,,,,,1958 - 1959,,,,,,,,,,,,,
SA,Country/Rural,Cinema ,-31.200684,136.825919,,5720,Woomera,Theatre,Woomera Theatre,…,,,,,,,,,,,,,,,,,,1965 - 1966,1966 - 1967,,,,,
SA,Country/Rural,Cinema ,-31.200684,136.825919,,5720,Woomera,Cinema,J. Griffin,…,,,,,,,,,,,,,,,,,,,,1968 - 1969,,,,
SA,Country/Rural,Cinema ,-31.200684,136.825919,,5720,Woomera,Cinema,Woomera Theatres,…,,,,,,,,,,,,,,,,,,,,,1969 - 1970,,,
SA,Country/Rural,Cinema ,-31.200684,136.825919,,5720,Woomera,Village,…,694,,,,,,,,,,,,,,,,,,,,,,1971,,
SA,Country/Rural,Open Air,-31.201196,136.782148,,5720,Woomera West,Al Fresco,Woomera Welfare Club Inc.,…,,,,,,,,,,,,,,,,,,1965 - 1966,1966 - 1967,1968 - 1969,1969 - 1970,,,
SA,Country/Rural,Cinema ,-33.04652,135.459993,,5652,Wudinna,Institute,F. P. Hynes,150,1948 - 1949,1949 - 1950,1950 - 1951,1951 - 1952,1952 - 1953,1953 - 1954,1954 - 1955,1955 - 1956,1956 - 1957,1957 - 1958,,,,,,,,,,,,,,
SA,Country/Rural,Cinema ,-33.04652,135.459993,,5652,Wudinna,Institute,Mrs. F. P. Hynes,180,,,,,,,,,,,1958 - 1959,1959 - 1960,,,,,,,,,,,,
SA,Country/Rural,Cinema ,-33.04652,135.459993,,5652,Wudinna,Institute,Memorial Hall-Secretary,180,,,,,,,,,,,,,1960 - 1961,,,,,,,,,,,
SA,Country/Rural,Cinema ,-33.04652,135.459993,,5652,Wudinna,Institute,"Wudinna & Districts Memorial Hall Committee, Cinema Account",180,,,,,,,,,,,,,,1961 - 1962,1962 - 1963,1963 - 1964,1964 - 1965,1965 - 1966,1966 - 1967,,,,,
SA,Country/Rural,Cinema ,-33.04652,135.459993,,5652,Wudinna,Institute,Cinema Committee,180,,,,,,,,,,,,,,,,,,,,1968 - 1969,1969 - 1970,,,
SA,Country/Rural,Cinema ,-33.04652,135.459993,,5652,Wudinna,Institute,Cinema Committee,348,,,,,,,,,,,,,,,,,,,,,,1971,,
SA,Country/Rural,Cinema ,-35.457509,138.349904,,5203,Yankalilla,Institute,D. J. Caffery,250,1948 - 1949,,,,,,,,,,,,,,,,,,,,,,,
SA,Country/Rural,Cinema ,-35.457509,138.349904,,5203,Yankalilla,Institute,C. Fowler,250,,1949 - 1950,1950 - 1951,,,,,,,,,,,,,,,,,,,,,
SA,Country/Rural,Cinema ,-35.457509,138.349904,,5203,Yankalilla,Show Hall,Paratus Pictures,-,,,,1951 - 1952,1952 - 1953,1953 - 1954,1954 - 1955,1955 - 1956,1956 - 1957,,,,,,,,,,,,,,,
SA,Country/Rural,Cinema ,-35.457509,138.349904,,5203,Yankalilla,Show Hall,Paratus Pictures,250,,,,,,,,,,1957 - 1958,,,,,,,,,,,,,,
SA,Country/Rural,Cinema ,-35.457509,138.349904,,5203,Yankalilla,Paratus Pics.,D. G. Goode & C. F. Cahill,223,,,,,,,,,,,1958 - 1959,1959 - 1960,,,,,,,,,,,,
SA,Country/Rural,Cinema ,-34.137904,135.726248,,5632,Yeelanna,Institute,Community Pictures,300,,,,,,1953 - 1954,1954 - 1955,1955 - 1956,,,,,,,,,,,,,,,,
SA,Country/Rural,Cinema ,-34.137904,135.726248,,5632,Yeelanna,Institute,Community Pictures,150,,,,,,,,,1956 - 1957,1957 - 1958,,,,,,,,,,,,,,
SA,Country/Rural,Cinema ,-34.137904,135.726248,,5632,Yeelanna,Hall,Yeelanna Community Pics.,230,,,,,,,,,,,1958 - 1959,1959 - 1960,1960 - 1961,1961 - 1962,1962 - 1963,1963 - 1964,1964 - 1965,1965 - 1966,1966 - 1967,1968 - 1969,1969 - 1970,,,
SA,Country/Rural,Cinema ,-35.01904,137.604941,,5576,Yorketown,Institute,W. V. Benbow,394,1948 - 1949,1949 - 1950,1950 - 1951,1951 - 1952,1952 - 1953,,,,,,,,,,,,,,,,,,,
SA,Country/Rural,Cinema ,-35.01904,137.604941,,5576,Yorketown,Institute,Benbow Amusements Ltd.,394,,,,,,1953 - 1954,1954 - 1955,1955 - 1956,,,,,,,,,,,,,,,,
SA,Country/Rural,Cinema ,-35.01904,137.604941,,5576,Yorketown,Institute,Benbow Amusements Ltd.,336,,,,,,,,,1956 - 1957,1957 - 1958,1958 - 1959,1959 - 1960,1960 - 1961,1961 - 1962,1962 - 1963,1963 - 1964,1964 - 1965,1965 - 1966,,1968 - 1969, ,,,
SA,Country/Rural,Cinema ,-35.01904,137.604941,,5576,Yorketown,York,J. Harvey,336,,,,,,,,,,,,,,,,,,,,,1969 - 1970,,,
SA,Country/Rural,Cinema ,-35.01904,137.604941,,5576,Yorketown,Yorke,J. Harvey,497,,,,,,,,,,,,,,,,,,,,,,1971,,
